,location_ref,location_code,location_name,admin1_is_unspecified,admin2_is_unspecified,admin1_ref,admin1_code,admin1_name,admin2_ref,admin2_code,admin2_name,resource_hdx_id,event_type,events,fatalities,reference_period_start,reference_period_end
0,1,AFG,Afghanistan,False,False,1,AF01,Kabul,1,AF0101,Kabul,667f089f-e183-4afd-8584-6f27f4245acf,civilian_targeting,3,0.0,2017-01-01 00:00:00,2017-01-31 00:00:00
1,1,AFG,Afghanistan,False,False,1,AF01,Kabul,1,AF0101,Kabul,667f089f-e183-4afd-8584-6f27f4245acf,civilian_targeting,2,23.0,2017-02-01 00:00:00,2017-02-28 00:00:00
2,1,AFG,Afghanistan,False,False,1,AF01,Kabul,1,AF0101,Kabul,667f089f-e183-4afd-8584-6f27f4245acf,civilian_targeting,2,2.0,2017-03-01 00:00:00,2017-03-31 00:00:00
3,1,AFG,Afghanistan,False,False,1,AF01,Kabul,1,AF0101,Kabul,667f089f-e183-4afd-8584-6f27f4245acf,civilian_targeting,2,8.0,2017-04-01 00:00:00,2017-04-30 00:00:00
4,1,AFG,Afghanistan,False,False,1,AF01,Kabul,1,AF0101,Kabul,667f089f-e183-4afd-8584-6f27f4245acf,civilian_targeting,3,3.0,2017-05-01 00:00:00,2017-05-31 00:00:00
5,1,AFG,Afghanistan,False,False,1,AF01,Kabul,1,AF0101,Kabul,667f089f-e183-4afd-8584-6f27f4245acf,civilian_targeting,4,27.0,2017-06-01 00:00:00,2017-06-30 00:00:00
6,1,AFG,Afghanistan,False,False,1,AF01,Kabul,1,AF0101,Kabul,667f089f-e183-4afd-8584-6f27f4245acf,civilian_targeting,2,30.0,2017-07-01 00:00:00,2017-07-31 00:00:00
7,1,AFG,Afghanistan,False,False,1,AF01,Kabul,1,AF0101,Kabul,667f089f-e183-4afd-8584-6f27f4245acf,civilian_targeting,5,41.0,2017-08-01 00:00:00,2017-08-31 00:00:00
8,1,AFG,Afghanistan,False,False,1,AF01,Kabul,1,AF0101,Kabul,667f089f-e183-4afd-8584-6f27f4245acf,civilian_targeting,5,8.0,2017-09-01 00:00:00,2017-09-30 00:00:00
9,1,AFG,Afghanistan,False,False,1,AF01,Kabul,1,AF0101,Kabul,667f089f-e183-4afd-8584-6f27f4245acf,civilian_targeting,4,68.0,2017-10-01 00:00:00,2017-10-31 00:00:00
10,1,AFG,Afghanistan,False,False,1,AF01,Kabul,1,AF0101,Kabul,667f089f-e183-4afd-8584-6f27f4245acf,civilian_targeting,0,0.0,2017-11-01 00:00:00,2017-11-30 00:00:00
11,1,AFG,Afghanistan,False,False,1,AF01,Kabul,1,AF0101,Kabul,667f089f-e183-4afd-8584-6f27f4245acf,civilian_targeting,5,96.0,2017-12-01 00:00:00,2017-12-31 00:00:00
12,1,AFG,Afghanistan,False,False,1,AF01,Kabul,1,AF0101,Kabul,667f089f-e183-4afd-8584-6f27f4245acf,civilian_targeting,3,105.0,2018-01-01 00:00:00,2018-01-31 00:00:00
13,1,AFG,Afghanistan,False,False,1,AF01,Kabul,1,AF0101,Kabul,667f089f-e183-4afd-8584-6f27f4245acf,civilian_targeting,1,4.0,2018-02-01 00:00:00,2018-02-28 00:00:00
14,1,AFG,Afghanistan,False,False,1,AF01,Kabul,1,AF0101,Kabul,667f089f-e183-4afd-8584-6f27f4245acf,civilian_targeting,6,52.0,2018-03-01 00:00:00,2018-03-31 00:00:00
15,1,AFG,Afghanistan,False,False,1,AF01,Kabul,1,AF0101,Kabul,667f089f-e183-4afd-8584-6f27f4245acf,civilian_targeting,3,71.0,2018-04-01 00:00:00,2018-04-30 00:00:00
16,1,AFG,Afghanistan,False,False,1,AF01,Kabul,1,AF0101,Kabul,667f089f-e183-4afd-8584-6f27f4245acf,civilian_targeting,2,1.0,2018-05-01 00:00:00,2018-05-31 00:00:00
17,1,AFG,Afghanistan,False,False,1,AF01,Kabul,1,AF0101,Kabul,667f089f-e183-4afd-8584-6f27f4245acf,civilian_targeting,4,15.0,2018-06-01 00:00:00,2018-06-30 00:00:00
18,1,AFG,Afghanistan,False,False,1,AF01,Kabul,1,AF0101,Kabul,667f089f-e183-4afd-8584-6f27f4245acf,civilian_targeting,5,11.0,2018-07-01 00:00:00,2018-07-31 00:00:00
19,1,AFG,Afghanistan,False,False,1,AF01,Kabul,1,AF0101,Kabul,667f089f-e183-4afd-8584-6f27f4245acf,civilian_targeting,1,35.0,2018-08-01 00:00:00,2018-08-31 00:00:00
20,1,AFG,Afghanistan,False,False,1,AF01,Kabul,1,AF0101,Kabul,667f089f-e183-4afd-8584-6f27f4245acf,civilian_targeting,7,36.0,2018-09-01 00:00:00,2018-09-30 00:00:00
21,1,AFG,Afghanistan,False,False,1,AF01,Kabul,1,AF0101,Kabul,667f089f-e183-4afd-8584-6f27f4245acf,civilian_targeting,3,8.0,2018-10-01 00:00:00,2018-10-31 00:00:00
22,1,AFG,Afghanistan,False,False,1,AF01,Kabul,1,AF0101,Kabul,667f089f-e183-4afd-8584-6f27f4245acf,civilian_targeting,3,66.0,2018-11-01 00:00:00,2018-11-30 00:00:00
23,1,AFG,Afghanistan,False,False,1,AF01,Kabul,1,AF0101,Kabul,667f089f-e183-4afd-8584-6f27f4245acf,civilian_targeting,0,0.0,2018-12-01 00:00:00,2018-12-31 00:00:00
24,1,AFG,Afghanistan,False,False,1,AF01,Kabul,1,AF0101,Kabul,667f089f-e183-4afd-8584-6f27f4245acf,civilian_targeting,2,0.0,2019-01-01 00:00:00,2019-01-31 00:00:00
25,1,AFG,Afghanistan,False,False,1,AF01,Kabul,1,AF0101,Kabul,667f089f-e183-4afd-8584-6f27f4245acf,civilian_targeting,1,1.0,2019-02-01 00:00:00,2019-02-28 00:00:00
26,1,AFG,Afghanistan,False,False,1,AF01,Kabul,1,AF0101,Kabul,667f089f-e183-4afd-8584-6f27f4245acf,civilian_targeting,3,18.0,2019-03-01 00:00:00,2019-03-31 00:00:00
27,1,AFG,Afghanistan,False,False,1,AF01,Kabul,1,AF0101,Kabul,667f089f-e183-4afd-8584-6f27f4245acf,civilian_targeting,1,1.0,2019-04-01 00:00:00,2019-04-30 00:00:00
28,1,AFG,Afghanistan,False,False,1,AF01,Kabul,1,AF0101,Kabul,667f089f-e183-4afd-8584-6f27f4245acf,civilian_targeting,5,6.0,2019-05-01 00:00:00,2019-05-31 00:00:00
29,1,AFG,Afghanistan,False,False,1,AF01,Kabul,1,AF0101,Kabul,667f089f-e183-4afd-8584-6f27f4245acf,civilian_targeting,3,8.0,2019-06-01 00:00:00,2019-06-30 00:00:00
30,1,AFG,Afghanistan,False,False,1,AF01,Kabul,1,AF0101,Kabul,667f089f-e183-4afd-8584-6f27f4245acf,civilian_targeting,5,29.0,2019-07-01 00:00:00,2019-07-31 00:00:00
31,1,AFG,Afghanistan,False,False,1,AF01,Kabul,1,AF0101,Kabul,667f089f-e183-4afd-8584-6f27f4245acf,civilian_targeting,4,85.0,2019-08-01 00:00:00,2019-08-31 00:00:00
32,1,AFG,Afghanistan,False,False,1,AF01,Kabul,1,AF0101,Kabul,667f089f-e183-4afd-8584-6f27f4245acf,civilian_targeting,3,17.0,2019-09-01 00:00:00,2019-09-30 00:00:00
33,1,AFG,Afghanistan,False,False,1,AF01,Kabul,1,AF0101,Kabul,667f089f-e183-4afd-8584-6f27f4245acf,civilian_targeting,4,2.0,2019-10-01 00:00:00,2019-10-31 00:00:00
34,1,AFG,Afghanistan,False,False,1,AF01,Kabul,1,AF0101,Kabul,667f089f-e183-4afd-8584-6f27f4245acf,civilian_targeting,5,18.0,2019-11-01 00:00:00,2019-11-30 00:00:00
35,1,AFG,Afghanistan,False,False,1,AF01,Kabul,1,AF0101,Kabul,667f089f-e183-4afd-8584-6f27f4245acf,civilian_targeting,1,1.0,2019-12-01 00:00:00,2019-12-31 00:00:00
36,1,AFG,Afghanistan,False,False,1,AF01,Kabul,1,AF0101,Kabul,667f089f-e183-4afd-8584-6f27f4245acf,civilian_targeting,6,13.0,2020-01-01 00:00:00,2020-01-31 00:00:00
37,1,AFG,Afghanistan,False,False,1,AF01,Kabul,1,AF0101,Kabul,667f089f-e183-4afd-8584-6f27f4245acf,civilian_targeting,5,4.0,2020-02-01 00:00:00,2020-02-29 00:00:00
38,1,AFG,Afghanistan,False,False,1,AF01,Kabul,1,AF0101,Kabul,667f089f-e183-4afd-8584-6f27f4245acf,civilian_targeting,8,3.0,2020-03-01 00:00:00,2020-03-31 00:00:00
39,1,AFG,Afghanistan,False,False,1,AF01,Kabul,1,AF0101,Kabul,667f089f-e183-4afd-8584-6f27f4245acf,civilian_targeting,2,0.0,2020-04-01 00:00:00,2020-04-30 00:00:00
40,1,AFG,Afghanistan,False,False,1,AF01,Kabul,1,AF0101,Kabul,667f089f-e183-4afd-8584-6f27f4245acf,civilian_targeting,10,6.0,2020-05-01 00:00:00,2020-05-31 00:00:00
41,1,AFG,Afghanistan,False,False,1,AF01,Kabul,1,AF0101,Kabul,667f089f-e183-4afd-8584-6f27f4245acf,civilian_targeting,6,11.0,2020-06-01 00:00:00,2020-06-30 00:00:00
42,1,AFG,Afghanistan,False,False,1,AF01,Kabul,1,AF0101,Kabul,667f089f-e183-4afd-8584-6f27f4245acf,civilian_targeting,7,5.0,2020-07-01 00:00:00,2020-07-31 00:00:00
43,1,AFG,Afghanistan,False,False,1,AF01,Kabul,1,AF0101,Kabul,667f089f-e183-4afd-8584-6f27f4245acf,civilian_targeting,17,15.0,2020-08-01 00:00:00,2020-08-31 00:00:00
44,1,AFG,Afghanistan,False,False,1,AF01,Kabul,1,AF0101,Kabul,667f089f-e183-4afd-8584-6f27f4245acf,civilian_targeting,9,17.0,2020-09-01 00:00:00,2020-09-30 00:00:00
45,1,AFG,Afghanistan,False,False,1,AF01,Kabul,1,AF0101,Kabul,667f089f-e183-4afd-8584-6f27f4245acf,civilian_targeting,9,34.0,2020-10-01 00:00:00,2020-10-31 00:00:00
46,1,AFG,Afghanistan,False,False,1,AF01,Kabul,1,AF0101,Kabul,667f089f-e183-4afd-8584-6f27f4245acf,civilian_targeting,8,54.0,2020-11-01 00:00:00,2020-11-30 00:00:00
47,1,AFG,Afghanistan,False,False,1,AF01,Kabul,1,AF0101,Kabul,667f089f-e183-4afd-8584-6f27f4245acf,civilian_targeting,17,38.0,2020-12-01 00:00:00,2020-12-31 00:00:00
48,1,AFG,Afghanistan,False,False,1,AF01,Kabul,1,AF0101,Kabul,667f089f-e183-4afd-8584-6f27f4245acf,civilian_targeting,19,33.0,2021-01-01 00:00:00,2021-01-31 00:00:00
49,1,AFG,Afghanistan,False,False,1,AF01,Kabul,1,AF0101,Kabul,667f089f-e183-4afd-8584-6f27f4245acf,civilian_targeting,19,22.0,2021-02-01 00:00:00,2021-02-28 00:00:00
50,1,AFG,Afghanistan,False,False,1,AF01,Kabul,1,AF0101,Kabul,667f089f-e183-4afd-8584-6f27f4245acf,civilian_targeting,10,18.0,2021-03-01 00:00:00,2021-03-31 00:00:00
51,1,AFG,Afghanistan,False,False,1,AF01,Kabul,1,AF0101,Kabul,667f089f-e183-4afd-8584-6f27f4245acf,civilian_targeting,5,5.0,2021-04-01 00:00:00,2021-04-30 00:00:00
52,1,AFG,Afghanistan,False,False,1,AF01,Kabul,1,AF0101,Kabul,667f089f-e183-4afd-8584-6f27f4245acf,civilian_targeting,12,118.0,2021-05-01 00:00:00,2021-05-31 00:00:00
53,1,AFG,Afghanistan,False,False,1,AF01,Kabul,1,AF0101,Kabul,667f089f-e183-4afd-8584-6f27f4245acf,civilian_targeting,12,33.0,2021-06-01 00:00:00,2021-06-30 00:00:00
54,1,AFG,Afghanistan,False,False,1,AF01,Kabul,1,AF0101,Kabul,667f089f-e183-4afd-8584-6f27f4245acf,civilian_targeting,8,19.0,2021-07-01 00:00:00,2021-07-31 00:00:00
55,1,AFG,Afghanistan,False,False,1,AF01,Kabul,1,AF0101,Kabul,667f089f-e183-4afd-8584-6f27f4245acf,civilian_targeting,22,15.0,2021-08-01 00:00:00,2021-08-31 00:00:00
56,1,AFG,Afghanistan,False,False,1,AF01,Kabul,1,AF0101,Kabul,667f089f-e183-4afd-8584-6f27f4245acf,civilian_targeting,17,7.0,2021-09-01 00:00:00,2021-09-30 00:00:00
57,1,AFG,Afghanistan,False,False,1,AF01,Kabul,1,AF0101,Kabul,667f089f-e183-4afd-8584-6f27f4245acf,civilian_targeting,9,4.0,2021-10-01 00:00:00,2021-10-31 00:00:00
58,1,AFG,Afghanistan,False,False,1,AF01,Kabul,1,AF0101,Kabul,667f089f-e183-4afd-8584-6f27f4245acf,civilian_targeting,16,7.0,2021-11-01 00:00:00,2021-11-30 00:00:00
59,1,AFG,Afghanistan,False,False,1,AF01,Kabul,1,AF0101,Kabul,667f089f-e183-4afd-8584-6f27f4245acf,civilian_targeting,21,13.0,2021-12-01 00:00:00,2021-12-31 00:00:00
60,1,AFG,Afghanistan,False,False,1,AF01,Kabul,1,AF0101,Kabul,667f089f-e183-4afd-8584-6f27f4245acf,civilian_targeting,19,12.0,2022-01-01 00:00:00,2022-01-31 00:00:00
61,1,AFG,Afghanistan,False,False,1,AF01,Kabul,1,AF0101,Kabul,667f089f-e183-4afd-8584-6f27f4245acf,civilian_targeting,18,12.0,2022-02-01 00:00:00,2022-02-28 00:00:00
62,1,AFG,Afghanistan,False,False,1,AF01,Kabul,1,AF0101,Kabul,667f089f-e183-4afd-8584-6f27f4245acf,civilian_targeting,11,2.0,2022-03-01 00:00:00,2022-03-31 00:00:00
63,1,AFG,Afghanistan,False,False,1,AF01,Kabul,1,AF0101,Kabul,667f089f-e183-4afd-8584-6f27f4245acf,civilian_targeting,13,73.0,2022-04-01 00:00:00,2022-04-30 00:00:00
64,1,AFG,Afghanistan,False,False,1,AF01,Kabul,1,AF0101,Kabul,667f089f-e183-4afd-8584-6f27f4245acf,civilian_targeting,9,7.0,2022-05-01 00:00:00,2022-05-31 00:00:00
65,1,AFG,Afghanistan,False,False,1,AF01,Kabul,1,AF0101,Kabul,667f089f-e183-4afd-8584-6f27f4245acf,civilian_targeting,8,7.0,2022-06-01 00:00:00,2022-06-30 00:00:00
66,1,AFG,Afghanistan,False,False,1,AF01,Kabul,1,AF0101,Kabul,667f089f-e183-4afd-8584-6f27f4245acf,civilian_targeting,5,7.0,2022-07-01 00:00:00,2022-07-31 00:00:00
67,1,AFG,Afghanistan,False,False,1,AF01,Kabul,1,AF0101,Kabul,667f089f-e183-4afd-8584-6f27f4245acf,civilian_targeting,15,43.0,2022-08-01 00:00:00,2022-08-31 00:00:00
68,1,AFG,Afghanistan,False,False,1,AF01,Kabul,1,AF0101,Kabul,667f089f-e183-4afd-8584-6f27f4245acf,civilian_targeting,10,75.0,2022-09-01 00:00:00,2022-09-30 00:00:00
69,1,AFG,Afghanistan,False,False,1,AF01,Kabul,1,AF0101,Kabul,667f089f-e183-4afd-8584-6f27f4245acf,civilian_targeting,10,7.0,2022-10-01 00:00:00,2022-10-31 00:00:00
70,1,AFG,Afghanistan,False,False,1,AF01,Kabul,1,AF0101,Kabul,667f089f-e183-4afd-8584-6f27f4245acf,civilian_targeting,11,4.0,2022-11-01 00:00:00,2022-11-30 00:00:00
71,1,AFG,Afghanistan,False,False,1,AF01,Kabul,1,AF0101,Kabul,667f089f-e183-4afd-8584-6f27f4245acf,civilian_targeting,12,5.0,2022-12-01 00:00:00,2022-12-31 00:00:00
72,1,AFG,Afghanistan,False,False,1,AF01,Kabul,1,AF0101,Kabul,667f089f-e183-4afd-8584-6f27f4245acf,civilian_targeting,10,25.0,2023-01-01 00:00:00,2023-01-31 00:00:00
73,1,AFG,Afghanistan,False,False,1,AF01,Kabul,1,AF0101,Kabul,667f089f-e183-4afd-8584-6f27f4245acf,civilian_targeting,14,2.0,2023-02-01 00:00:00,2023-02-28 00:00:00
74,1,AFG,Afghanistan,False,False,1,AF01,Kabul,1,AF0101,Kabul,667f089f-e183-4afd-8584-6f27f4245acf,civilian_targeting,10,11.0,2023-03-01 00:00:00,2023-03-31 00:00:00
75,1,AFG,Afghanistan,False,False,1,AF01,Kabul,1,AF0101,Kabul,667f089f-e183-4afd-8584-6f27f4245acf,civilian_targeting,6,3.0,2023-04-01 00:00:00,2023-04-30 00:00:00
76,1,AFG,Afghanistan,False,False,1,AF01,Kabul,1,AF0101,Kabul,667f089f-e183-4afd-8584-6f27f4245acf,civilian_targeting,10,2.0,2023-05-01 00:00:00,2023-05-31 00:00:00
77,1,AFG,Afghanistan,False,False,1,AF01,Kabul,1,AF0101,Kabul,667f089f-e183-4afd-8584-6f27f4245acf,civilian_targeting,4,2.0,2023-06-01 00:00:00,2023-06-30 00:00:00
78,1,AFG,Afghanistan,False,False,1,AF01,Kabul,1,AF0101,Kabul,667f089f-e183-4afd-8584-6f27f4245acf,civilian_targeting,8,1.0,2023-07-01 00:00:00,2023-07-31 00:00:00
79,1,AFG,Afghanistan,False,False,1,AF01,Kabul,1,AF0101,Kabul,667f089f-e183-4afd-8584-6f27f4245acf,civilian_targeting,5,3.0,2023-08-01 00:00:00,2023-08-31 00:00:00
80,1,AFG,Afghanistan,False,False,1,AF01,Kabul,1,AF0101,Kabul,667f089f-e183-4afd-8584-6f27f4245acf,civilian_targeting,3,0.0,2023-09-01 00:00:00,2023-09-30 00:00:00
81,1,AFG,Afghanistan,False,False,1,AF01,Kabul,1,AF0101,Kabul,667f089f-e183-4afd-8584-6f27f4245acf,civilian_targeting,6,10.0,2023-10-01 00:00:00,2023-10-31 00:00:00
82,1,AFG,Afghanistan,False,False,1,AF01,Kabul,1,AF0101,Kabul,667f089f-e183-4afd-8584-6f27f4245acf,civilian_targeting,6,8.0,2023-11-01 00:00:00,2023-11-30 00:00:00
83,1,AFG,Afghanistan,False,False,1,AF01,Kabul,1,AF0101,Kabul,667f089f-e183-4afd-8584-6f27f4245acf,civilian_targeting,5,3.0,2023-12-01 00:00:00,2023-12-31 00:00:00
84,1,AFG,Afghanistan,False,False,1,AF01,Kabul,1,AF0101,Kabul,667f089f-e183-4afd-8584-6f27f4245acf,civilian_targeting,19,8.0,2024-01-01 00:00:00,2024-01-31 00:00:00
85,1,AFG,Afghanistan,False,False,1,AF01,Kabul,1,AF0101,Kabul,667f089f-e183-4afd-8584-6f27f4245acf,civilian_targeting,4,1.0,2024-02-01 00:00:00,2024-02-29 00:00:00
86,1,AFG,Afghanistan,False,False,1,AF01,Kabul,1,AF0101,Kabul,667f089f-e183-4afd-8584-6f27f4245acf,civilian_targeting,2,2.0,2024-03-01 00:00:00,2024-03-31 00:00:00
87,1,AFG,Afghanistan,False,False,1,AF01,Kabul,1,AF0101,Kabul,667f089f-e183-4afd-8584-6f27f4245acf,civilian_targeting,2,1.0,2024-04-01 00:00:00,2024-04-30 00:00:00
88,1,AFG,Afghanistan,False,False,1,AF01,Kabul,1,AF0101,Kabul,667f089f-e183-4afd-8584-6f27f4245acf,civilian_targeting,5,5.0,2024-05-01 00:00:00,2024-05-31 00:00:00
89,1,AFG,Afghanistan,False,False,1,AF01,Kabul,1,AF0101,Kabul,667f089f-e183-4afd-8584-6f27f4245acf,civilian_targeting,7,3.0,2024-06-01 00:00:00,2024-06-30 00:00:00
90,1,AFG,Afghanistan,False,False,1,AF01,Kabul,1,AF0101,Kabul,667f089f-e183-4afd-8584-6f27f4245acf,civilian_targeting,7,1.0,2024-07-01 00:00:00,2024-07-31 00:00:00
91,1,AFG,Afghanistan,False,False,1,AF01,Kabul,1,AF0101,Kabul,667f089f-e183-4afd-8584-6f27f4245acf,civilian_targeting,5,3.0,2024-08-01 00:00:00,2024-08-31 00:00:00
92,1,AFG,Afghanistan,False,False,1,AF01,Kabul,1,AF0101,Kabul,667f089f-e183-4afd-8584-6f27f4245acf,civilian_targeting,3,18.0,2024-09-01 00:00:00,2024-09-30 00:00:00
93,1,AFG,Afghanistan,False,False,1,AF01,Kabul,1,AF0101,Kabul,667f089f-e183-4afd-8584-6f27f4245acf,demonstration,4,,2017-01-01 00:00:00,2017-01-31 00:00:00
94,1,AFG,Afghanistan,False,False,1,AF01,Kabul,1,AF0101,Kabul,667f089f-e183-4afd-8584-6f27f4245acf,demonstration,3,,2017-02-01 00:00:00,2017-02-28 00:00:00
95,1,AFG,Afghanistan,False,False,1,AF01,Kabul,1,AF0101,Kabul,667f089f-e183-4afd-8584-6f27f4245acf,demonstration,0,,2017-03-01 00:00:00,2017-03-31 00:00:00
96,1,AFG,Afghanistan,False,False,1,AF01,Kabul,1,AF0101,Kabul,667f089f-e183-4afd-8584-6f27f4245acf,demonstration,2,,2017-04-01 00:00:00,2017-04-30 00:00:00
97,1,AFG,Afghanistan,False,False,1,AF01,Kabul,1,AF0101,Kabul,667f089f-e183-4afd-8584-6f27f4245acf,demonstration,1,,2017-05-01 00:00:00,2017-05-31 00:00:00
98,1,AFG,Afghanistan,False,False,1,AF01,Kabul,1,AF0101,Kabul,667f089f-e183-4afd-8584-6f27f4245acf,demonstration,6,,2017-06-01 00:00:00,2017-06-30 00:00:00
99,1,AFG,Afghanistan,False,False,1,AF01,Kabul,1,AF0101,Kabul,667f089f-e183-4afd-8584-6f27f4245acf,demonstration,4,,2017-07-01 00:00:00,2017-07-31 00:00:00
100,1,AFG,Afghanistan,False,False,1,AF01,Kabul,1,AF0101,Kabul,667f089f-e183-4afd-8584-6f27f4245acf,demonstration,3,,2017-08-01 00:00:00,2017-08-31 00:00:00
101,1,AFG,Afghanistan,False,False,1,AF01,Kabul,1,AF0101,Kabul,667f089f-e183-4afd-8584-6f27f4245acf,demonstration,0,,2017-09-01 00:00:00,2017-09-30 00:00:00
102,1,AFG,Afghanistan,False,False,1,AF01,Kabul,1,AF0101,Kabul,667f089f-e183-4afd-8584-6f27f4245acf,demonstration,4,,2017-10-01 00:00:00,2017-10-31 00:00:00
103,1,AFG,Afghanistan,False,False,1,AF01,Kabul,1,AF0101,Kabul,667f089f-e183-4afd-8584-6f27f4245acf,demonstration,4,,2017-11-01 00:00:00,2017-11-30 00:00:00
104,1,AFG,Afghanistan,False,False,1,AF01,Kabul,1,AF0101,Kabul,667f089f-e183-4afd-8584-6f27f4245acf,demonstration,3,,2017-12-01 00:00:00,2017-12-31 00:00:00
105,1,AFG,Afghanistan,False,False,1,AF01,Kabul,1,AF0101,Kabul,667f089f-e183-4afd-8584-6f27f4245acf,demonstration,2,,2018-01-01 00:00:00,2018-01-31 00:00:00
106,1,AFG,Afghanistan,False,False,1,AF01,Kabul,1,AF0101,Kabul,667f089f-e183-4afd-8584-6f27f4245acf,demonstration,2,,2018-02-01 00:00:00,2018-02-28 00:00:00
107,1,AFG,Afghanistan,False,False,1,AF01,Kabul,1,AF0101,Kabul,667f089f-e183-4afd-8584-6f27f4245acf,demonstration,3,,2018-03-01 00:00:00,2018-03-31 00:00:00
108,1,AFG,Afghanistan,False,False,1,AF01,Kabul,1,AF0101,Kabul,667f089f-e183-4afd-8584-6f27f4245acf,demonstration,5,,2018-04-01 00:00:00,2018-04-30 00:00:00
109,1,AFG,Afghanistan,False,False,1,AF01,Kabul,1,AF0101,Kabul,667f089f-e183-4afd-8584-6f27f4245acf,demonstration,2,,2018-05-01 00:00:00,2018-05-31 00:00:00
110,1,AFG,Afghanistan,False,False,1,AF01,Kabul,1,AF0101,Kabul,667f089f-e183-4afd-8584-6f27f4245acf,demonstration,7,,2018-06-01 00:00:00,2018-06-30 00:00:00
111,1,AFG,Afghanistan,False,False,1,AF01,Kabul,1,AF0101,Kabul,667f089f-e183-4afd-8584-6f27f4245acf,demonstration,11,,2018-07-01 00:00:00,2018-07-31 00:00:00
112,1,AFG,Afghanistan,False,False,1,AF01,Kabul,1,AF0101,Kabul,667f089f-e183-4afd-8584-6f27f4245acf,demonstration,2,,2018-08-01 00:00:00,2018-08-31 00:00:00
113,1,AFG,Afghanistan,False,False,1,AF01,Kabul,1,AF0101,Kabul,667f089f-e183-4afd-8584-6f27f4245acf,demonstration,0,,2018-09-01 00:00:00,2018-09-30 00:00:00
114,1,AFG,Afghanistan,False,False,1,AF01,Kabul,1,AF0101,Kabul,667f089f-e183-4afd-8584-6f27f4245acf,demonstration,0,,2018-10-01 00:00:00,2018-10-31 00:00:00
115,1,AFG,Afghanistan,False,False,1,AF01,Kabul,1,AF0101,Kabul,667f089f-e183-4afd-8584-6f27f4245acf,demonstration,3,,2018-11-01 00:00:00,2018-11-30 00:00:00
116,1,AFG,Afghanistan,False,False,1,AF01,Kabul,1,AF0101,Kabul,667f089f-e183-4afd-8584-6f27f4245acf,demonstration,0,,2018-12-01 00:00:00,2018-12-31 00:00:00
117,1,AFG,Afghanistan,False,False,1,AF01,Kabul,1,AF0101,Kabul,667f089f-e183-4afd-8584-6f27f4245acf,demonstration,1,,2019-01-01 00:00:00,2019-01-31 00:00:00
118,1,AFG,Afghanistan,False,False,1,AF01,Kabul,1,AF0101,Kabul,667f089f-e183-4afd-8584-6f27f4245acf,demonstration,0,,2019-02-01 00:00:00,2019-02-28 00:00:00
119,1,AFG,Afghanistan,False,False,1,AF01,Kabul,1,AF0101,Kabul,667f089f-e183-4afd-8584-6f27f4245acf,demonstration,0,,2019-03-01 00:00:00,2019-03-31 00:00:00
120,1,AFG,Afghanistan,False,False,1,AF01,Kabul,1,AF0101,Kabul,667f089f-e183-4afd-8584-6f27f4245acf,demonstration,0,,2019-04-01 00:00:00,2019-04-30 00:00:00
121,1,AFG,Afghanistan,False,False,1,AF01,Kabul,1,AF0101,Kabul,667f089f-e183-4afd-8584-6f27f4245acf,demonstration,0,,2019-05-01 00:00:00,2019-05-31 00:00:00
122,1,AFG,Afghanistan,False,False,1,AF01,Kabul,1,AF0101,Kabul,667f089f-e183-4afd-8584-6f27f4245acf,demonstration,0,,2019-06-01 00:00:00,2019-06-30 00:00:00
123,1,AFG,Afghanistan,False,False,1,AF01,Kabul,1,AF0101,Kabul,667f089f-e183-4afd-8584-6f27f4245acf,demonstration,0,,2019-07-01 00:00:00,2019-07-31 00:00:00
124,1,AFG,Afghanistan,False,False,1,AF01,Kabul,1,AF0101,Kabul,667f089f-e183-4afd-8584-6f27f4245acf,demonstration,0,,2019-08-01 00:00:00,2019-08-31 00:00:00
125,1,AFG,Afghanistan,False,False,1,AF01,Kabul,1,AF0101,Kabul,667f089f-e183-4afd-8584-6f27f4245acf,demonstration,3,,2019-09-01 00:00:00,2019-09-30 00:00:00
126,1,AFG,Afghanistan,False,False,1,AF01,Kabul,1,AF0101,Kabul,667f089f-e183-4afd-8584-6f27f4245acf,demonstration,1,,2019-10-01 00:00:00,2019-10-31 00:00:00
127,1,AFG,Afghanistan,False,False,1,AF01,Kabul,1,AF0101,Kabul,667f089f-e183-4afd-8584-6f27f4245acf,demonstration,4,,2019-11-01 00:00:00,2019-11-30 00:00:00
128,1,AFG,Afghanistan,False,False,1,AF01,Kabul,1,AF0101,Kabul,667f089f-e183-4afd-8584-6f27f4245acf,demonstration,1,,2019-12-01 00:00:00,2019-12-31 00:00:00
129,1,AFG,Afghanistan,False,False,1,AF01,Kabul,1,AF0101,Kabul,667f089f-e183-4afd-8584-6f27f4245acf,demonstration,3,,2020-01-01 00:00:00,2020-01-31 00:00:00
130,1,AFG,Afghanistan,False,False,1,AF01,Kabul,1,AF0101,Kabul,667f089f-e183-4afd-8584-6f27f4245acf,demonstration,4,,2020-02-01 00:00:00,2020-02-29 00:00:00
131,1,AFG,Afghanistan,False,False,1,AF01,Kabul,1,AF0101,Kabul,667f089f-e183-4afd-8584-6f27f4245acf,demonstration,1,,2020-03-01 00:00:00,2020-03-31 00:00:00
132,1,AFG,Afghanistan,False,False,1,AF01,Kabul,1,AF0101,Kabul,667f089f-e183-4afd-8584-6f27f4245acf,demonstration,0,,2020-04-01 00:00:00,2020-04-30 00:00:00
133,1,AFG,Afghanistan,False,False,1,AF01,Kabul,1,AF0101,Kabul,667f089f-e183-4afd-8584-6f27f4245acf,demonstration,2,,2020-05-01 00:00:00,2020-05-31 00:00:00
134,1,AFG,Afghanistan,False,False,1,AF01,Kabul,1,AF0101,Kabul,667f089f-e183-4afd-8584-6f27f4245acf,demonstration,4,,2020-06-01 00:00:00,2020-06-30 00:00:00
135,1,AFG,Afghanistan,False,False,1,AF01,Kabul,1,AF0101,Kabul,667f089f-e183-4afd-8584-6f27f4245acf,demonstration,3,,2020-07-01 00:00:00,2020-07-31 00:00:00
136,1,AFG,Afghanistan,False,False,1,AF01,Kabul,1,AF0101,Kabul,667f089f-e183-4afd-8584-6f27f4245acf,demonstration,2,,2020-08-01 00:00:00,2020-08-31 00:00:00
137,1,AFG,Afghanistan,False,False,1,AF01,Kabul,1,AF0101,Kabul,667f089f-e183-4afd-8584-6f27f4245acf,demonstration,1,,2020-09-01 00:00:00,2020-09-30 00:00:00
138,1,AFG,Afghanistan,False,False,1,AF01,Kabul,1,AF0101,Kabul,667f089f-e183-4afd-8584-6f27f4245acf,demonstration,7,,2020-10-01 00:00:00,2020-10-31 00:00:00
139,1,AFG,Afghanistan,False,False,1,AF01,Kabul,1,AF0101,Kabul,667f089f-e183-4afd-8584-6f27f4245acf,demonstration,3,,2020-11-01 00:00:00,2020-11-30 00:00:00
140,1,AFG,Afghanistan,False,False,1,AF01,Kabul,1,AF0101,Kabul,667f089f-e183-4afd-8584-6f27f4245acf,demonstration,2,,2020-12-01 00:00:00,2020-12-31 00:00:00
141,1,AFG,Afghanistan,False,False,1,AF01,Kabul,1,AF0101,Kabul,667f089f-e183-4afd-8584-6f27f4245acf,demonstration,2,,2021-01-01 00:00:00,2021-01-31 00:00:00
142,1,AFG,Afghanistan,False,False,1,AF01,Kabul,1,AF0101,Kabul,667f089f-e183-4afd-8584-6f27f4245acf,demonstration,1,,2021-02-01 00:00:00,2021-02-28 00:00:00
143,1,AFG,Afghanistan,False,False,1,AF01,Kabul,1,AF0101,Kabul,667f089f-e183-4afd-8584-6f27f4245acf,demonstration,3,,2021-03-01 00:00:00,2021-03-31 00:00:00
144,1,AFG,Afghanistan,False,False,1,AF01,Kabul,1,AF0101,Kabul,667f089f-e183-4afd-8584-6f27f4245acf,demonstration,7,,2021-04-01 00:00:00,2021-04-30 00:00:00
145,1,AFG,Afghanistan,False,False,1,AF01,Kabul,1,AF0101,Kabul,667f089f-e183-4afd-8584-6f27f4245acf,demonstration,2,,2021-05-01 00:00:00,2021-05-31 00:00:00
146,1,AFG,Afghanistan,False,False,1,AF01,Kabul,1,AF0101,Kabul,667f089f-e183-4afd-8584-6f27f4245acf,demonstration,2,,2021-06-01 00:00:00,2021-06-30 00:00:00
147,1,AFG,Afghanistan,False,False,1,AF01,Kabul,1,AF0101,Kabul,667f089f-e183-4afd-8584-6f27f4245acf,demonstration,4,,2021-07-01 00:00:00,2021-07-31 00:00:00
148,1,AFG,Afghanistan,False,False,1,AF01,Kabul,1,AF0101,Kabul,667f089f-e183-4afd-8584-6f27f4245acf,demonstration,7,,2021-08-01 00:00:00,2021-08-31 00:00:00
149,1,AFG,Afghanistan,False,False,1,AF01,Kabul,1,AF0101,Kabul,667f089f-e183-4afd-8584-6f27f4245acf,demonstration,14,,2021-09-01 00:00:00,2021-09-30 00:00:00
150,1,AFG,Afghanistan,False,False,1,AF01,Kabul,1,AF0101,Kabul,667f089f-e183-4afd-8584-6f27f4245acf,demonstration,13,,2021-10-01 00:00:00,2021-10-31 00:00:00
151,1,AFG,Afghanistan,False,False,1,AF01,Kabul,1,AF0101,Kabul,667f089f-e183-4afd-8584-6f27f4245acf,demonstration,7,,2021-11-01 00:00:00,2021-11-30 00:00:00
152,1,AFG,Afghanistan,False,False,1,AF01,Kabul,1,AF0101,Kabul,667f089f-e183-4afd-8584-6f27f4245acf,demonstration,10,,2021-12-01 00:00:00,2021-12-31 00:00:00
153,1,AFG,Afghanistan,False,False,1,AF01,Kabul,1,AF0101,Kabul,667f089f-e183-4afd-8584-6f27f4245acf,demonstration,16,,2022-01-01 00:00:00,2022-01-31 00:00:00
154,1,AFG,Afghanistan,False,False,1,AF01,Kabul,1,AF0101,Kabul,667f089f-e183-4afd-8584-6f27f4245acf,demonstration,13,,2022-02-01 00:00:00,2022-02-28 00:00:00
155,1,AFG,Afghanistan,False,False,1,AF01,Kabul,1,AF0101,Kabul,667f089f-e183-4afd-8584-6f27f4245acf,demonstration,9,,2022-03-01 00:00:00,2022-03-31 00:00:00
156,1,AFG,Afghanistan,False,False,1,AF01,Kabul,1,AF0101,Kabul,667f089f-e183-4afd-8584-6f27f4245acf,demonstration,8,,2022-04-01 00:00:00,2022-04-30 00:00:00
157,1,AFG,Afghanistan,False,False,1,AF01,Kabul,1,AF0101,Kabul,667f089f-e183-4afd-8584-6f27f4245acf,demonstration,5,,2022-05-01 00:00:00,2022-05-31 00:00:00
158,1,AFG,Afghanistan,False,False,1,AF01,Kabul,1,AF0101,Kabul,667f089f-e183-4afd-8584-6f27f4245acf,demonstration,4,,2022-06-01 00:00:00,2022-06-30 00:00:00
159,1,AFG,Afghanistan,False,False,1,AF01,Kabul,1,AF0101,Kabul,667f089f-e183-4afd-8584-6f27f4245acf,demonstration,3,,2022-07-01 00:00:00,2022-07-31 00:00:00
160,1,AFG,Afghanistan,False,False,1,AF01,Kabul,1,AF0101,Kabul,667f089f-e183-4afd-8584-6f27f4245acf,demonstration,10,,2022-08-01 00:00:00,2022-08-31 00:00:00
161,1,AFG,Afghanistan,False,False,1,AF01,Kabul,1,AF0101,Kabul,667f089f-e183-4afd-8584-6f27f4245acf,demonstration,8,,2022-09-01 00:00:00,2022-09-30 00:00:00
162,1,AFG,Afghanistan,False,False,1,AF01,Kabul,1,AF0101,Kabul,667f089f-e183-4afd-8584-6f27f4245acf,demonstration,8,,2022-10-01 00:00:00,2022-10-31 00:00:00
163,1,AFG,Afghanistan,False,False,1,AF01,Kabul,1,AF0101,Kabul,667f089f-e183-4afd-8584-6f27f4245acf,demonstration,4,,2022-11-01 00:00:00,2022-11-30 00:00:00
164,1,AFG,Afghanistan,False,False,1,AF01,Kabul,1,AF0101,Kabul,667f089f-e183-4afd-8584-6f27f4245acf,demonstration,5,,2022-12-01 00:00:00,2022-12-31 00:00:00
165,1,AFG,Afghanistan,False,False,1,AF01,Kabul,1,AF0101,Kabul,667f089f-e183-4afd-8584-6f27f4245acf,demonstration,6,,2023-01-01 00:00:00,2023-01-31 00:00:00
166,1,AFG,Afghanistan,False,False,1,AF01,Kabul,1,AF0101,Kabul,667f089f-e183-4afd-8584-6f27f4245acf,demonstration,3,,2023-02-01 00:00:00,2023-02-28 00:00:00
167,1,AFG,Afghanistan,False,False,1,AF01,Kabul,1,AF0101,Kabul,667f089f-e183-4afd-8584-6f27f4245acf,demonstration,8,,2023-03-01 00:00:00,2023-03-31 00:00:00
168,1,AFG,Afghanistan,False,False,1,AF01,Kabul,1,AF0101,Kabul,667f089f-e183-4afd-8584-6f27f4245acf,demonstration,5,,2023-04-01 00:00:00,2023-04-30 00:00:00
169,1,AFG,Afghanistan,False,False,1,AF01,Kabul,1,AF0101,Kabul,667f089f-e183-4afd-8584-6f27f4245acf,demonstration,6,,2023-05-01 00:00:00,2023-05-31 00:00:00
170,1,AFG,Afghanistan,False,False,1,AF01,Kabul,1,AF0101,Kabul,667f089f-e183-4afd-8584-6f27f4245acf,demonstration,5,,2023-06-01 00:00:00,2023-06-30 00:00:00
171,1,AFG,Afghanistan,False,False,1,AF01,Kabul,1,AF0101,Kabul,667f089f-e183-4afd-8584-6f27f4245acf,demonstration,10,,2023-07-01 00:00:00,2023-07-31 00:00:00
172,1,AFG,Afghanistan,False,False,1,AF01,Kabul,1,AF0101,Kabul,667f089f-e183-4afd-8584-6f27f4245acf,demonstration,6,,2023-08-01 00:00:00,2023-08-31 00:00:00
173,1,AFG,Afghanistan,False,False,1,AF01,Kabul,1,AF0101,Kabul,667f089f-e183-4afd-8584-6f27f4245acf,demonstration,3,,2023-09-01 00:00:00,2023-09-30 00:00:00
174,1,AFG,Afghanistan,False,False,1,AF01,Kabul,1,AF0101,Kabul,667f089f-e183-4afd-8584-6f27f4245acf,demonstration,5,,2023-10-01 00:00:00,2023-10-31 00:00:00
175,1,AFG,Afghanistan,False,False,1,AF01,Kabul,1,AF0101,Kabul,667f089f-e183-4afd-8584-6f27f4245acf,demonstration,6,,2023-11-01 00:00:00,2023-11-30 00:00:00
176,1,AFG,Afghanistan,False,False,1,AF01,Kabul,1,AF0101,Kabul,667f089f-e183-4afd-8584-6f27f4245acf,demonstration,4,,2023-12-01 00:00:00,2023-12-31 00:00:00
177,1,AFG,Afghanistan,False,False,1,AF01,Kabul,1,AF0101,Kabul,667f089f-e183-4afd-8584-6f27f4245acf,demonstration,4,,2024-01-01 00:00:00,2024-01-31 00:00:00
178,1,AFG,Afghanistan,False,False,1,AF01,Kabul,1,AF0101,Kabul,667f089f-e183-4afd-8584-6f27f4245acf,demonstration,3,,2024-02-01 00:00:00,2024-02-29 00:00:00
179,1,AFG,Afghanistan,False,False,1,AF01,Kabul,1,AF0101,Kabul,667f089f-e183-4afd-8584-6f27f4245acf,demonstration,4,,2024-03-01 00:00:00,2024-03-31 00:00:00
180,1,AFG,Afghanistan,False,False,1,AF01,Kabul,1,AF0101,Kabul,667f089f-e183-4afd-8584-6f27f4245acf,demonstration,1,,2024-04-01 00:00:00,2024-04-30 00:00:00
181,1,AFG,Afghanistan,False,False,1,AF01,Kabul,1,AF0101,Kabul,667f089f-e183-4afd-8584-6f27f4245acf,demonstration,2,,2024-05-01 00:00:00,2024-05-31 00:00:00
182,1,AFG,Afghanistan,False,False,1,AF01,Kabul,1,AF0101,Kabul,667f089f-e183-4afd-8584-6f27f4245acf,demonstration,5,,2024-06-01 00:00:00,2024-06-30 00:00:00
183,1,AFG,Afghanistan,False,False,1,AF01,Kabul,1,AF0101,Kabul,667f089f-e183-4afd-8584-6f27f4245acf,demonstration,3,,2024-07-01 00:00:00,2024-07-31 00:00:00
184,1,AFG,Afghanistan,False,False,1,AF01,Kabul,1,AF0101,Kabul,667f089f-e183-4afd-8584-6f27f4245acf,demonstration,3,,2024-08-01 00:00:00,2024-08-31 00:00:00
185,1,AFG,Afghanistan,False,False,1,AF01,Kabul,1,AF0101,Kabul,667f089f-e183-4afd-8584-6f27f4245acf,demonstration,3,,2024-09-01 00:00:00,2024-09-30 00:00:00
186,1,AFG,Afghanistan,False,False,1,AF01,Kabul,1,AF0101,Kabul,667f089f-e183-4afd-8584-6f27f4245acf,political_violence,9,48.0,2017-01-01 00:00:00,2017-01-31 00:00:00
187,1,AFG,Afghanistan,False,False,1,AF01,Kabul,1,AF0101,Kabul,667f089f-e183-4afd-8584-6f27f4245acf,political_violence,3,23.0,2017-02-01 00:00:00,2017-02-28 00:00:00
188,1,AFG,Afghanistan,False,False,1,AF01,Kabul,1,AF0101,Kabul,667f089f-e183-4afd-8584-6f27f4245acf,political_violence,14,74.0,2017-03-01 00:00:00,2017-03-31 00:00:00
189,1,AFG,Afghanistan,False,False,1,AF01,Kabul,1,AF0101,Kabul,667f089f-e183-4afd-8584-6f27f4245acf,political_violence,9,13.0,2017-04-01 00:00:00,2017-04-30 00:00:00
190,1,AFG,Afghanistan,False,False,1,AF01,Kabul,1,AF0101,Kabul,667f089f-e183-4afd-8584-6f27f4245acf,political_violence,15,167.0,2017-05-01 00:00:00,2017-05-31 00:00:00
191,1,AFG,Afghanistan,False,False,1,AF01,Kabul,1,AF0101,Kabul,667f089f-e183-4afd-8584-6f27f4245acf,political_violence,9,27.0,2017-06-01 00:00:00,2017-06-30 00:00:00
192,1,AFG,Afghanistan,False,False,1,AF01,Kabul,1,AF0101,Kabul,667f089f-e183-4afd-8584-6f27f4245acf,political_violence,13,94.0,2017-07-01 00:00:00,2017-07-31 00:00:00
193,1,AFG,Afghanistan,False,False,1,AF01,Kabul,1,AF0101,Kabul,667f089f-e183-4afd-8584-6f27f4245acf,political_violence,16,42.0,2017-08-01 00:00:00,2017-08-31 00:00:00
194,1,AFG,Afghanistan,False,False,1,AF01,Kabul,1,AF0101,Kabul,667f089f-e183-4afd-8584-6f27f4245acf,political_violence,16,22.0,2017-09-01 00:00:00,2017-09-30 00:00:00
195,1,AFG,Afghanistan,False,False,1,AF01,Kabul,1,AF0101,Kabul,667f089f-e183-4afd-8584-6f27f4245acf,political_violence,14,89.0,2017-10-01 00:00:00,2017-10-31 00:00:00
196,1,AFG,Afghanistan,False,False,1,AF01,Kabul,1,AF0101,Kabul,667f089f-e183-4afd-8584-6f27f4245acf,political_violence,6,19.0,2017-11-01 00:00:00,2017-11-30 00:00:00
197,1,AFG,Afghanistan,False,False,1,AF01,Kabul,1,AF0101,Kabul,667f089f-e183-4afd-8584-6f27f4245acf,political_violence,12,108.0,2017-12-01 00:00:00,2017-12-31 00:00:00
198,1,AFG,Afghanistan,False,False,1,AF01,Kabul,1,AF0101,Kabul,667f089f-e183-4afd-8584-6f27f4245acf,political_violence,13,181.0,2018-01-01 00:00:00,2018-01-31 00:00:00
199,1,AFG,Afghanistan,False,False,1,AF01,Kabul,1,AF0101,Kabul,667f089f-e183-4afd-8584-6f27f4245acf,political_violence,4,6.0,2018-02-01 00:00:00,2018-02-28 00:00:00
200,1,AFG,Afghanistan,False,False,1,AF01,Kabul,1,AF0101,Kabul,667f089f-e183-4afd-8584-6f27f4245acf,political_violence,7,52.0,2018-03-01 00:00:00,2018-03-31 00:00:00
201,1,AFG,Afghanistan,False,False,1,AF01,Kabul,1,AF0101,Kabul,667f089f-e183-4afd-8584-6f27f4245acf,political_violence,9,104.0,2018-04-01 00:00:00,2018-04-30 00:00:00
202,1,AFG,Afghanistan,False,False,1,AF01,Kabul,1,AF0101,Kabul,667f089f-e183-4afd-8584-6f27f4245acf,political_violence,11,22.0,2018-05-01 00:00:00,2018-05-31 00:00:00
203,1,AFG,Afghanistan,False,False,1,AF01,Kabul,1,AF0101,Kabul,667f089f-e183-4afd-8584-6f27f4245acf,political_violence,12,33.0,2018-06-01 00:00:00,2018-06-30 00:00:00
204,1,AFG,Afghanistan,False,False,1,AF01,Kabul,1,AF0101,Kabul,667f089f-e183-4afd-8584-6f27f4245acf,political_violence,11,43.0,2018-07-01 00:00:00,2018-07-31 00:00:00
205,1,AFG,Afghanistan,False,False,1,AF01,Kabul,1,AF0101,Kabul,667f089f-e183-4afd-8584-6f27f4245acf,political_violence,13,49.0,2018-08-01 00:00:00,2018-08-31 00:00:00
206,1,AFG,Afghanistan,False,False,1,AF01,Kabul,1,AF0101,Kabul,667f089f-e183-4afd-8584-6f27f4245acf,political_violence,12,37.0,2018-09-01 00:00:00,2018-09-30 00:00:00
207,1,AFG,Afghanistan,False,False,1,AF01,Kabul,1,AF0101,Kabul,667f089f-e183-4afd-8584-6f27f4245acf,political_violence,11,27.0,2018-10-01 00:00:00,2018-10-31 00:00:00
208,1,AFG,Afghanistan,False,False,1,AF01,Kabul,1,AF0101,Kabul,667f089f-e183-4afd-8584-6f27f4245acf,political_violence,10,90.0,2018-11-01 00:00:00,2018-11-30 00:00:00
209,1,AFG,Afghanistan,False,False,1,AF01,Kabul,1,AF0101,Kabul,667f089f-e183-4afd-8584-6f27f4245acf,political_violence,5,47.0,2018-12-01 00:00:00,2018-12-31 00:00:00
210,1,AFG,Afghanistan,False,False,1,AF01,Kabul,1,AF0101,Kabul,667f089f-e183-4afd-8584-6f27f4245acf,political_violence,8,7.0,2019-01-01 00:00:00,2019-01-31 00:00:00
211,1,AFG,Afghanistan,False,False,1,AF01,Kabul,1,AF0101,Kabul,667f089f-e183-4afd-8584-6f27f4245acf,political_violence,3,2.0,2019-02-01 00:00:00,2019-02-28 00:00:00
212,1,AFG,Afghanistan,False,False,1,AF01,Kabul,1,AF0101,Kabul,667f089f-e183-4afd-8584-6f27f4245acf,political_violence,6,20.0,2019-03-01 00:00:00,2019-03-31 00:00:00
213,1,AFG,Afghanistan,False,False,1,AF01,Kabul,1,AF0101,Kabul,667f089f-e183-4afd-8584-6f27f4245acf,political_violence,5,14.0,2019-04-01 00:00:00,2019-04-30 00:00:00
214,1,AFG,Afghanistan,False,False,1,AF01,Kabul,1,AF0101,Kabul,667f089f-e183-4afd-8584-6f27f4245acf,political_violence,13,41.0,2019-05-01 00:00:00,2019-05-31 00:00:00
215,1,AFG,Afghanistan,False,False,1,AF01,Kabul,1,AF0101,Kabul,667f089f-e183-4afd-8584-6f27f4245acf,political_violence,6,9.0,2019-06-01 00:00:00,2019-06-30 00:00:00
216,1,AFG,Afghanistan,False,False,1,AF01,Kabul,1,AF0101,Kabul,667f089f-e183-4afd-8584-6f27f4245acf,political_violence,15,98.0,2019-07-01 00:00:00,2019-07-31 00:00:00
217,1,AFG,Afghanistan,False,False,1,AF01,Kabul,1,AF0101,Kabul,667f089f-e183-4afd-8584-6f27f4245acf,political_violence,14,107.0,2019-08-01 00:00:00,2019-08-31 00:00:00
218,1,AFG,Afghanistan,False,False,1,AF01,Kabul,1,AF0101,Kabul,667f089f-e183-4afd-8584-6f27f4245acf,political_violence,15,56.0,2019-09-01 00:00:00,2019-09-30 00:00:00
219,1,AFG,Afghanistan,False,False,1,AF01,Kabul,1,AF0101,Kabul,667f089f-e183-4afd-8584-6f27f4245acf,political_violence,10,4.0,2019-10-01 00:00:00,2019-10-31 00:00:00
220,1,AFG,Afghanistan,False,False,1,AF01,Kabul,1,AF0101,Kabul,667f089f-e183-4afd-8584-6f27f4245acf,political_violence,8,18.0,2019-11-01 00:00:00,2019-11-30 00:00:00
221,1,AFG,Afghanistan,False,False,1,AF01,Kabul,1,AF0101,Kabul,667f089f-e183-4afd-8584-6f27f4245acf,political_violence,3,4.0,2019-12-01 00:00:00,2019-12-31 00:00:00
222,1,AFG,Afghanistan,False,False,1,AF01,Kabul,1,AF0101,Kabul,667f089f-e183-4afd-8584-6f27f4245acf,political_violence,10,16.0,2020-01-01 00:00:00,2020-01-31 00:00:00
223,1,AFG,Afghanistan,False,False,1,AF01,Kabul,1,AF0101,Kabul,667f089f-e183-4afd-8584-6f27f4245acf,political_violence,7,11.0,2020-02-01 00:00:00,2020-02-29 00:00:00
224,1,AFG,Afghanistan,False,False,1,AF01,Kabul,1,AF0101,Kabul,667f089f-e183-4afd-8584-6f27f4245acf,political_violence,14,67.0,2020-03-01 00:00:00,2020-03-31 00:00:00
225,1,AFG,Afghanistan,False,False,1,AF01,Kabul,1,AF0101,Kabul,667f089f-e183-4afd-8584-6f27f4245acf,political_violence,5,2.0,2020-04-01 00:00:00,2020-04-30 00:00:00
226,1,AFG,Afghanistan,False,False,1,AF01,Kabul,1,AF0101,Kabul,667f089f-e183-4afd-8584-6f27f4245acf,political_violence,17,46.0,2020-05-01 00:00:00,2020-05-31 00:00:00
227,1,AFG,Afghanistan,False,False,1,AF01,Kabul,1,AF0101,Kabul,667f089f-e183-4afd-8584-6f27f4245acf,political_violence,12,27.0,2020-06-01 00:00:00,2020-06-30 00:00:00
228,1,AFG,Afghanistan,False,False,1,AF01,Kabul,1,AF0101,Kabul,667f089f-e183-4afd-8584-6f27f4245acf,political_violence,15,8.0,2020-07-01 00:00:00,2020-07-31 00:00:00
229,1,AFG,Afghanistan,False,False,1,AF01,Kabul,1,AF0101,Kabul,667f089f-e183-4afd-8584-6f27f4245acf,political_violence,24,20.0,2020-08-01 00:00:00,2020-08-31 00:00:00
230,1,AFG,Afghanistan,False,False,1,AF01,Kabul,1,AF0101,Kabul,667f089f-e183-4afd-8584-6f27f4245acf,political_violence,17,32.0,2020-09-01 00:00:00,2020-09-30 00:00:00
231,1,AFG,Afghanistan,False,False,1,AF01,Kabul,1,AF0101,Kabul,667f089f-e183-4afd-8584-6f27f4245acf,political_violence,25,37.0,2020-10-01 00:00:00,2020-10-31 00:00:00
232,1,AFG,Afghanistan,False,False,1,AF01,Kabul,1,AF0101,Kabul,667f089f-e183-4afd-8584-6f27f4245acf,political_violence,31,69.0,2020-11-01 00:00:00,2020-11-30 00:00:00
233,1,AFG,Afghanistan,False,False,1,AF01,Kabul,1,AF0101,Kabul,667f089f-e183-4afd-8584-6f27f4245acf,political_violence,31,45.0,2020-12-01 00:00:00,2020-12-31 00:00:00
234,1,AFG,Afghanistan,False,False,1,AF01,Kabul,1,AF0101,Kabul,667f089f-e183-4afd-8584-6f27f4245acf,political_violence,36,50.0,2021-01-01 00:00:00,2021-01-31 00:00:00
235,1,AFG,Afghanistan,False,False,1,AF01,Kabul,1,AF0101,Kabul,667f089f-e183-4afd-8584-6f27f4245acf,political_violence,37,44.0,2021-02-01 00:00:00,2021-02-28 00:00:00
236,1,AFG,Afghanistan,False,False,1,AF01,Kabul,1,AF0101,Kabul,667f089f-e183-4afd-8584-6f27f4245acf,political_violence,16,24.0,2021-03-01 00:00:00,2021-03-31 00:00:00
237,1,AFG,Afghanistan,False,False,1,AF01,Kabul,1,AF0101,Kabul,667f089f-e183-4afd-8584-6f27f4245acf,political_violence,15,20.0,2021-04-01 00:00:00,2021-04-30 00:00:00
238,1,AFG,Afghanistan,False,False,1,AF01,Kabul,1,AF0101,Kabul,667f089f-e183-4afd-8584-6f27f4245acf,political_violence,25,179.0,2021-05-01 00:00:00,2021-05-31 00:00:00
239,1,AFG,Afghanistan,False,False,1,AF01,Kabul,1,AF0101,Kabul,667f089f-e183-4afd-8584-6f27f4245acf,political_violence,23,76.0,2021-06-01 00:00:00,2021-06-30 00:00:00
240,1,AFG,Afghanistan,False,False,1,AF01,Kabul,1,AF0101,Kabul,667f089f-e183-4afd-8584-6f27f4245acf,political_violence,25,131.0,2021-07-01 00:00:00,2021-07-31 00:00:00
241,1,AFG,Afghanistan,False,False,1,AF01,Kabul,1,AF0101,Kabul,667f089f-e183-4afd-8584-6f27f4245acf,political_violence,31,223.0,2021-08-01 00:00:00,2021-08-31 00:00:00
242,1,AFG,Afghanistan,False,False,1,AF01,Kabul,1,AF0101,Kabul,667f089f-e183-4afd-8584-6f27f4245acf,political_violence,19,20.0,2021-09-01 00:00:00,2021-09-30 00:00:00
243,1,AFG,Afghanistan,False,False,1,AF01,Kabul,1,AF0101,Kabul,667f089f-e183-4afd-8584-6f27f4245acf,political_violence,14,19.0,2021-10-01 00:00:00,2021-10-31 00:00:00
244,1,AFG,Afghanistan,False,False,1,AF01,Kabul,1,AF0101,Kabul,667f089f-e183-4afd-8584-6f27f4245acf,political_violence,23,42.0,2021-11-01 00:00:00,2021-11-30 00:00:00
245,1,AFG,Afghanistan,False,False,1,AF01,Kabul,1,AF0101,Kabul,667f089f-e183-4afd-8584-6f27f4245acf,political_violence,34,30.0,2021-12-01 00:00:00,2021-12-31 00:00:00
246,1,AFG,Afghanistan,False,False,1,AF01,Kabul,1,AF0101,Kabul,667f089f-e183-4afd-8584-6f27f4245acf,political_violence,26,26.0,2022-01-01 00:00:00,2022-01-31 00:00:00
247,1,AFG,Afghanistan,False,False,1,AF01,Kabul,1,AF0101,Kabul,667f089f-e183-4afd-8584-6f27f4245acf,political_violence,27,23.0,2022-02-01 00:00:00,2022-02-28 00:00:00
248,1,AFG,Afghanistan,False,False,1,AF01,Kabul,1,AF0101,Kabul,667f089f-e183-4afd-8584-6f27f4245acf,political_violence,13,2.0,2022-03-01 00:00:00,2022-03-31 00:00:00
249,1,AFG,Afghanistan,False,False,1,AF01,Kabul,1,AF0101,Kabul,667f089f-e183-4afd-8584-6f27f4245acf,political_violence,26,88.0,2022-04-01 00:00:00,2022-04-30 00:00:00
250,1,AFG,Afghanistan,False,False,1,AF01,Kabul,1,AF0101,Kabul,667f089f-e183-4afd-8584-6f27f4245acf,political_violence,16,14.0,2022-05-01 00:00:00,2022-05-31 00:00:00
251,1,AFG,Afghanistan,False,False,1,AF01,Kabul,1,AF0101,Kabul,667f089f-e183-4afd-8584-6f27f4245acf,political_violence,18,29.0,2022-06-01 00:00:00,2022-06-30 00:00:00
252,1,AFG,Afghanistan,False,False,1,AF01,Kabul,1,AF0101,Kabul,667f089f-e183-4afd-8584-6f27f4245acf,political_violence,15,21.0,2022-07-01 00:00:00,2022-07-31 00:00:00
253,1,AFG,Afghanistan,False,False,1,AF01,Kabul,1,AF0101,Kabul,667f089f-e183-4afd-8584-6f27f4245acf,political_violence,19,52.0,2022-08-01 00:00:00,2022-08-31 00:00:00
254,1,AFG,Afghanistan,False,False,1,AF01,Kabul,1,AF0101,Kabul,667f089f-e183-4afd-8584-6f27f4245acf,political_violence,14,81.0,2022-09-01 00:00:00,2022-09-30 00:00:00
255,1,AFG,Afghanistan,False,False,1,AF01,Kabul,1,AF0101,Kabul,667f089f-e183-4afd-8584-6f27f4245acf,political_violence,19,19.0,2022-10-01 00:00:00,2022-10-31 00:00:00
256,1,AFG,Afghanistan,False,False,1,AF01,Kabul,1,AF0101,Kabul,667f089f-e183-4afd-8584-6f27f4245acf,political_violence,14,9.0,2022-11-01 00:00:00,2022-11-30 00:00:00
257,1,AFG,Afghanistan,False,False,1,AF01,Kabul,1,AF0101,Kabul,667f089f-e183-4afd-8584-6f27f4245acf,political_violence,14,11.0,2022-12-01 00:00:00,2022-12-31 00:00:00
258,1,AFG,Afghanistan,False,False,1,AF01,Kabul,1,AF0101,Kabul,667f089f-e183-4afd-8584-6f27f4245acf,political_violence,15,53.0,2023-01-01 00:00:00,2023-01-31 00:00:00
259,1,AFG,Afghanistan,False,False,1,AF01,Kabul,1,AF0101,Kabul,667f089f-e183-4afd-8584-6f27f4245acf,political_violence,17,8.0,2023-02-01 00:00:00,2023-02-28 00:00:00
260,1,AFG,Afghanistan,False,False,1,AF01,Kabul,1,AF0101,Kabul,667f089f-e183-4afd-8584-6f27f4245acf,political_violence,17,15.0,2023-03-01 00:00:00,2023-03-31 00:00:00
261,1,AFG,Afghanistan,False,False,1,AF01,Kabul,1,AF0101,Kabul,667f089f-e183-4afd-8584-6f27f4245acf,political_violence,9,7.0,2023-04-01 00:00:00,2023-04-30 00:00:00
262,1,AFG,Afghanistan,False,False,1,AF01,Kabul,1,AF0101,Kabul,667f089f-e183-4afd-8584-6f27f4245acf,political_violence,11,5.0,2023-05-01 00:00:00,2023-05-31 00:00:00
263,1,AFG,Afghanistan,False,False,1,AF01,Kabul,1,AF0101,Kabul,667f089f-e183-4afd-8584-6f27f4245acf,political_violence,4,2.0,2023-06-01 00:00:00,2023-06-30 00:00:00
264,1,AFG,Afghanistan,False,False,1,AF01,Kabul,1,AF0101,Kabul,667f089f-e183-4afd-8584-6f27f4245acf,political_violence,8,1.0,2023-07-01 00:00:00,2023-07-31 00:00:00
265,1,AFG,Afghanistan,False,False,1,AF01,Kabul,1,AF0101,Kabul,667f089f-e183-4afd-8584-6f27f4245acf,political_violence,8,11.0,2023-08-01 00:00:00,2023-08-31 00:00:00
266,1,AFG,Afghanistan,False,False,1,AF01,Kabul,1,AF0101,Kabul,667f089f-e183-4afd-8584-6f27f4245acf,political_violence,6,9.0,2023-09-01 00:00:00,2023-09-30 00:00:00
267,1,AFG,Afghanistan,False,False,1,AF01,Kabul,1,AF0101,Kabul,667f089f-e183-4afd-8584-6f27f4245acf,political_violence,8,11.0,2023-10-01 00:00:00,2023-10-31 00:00:00
268,1,AFG,Afghanistan,False,False,1,AF01,Kabul,1,AF0101,Kabul,667f089f-e183-4afd-8584-6f27f4245acf,political_violence,10,21.0,2023-11-01 00:00:00,2023-11-30 00:00:00
269,1,AFG,Afghanistan,False,False,1,AF01,Kabul,1,AF0101,Kabul,667f089f-e183-4afd-8584-6f27f4245acf,political_violence,7,6.0,2023-12-01 00:00:00,2023-12-31 00:00:00
270,1,AFG,Afghanistan,False,False,1,AF01,Kabul,1,AF0101,Kabul,667f089f-e183-4afd-8584-6f27f4245acf,political_violence,23,17.0,2024-01-01 00:00:00,2024-01-31 00:00:00
271,1,AFG,Afghanistan,False,False,1,AF01,Kabul,1,AF0101,Kabul,667f089f-e183-4afd-8584-6f27f4245acf,political_violence,12,20.0,2024-02-01 00:00:00,2024-02-29 00:00:00
272,1,AFG,Afghanistan,False,False,1,AF01,Kabul,1,AF0101,Kabul,667f089f-e183-4afd-8584-6f27f4245acf,political_violence,15,36.0,2024-03-01 00:00:00,2024-03-31 00:00:00
273,1,AFG,Afghanistan,False,False,1,AF01,Kabul,1,AF0101,Kabul,667f089f-e183-4afd-8584-6f27f4245acf,political_violence,23,50.0,2024-04-01 00:00:00,2024-04-30 00:00:00
274,1,AFG,Afghanistan,False,False,1,AF01,Kabul,1,AF0101,Kabul,667f089f-e183-4afd-8584-6f27f4245acf,political_violence,18,37.0,2024-05-01 00:00:00,2024-05-31 00:00:00
275,1,AFG,Afghanistan,False,False,1,AF01,Kabul,1,AF0101,Kabul,667f089f-e183-4afd-8584-6f27f4245acf,political_violence,22,39.0,2024-06-01 00:00:00,2024-06-30 00:00:00
276,1,AFG,Afghanistan,False,False,1,AF01,Kabul,1,AF0101,Kabul,667f089f-e183-4afd-8584-6f27f4245acf,political_violence,23,36.0,2024-07-01 00:00:00,2024-07-31 00:00:00
277,1,AFG,Afghanistan,False,False,1,AF01,Kabul,1,AF0101,Kabul,667f089f-e183-4afd-8584-6f27f4245acf,political_violence,16,32.0,2024-08-01 00:00:00,2024-08-31 00:00:00
278,1,AFG,Afghanistan,False,False,1,AF01,Kabul,1,AF0101,Kabul,667f089f-e183-4afd-8584-6f27f4245acf,political_violence,14,46.0,2024-09-01 00:00:00,2024-09-30 00:00:00
279,1,AFG,Afghanistan,False,False,1,AF01,Kabul,2,AF0102,Paghman,667f089f-e183-4afd-8584-6f27f4245acf,civilian_targeting,0,0.0,2017-01-01 00:00:00,2017-01-31 00:00:00
280,1,AFG,Afghanistan,False,False,1,AF01,Kabul,2,AF0102,Paghman,667f089f-e183-4afd-8584-6f27f4245acf,civilian_targeting,0,0.0,2017-02-01 00:00:00,2017-02-28 00:00:00
281,1,AFG,Afghanistan,False,False,1,AF01,Kabul,2,AF0102,Paghman,667f089f-e183-4afd-8584-6f27f4245acf,civilian_targeting,0,0.0,2017-03-01 00:00:00,2017-03-31 00:00:00
282,1,AFG,Afghanistan,False,False,1,AF01,Kabul,2,AF0102,Paghman,667f089f-e183-4afd-8584-6f27f4245acf,civilian_targeting,0,0.0,2017-04-01 00:00:00,2017-04-30 00:00:00
283,1,AFG,Afghanistan,False,False,1,AF01,Kabul,2,AF0102,Paghman,667f089f-e183-4afd-8584-6f27f4245acf,civilian_targeting,0,0.0,2017-05-01 00:00:00,2017-05-31 00:00:00
284,1,AFG,Afghanistan,False,False,1,AF01,Kabul,2,AF0102,Paghman,667f089f-e183-4afd-8584-6f27f4245acf,civilian_targeting,0,0.0,2017-06-01 00:00:00,2017-06-30 00:00:00
285,1,AFG,Afghanistan,False,False,1,AF01,Kabul,2,AF0102,Paghman,667f089f-e183-4afd-8584-6f27f4245acf,civilian_targeting,0,0.0,2017-07-01 00:00:00,2017-07-31 00:00:00
286,1,AFG,Afghanistan,False,False,1,AF01,Kabul,2,AF0102,Paghman,667f089f-e183-4afd-8584-6f27f4245acf,civilian_targeting,0,0.0,2017-08-01 00:00:00,2017-08-31 00:00:00
287,1,AFG,Afghanistan,False,False,1,AF01,Kabul,2,AF0102,Paghman,667f089f-e183-4afd-8584-6f27f4245acf,civilian_targeting,1,0.0,2017-09-01 00:00:00,2017-09-30 00:00:00
288,1,AFG,Afghanistan,False,False,1,AF01,Kabul,2,AF0102,Paghman,667f089f-e183-4afd-8584-6f27f4245acf,civilian_targeting,0,0.0,2017-10-01 00:00:00,2017-10-31 00:00:00
289,1,AFG,Afghanistan,False,False,1,AF01,Kabul,2,AF0102,Paghman,667f089f-e183-4afd-8584-6f27f4245acf,civilian_targeting,0,0.0,2017-11-01 00:00:00,2017-11-30 00:00:00
290,1,AFG,Afghanistan,False,False,1,AF01,Kabul,2,AF0102,Paghman,667f089f-e183-4afd-8584-6f27f4245acf,civilian_targeting,0,0.0,2017-12-01 00:00:00,2017-12-31 00:00:00
291,1,AFG,Afghanistan,False,False,1,AF01,Kabul,2,AF0102,Paghman,667f089f-e183-4afd-8584-6f27f4245acf,civilian_targeting,0,0.0,2018-01-01 00:00:00,2018-01-31 00:00:00
292,1,AFG,Afghanistan,False,False,1,AF01,Kabul,2,AF0102,Paghman,667f089f-e183-4afd-8584-6f27f4245acf,civilian_targeting,0,0.0,2018-02-01 00:00:00,2018-02-28 00:00:00
293,1,AFG,Afghanistan,False,False,1,AF01,Kabul,2,AF0102,Paghman,667f089f-e183-4afd-8584-6f27f4245acf,civilian_targeting,1,2.0,2018-03-01 00:00:00,2018-03-31 00:00:00
294,1,AFG,Afghanistan,False,False,1,AF01,Kabul,2,AF0102,Paghman,667f089f-e183-4afd-8584-6f27f4245acf,civilian_targeting,0,0.0,2018-04-01 00:00:00,2018-04-30 00:00:00
295,1,AFG,Afghanistan,False,False,1,AF01,Kabul,2,AF0102,Paghman,667f089f-e183-4afd-8584-6f27f4245acf,civilian_targeting,0,0.0,2018-05-01 00:00:00,2018-05-31 00:00:00
296,1,AFG,Afghanistan,False,False,1,AF01,Kabul,2,AF0102,Paghman,667f089f-e183-4afd-8584-6f27f4245acf,civilian_targeting,0,0.0,2018-06-01 00:00:00,2018-06-30 00:00:00
297,1,AFG,Afghanistan,False,False,1,AF01,Kabul,2,AF0102,Paghman,667f089f-e183-4afd-8584-6f27f4245acf,civilian_targeting,0,0.0,2018-07-01 00:00:00,2018-07-31 00:00:00
298,1,AFG,Afghanistan,False,False,1,AF01,Kabul,2,AF0102,Paghman,667f089f-e183-4afd-8584-6f27f4245acf,civilian_targeting,1,0.0,2018-08-01 00:00:00,2018-08-31 00:00:00
299,1,AFG,Afghanistan,False,False,1,AF01,Kabul,2,AF0102,Paghman,667f089f-e183-4afd-8584-6f27f4245acf,civilian_targeting,0,0.0,2018-09-01 00:00:00,2018-09-30 00:00:00
300,1,AFG,Afghanistan,False,False,1,AF01,Kabul,2,AF0102,Paghman,667f089f-e183-4afd-8584-6f27f4245acf,civilian_targeting,0,0.0,2018-10-01 00:00:00,2018-10-31 00:00:00
301,1,AFG,Afghanistan,False,False,1,AF01,Kabul,2,AF0102,Paghman,667f089f-e183-4afd-8584-6f27f4245acf,civilian_targeting,0,0.0,2018-11-01 00:00:00,2018-11-30 00:00:00
302,1,AFG,Afghanistan,False,False,1,AF01,Kabul,2,AF0102,Paghman,667f089f-e183-4afd-8584-6f27f4245acf,civilian_targeting,0,0.0,2018-12-01 00:00:00,2018-12-31 00:00:00
303,1,AFG,Afghanistan,False,False,1,AF01,Kabul,2,AF0102,Paghman,667f089f-e183-4afd-8584-6f27f4245acf,civilian_targeting,0,0.0,2019-01-01 00:00:00,2019-01-31 00:00:00
304,1,AFG,Afghanistan,False,False,1,AF01,Kabul,2,AF0102,Paghman,667f089f-e183-4afd-8584-6f27f4245acf,civilian_targeting,0,0.0,2019-02-01 00:00:00,2019-02-28 00:00:00
305,1,AFG,Afghanistan,False,False,1,AF01,Kabul,2,AF0102,Paghman,667f089f-e183-4afd-8584-6f27f4245acf,civilian_targeting,1,1.0,2019-03-01 00:00:00,2019-03-31 00:00:00
306,1,AFG,Afghanistan,False,False,1,AF01,Kabul,2,AF0102,Paghman,667f089f-e183-4afd-8584-6f27f4245acf,civilian_targeting,0,0.0,2019-04-01 00:00:00,2019-04-30 00:00:00
307,1,AFG,Afghanistan,False,False,1,AF01,Kabul,2,AF0102,Paghman,667f089f-e183-4afd-8584-6f27f4245acf,civilian_targeting,0,0.0,2019-05-01 00:00:00,2019-05-31 00:00:00
308,1,AFG,Afghanistan,False,False,1,AF01,Kabul,2,AF0102,Paghman,667f089f-e183-4afd-8584-6f27f4245acf,civilian_targeting,0,0.0,2019-06-01 00:00:00,2019-06-30 00:00:00
309,1,AFG,Afghanistan,False,False,1,AF01,Kabul,2,AF0102,Paghman,667f089f-e183-4afd-8584-6f27f4245acf,civilian_targeting,1,0.0,2019-07-01 00:00:00,2019-07-31 00:00:00
310,1,AFG,Afghanistan,False,False,1,AF01,Kabul,2,AF0102,Paghman,667f089f-e183-4afd-8584-6f27f4245acf,civilian_targeting,0,0.0,2019-08-01 00:00:00,2019-08-31 00:00:00
311,1,AFG,Afghanistan,False,False,1,AF01,Kabul,2,AF0102,Paghman,667f089f-e183-4afd-8584-6f27f4245acf,civilian_targeting,1,0.0,2019-09-01 00:00:00,2019-09-30 00:00:00
312,1,AFG,Afghanistan,False,False,1,AF01,Kabul,2,AF0102,Paghman,667f089f-e183-4afd-8584-6f27f4245acf,civilian_targeting,1,1.0,2019-10-01 00:00:00,2019-10-31 00:00:00
313,1,AFG,Afghanistan,False,False,1,AF01,Kabul,2,AF0102,Paghman,667f089f-e183-4afd-8584-6f27f4245acf,civilian_targeting,0,0.0,2019-11-01 00:00:00,2019-11-30 00:00:00
314,1,AFG,Afghanistan,False,False,1,AF01,Kabul,2,AF0102,Paghman,667f089f-e183-4afd-8584-6f27f4245acf,civilian_targeting,0,0.0,2019-12-01 00:00:00,2019-12-31 00:00:00
315,1,AFG,Afghanistan,False,False,1,AF01,Kabul,2,AF0102,Paghman,667f089f-e183-4afd-8584-6f27f4245acf,civilian_targeting,0,0.0,2020-01-01 00:00:00,2020-01-31 00:00:00
316,1,AFG,Afghanistan,False,False,1,AF01,Kabul,2,AF0102,Paghman,667f089f-e183-4afd-8584-6f27f4245acf,civilian_targeting,0,0.0,2020-02-01 00:00:00,2020-02-29 00:00:00
317,1,AFG,Afghanistan,False,False,1,AF01,Kabul,2,AF0102,Paghman,667f089f-e183-4afd-8584-6f27f4245acf,civilian_targeting,0,0.0,2020-03-01 00:00:00,2020-03-31 00:00:00
318,1,AFG,Afghanistan,False,False,1,AF01,Kabul,2,AF0102,Paghman,667f089f-e183-4afd-8584-6f27f4245acf,civilian_targeting,0,0.0,2020-04-01 00:00:00,2020-04-30 00:00:00
319,1,AFG,Afghanistan,False,False,1,AF01,Kabul,2,AF0102,Paghman,667f089f-e183-4afd-8584-6f27f4245acf,civilian_targeting,0,0.0,2020-05-01 00:00:00,2020-05-31 00:00:00
320,1,AFG,Afghanistan,False,False,1,AF01,Kabul,2,AF0102,Paghman,667f089f-e183-4afd-8584-6f27f4245acf,civilian_targeting,1,2.0,2020-06-01 00:00:00,2020-06-30 00:00:00
321,1,AFG,Afghanistan,False,False,1,AF01,Kabul,2,AF0102,Paghman,667f089f-e183-4afd-8584-6f27f4245acf,civilian_targeting,1,2.0,2020-07-01 00:00:00,2020-07-31 00:00:00
322,1,AFG,Afghanistan,False,False,1,AF01,Kabul,2,AF0102,Paghman,667f089f-e183-4afd-8584-6f27f4245acf,civilian_targeting,0,0.0,2020-08-01 00:00:00,2020-08-31 00:00:00
323,1,AFG,Afghanistan,False,False,1,AF01,Kabul,2,AF0102,Paghman,667f089f-e183-4afd-8584-6f27f4245acf,civilian_targeting,1,0.0,2020-09-01 00:00:00,2020-09-30 00:00:00
324,1,AFG,Afghanistan,False,False,1,AF01,Kabul,2,AF0102,Paghman,667f089f-e183-4afd-8584-6f27f4245acf,civilian_targeting,0,0.0,2020-10-01 00:00:00,2020-10-31 00:00:00
325,1,AFG,Afghanistan,False,False,1,AF01,Kabul,2,AF0102,Paghman,667f089f-e183-4afd-8584-6f27f4245acf,civilian_targeting,1,1.0,2020-11-01 00:00:00,2020-11-30 00:00:00
326,1,AFG,Afghanistan,False,False,1,AF01,Kabul,2,AF0102,Paghman,667f089f-e183-4afd-8584-6f27f4245acf,civilian_targeting,2,2.0,2020-12-01 00:00:00,2020-12-31 00:00:00
327,1,AFG,Afghanistan,False,False,1,AF01,Kabul,2,AF0102,Paghman,667f089f-e183-4afd-8584-6f27f4245acf,civilian_targeting,0,0.0,2021-01-01 00:00:00,2021-01-31 00:00:00
328,1,AFG,Afghanistan,False,False,1,AF01,Kabul,2,AF0102,Paghman,667f089f-e183-4afd-8584-6f27f4245acf,civilian_targeting,2,3.0,2021-02-01 00:00:00,2021-02-28 00:00:00
329,1,AFG,Afghanistan,False,False,1,AF01,Kabul,2,AF0102,Paghman,667f089f-e183-4afd-8584-6f27f4245acf,civilian_targeting,1,1.0,2021-03-01 00:00:00,2021-03-31 00:00:00
330,1,AFG,Afghanistan,False,False,1,AF01,Kabul,2,AF0102,Paghman,667f089f-e183-4afd-8584-6f27f4245acf,civilian_targeting,3,3.0,2021-04-01 00:00:00,2021-04-30 00:00:00
331,1,AFG,Afghanistan,False,False,1,AF01,Kabul,2,AF0102,Paghman,667f089f-e183-4afd-8584-6f27f4245acf,civilian_targeting,0,0.0,2021-05-01 00:00:00,2021-05-31 00:00:00
332,1,AFG,Afghanistan,False,False,1,AF01,Kabul,2,AF0102,Paghman,667f089f-e183-4afd-8584-6f27f4245acf,civilian_targeting,1,5.0,2021-06-01 00:00:00,2021-06-30 00:00:00
333,1,AFG,Afghanistan,False,False,1,AF01,Kabul,2,AF0102,Paghman,667f089f-e183-4afd-8584-6f27f4245acf,civilian_targeting,0,0.0,2021-07-01 00:00:00,2021-07-31 00:00:00
334,1,AFG,Afghanistan,False,False,1,AF01,Kabul,2,AF0102,Paghman,667f089f-e183-4afd-8584-6f27f4245acf,civilian_targeting,1,0.0,2021-08-01 00:00:00,2021-08-31 00:00:00
335,1,AFG,Afghanistan,False,False,1,AF01,Kabul,2,AF0102,Paghman,667f089f-e183-4afd-8584-6f27f4245acf,civilian_targeting,0,0.0,2021-09-01 00:00:00,2021-09-30 00:00:00
336,1,AFG,Afghanistan,False,False,1,AF01,Kabul,2,AF0102,Paghman,667f089f-e183-4afd-8584-6f27f4245acf,civilian_targeting,0,0.0,2021-10-01 00:00:00,2021-10-31 00:00:00
337,1,AFG,Afghanistan,False,False,1,AF01,Kabul,2,AF0102,Paghman,667f089f-e183-4afd-8584-6f27f4245acf,civilian_targeting,0,0.0,2021-11-01 00:00:00,2021-11-30 00:00:00
338,1,AFG,Afghanistan,False,False,1,AF01,Kabul,2,AF0102,Paghman,667f089f-e183-4afd-8584-6f27f4245acf,civilian_targeting,0,0.0,2021-12-01 00:00:00,2021-12-31 00:00:00
339,1,AFG,Afghanistan,False,False,1,AF01,Kabul,2,AF0102,Paghman,667f089f-e183-4afd-8584-6f27f4245acf,civilian_targeting,1,3.0,2022-01-01 00:00:00,2022-01-31 00:00:00
340,1,AFG,Afghanistan,False,False,1,AF01,Kabul,2,AF0102,Paghman,667f089f-e183-4afd-8584-6f27f4245acf,civilian_targeting,0,0.0,2022-02-01 00:00:00,2022-02-28 00:00:00
341,1,AFG,Afghanistan,False,False,1,AF01,Kabul,2,AF0102,Paghman,667f089f-e183-4afd-8584-6f27f4245acf,civilian_targeting,0,0.0,2022-03-01 00:00:00,2022-03-31 00:00:00
342,1,AFG,Afghanistan,False,False,1,AF01,Kabul,2,AF0102,Paghman,667f089f-e183-4afd-8584-6f27f4245acf,civilian_targeting,0,0.0,2022-04-01 00:00:00,2022-04-30 00:00:00
343,1,AFG,Afghanistan,False,False,1,AF01,Kabul,2,AF0102,Paghman,667f089f-e183-4afd-8584-6f27f4245acf,civilian_targeting,0,0.0,2022-05-01 00:00:00,2022-05-31 00:00:00
344,1,AFG,Afghanistan,False,False,1,AF01,Kabul,2,AF0102,Paghman,667f089f-e183-4afd-8584-6f27f4245acf,civilian_targeting,0,0.0,2022-06-01 00:00:00,2022-06-30 00:00:00
345,1,AFG,Afghanistan,False,False,1,AF01,Kabul,2,AF0102,Paghman,667f089f-e183-4afd-8584-6f27f4245acf,civilian_targeting,0,0.0,2022-07-01 00:00:00,2022-07-31 00:00:00
346,1,AFG,Afghanistan,False,False,1,AF01,Kabul,2,AF0102,Paghman,667f089f-e183-4afd-8584-6f27f4245acf,civilian_targeting,0,0.0,2022-08-01 00:00:00,2022-08-31 00:00:00
347,1,AFG,Afghanistan,False,False,1,AF01,Kabul,2,AF0102,Paghman,667f089f-e183-4afd-8584-6f27f4245acf,civilian_targeting,0,0.0,2022-09-01 00:00:00,2022-09-30 00:00:00
348,1,AFG,Afghanistan,False,False,1,AF01,Kabul,2,AF0102,Paghman,667f089f-e183-4afd-8584-6f27f4245acf,civilian_targeting,0,0.0,2022-10-01 00:00:00,2022-10-31 00:00:00
349,1,AFG,Afghanistan,False,False,1,AF01,Kabul,2,AF0102,Paghman,667f089f-e183-4afd-8584-6f27f4245acf,civilian_targeting,0,0.0,2022-11-01 00:00:00,2022-11-30 00:00:00
350,1,AFG,Afghanistan,False,False,1,AF01,Kabul,2,AF0102,Paghman,667f089f-e183-4afd-8584-6f27f4245acf,civilian_targeting,0,0.0,2022-12-01 00:00:00,2022-12-31 00:00:00
351,1,AFG,Afghanistan,False,False,1,AF01,Kabul,2,AF0102,Paghman,667f089f-e183-4afd-8584-6f27f4245acf,civilian_targeting,0,0.0,2023-01-01 00:00:00,2023-01-31 00:00:00
352,1,AFG,Afghanistan,False,False,1,AF01,Kabul,2,AF0102,Paghman,667f089f-e183-4afd-8584-6f27f4245acf,civilian_targeting,0,0.0,2023-02-01 00:00:00,2023-02-28 00:00:00
353,1,AFG,Afghanistan,False,False,1,AF01,Kabul,2,AF0102,Paghman,667f089f-e183-4afd-8584-6f27f4245acf,civilian_targeting,0,0.0,2023-03-01 00:00:00,2023-03-31 00:00:00
354,1,AFG,Afghanistan,False,False,1,AF01,Kabul,2,AF0102,Paghman,667f089f-e183-4afd-8584-6f27f4245acf,civilian_targeting,0,0.0,2023-04-01 00:00:00,2023-04-30 00:00:00
355,1,AFG,Afghanistan,False,False,1,AF01,Kabul,2,AF0102,Paghman,667f089f-e183-4afd-8584-6f27f4245acf,civilian_targeting,0,0.0,2023-05-01 00:00:00,2023-05-31 00:00:00
356,1,AFG,Afghanistan,False,False,1,AF01,Kabul,2,AF0102,Paghman,667f089f-e183-4afd-8584-6f27f4245acf,civilian_targeting,0,0.0,2023-06-01 00:00:00,2023-06-30 00:00:00
357,1,AFG,Afghanistan,False,False,1,AF01,Kabul,2,AF0102,Paghman,667f089f-e183-4afd-8584-6f27f4245acf,civilian_targeting,0,0.0,2023-07-01 00:00:00,2023-07-31 00:00:00
358,1,AFG,Afghanistan,False,False,1,AF01,Kabul,2,AF0102,Paghman,667f089f-e183-4afd-8584-6f27f4245acf,civilian_targeting,0,0.0,2023-08-01 00:00:00,2023-08-31 00:00:00
359,1,AFG,Afghanistan,False,False,1,AF01,Kabul,2,AF0102,Paghman,667f089f-e183-4afd-8584-6f27f4245acf,civilian_targeting,0,0.0,2023-09-01 00:00:00,2023-09-30 00:00:00
360,1,AFG,Afghanistan,False,False,1,AF01,Kabul,2,AF0102,Paghman,667f089f-e183-4afd-8584-6f27f4245acf,civilian_targeting,0,0.0,2023-10-01 00:00:00,2023-10-31 00:00:00
361,1,AFG,Afghanistan,False,False,1,AF01,Kabul,2,AF0102,Paghman,667f089f-e183-4afd-8584-6f27f4245acf,civilian_targeting,0,0.0,2023-11-01 00:00:00,2023-11-30 00:00:00
362,1,AFG,Afghanistan,False,False,1,AF01,Kabul,2,AF0102,Paghman,667f089f-e183-4afd-8584-6f27f4245acf,civilian_targeting,0,0.0,2023-12-01 00:00:00,2023-12-31 00:00:00
363,1,AFG,Afghanistan,False,False,1,AF01,Kabul,2,AF0102,Paghman,667f089f-e183-4afd-8584-6f27f4245acf,civilian_targeting,0,0.0,2024-01-01 00:00:00,2024-01-31 00:00:00
364,1,AFG,Afghanistan,False,False,1,AF01,Kabul,2,AF0102,Paghman,667f089f-e183-4afd-8584-6f27f4245acf,civilian_targeting,0,0.0,2024-02-01 00:00:00,2024-02-29 00:00:00
365,1,AFG,Afghanistan,False,False,1,AF01,Kabul,2,AF0102,Paghman,667f089f-e183-4afd-8584-6f27f4245acf,civilian_targeting,0,0.0,2024-03-01 00:00:00,2024-03-31 00:00:00
366,1,AFG,Afghanistan,False,False,1,AF01,Kabul,2,AF0102,Paghman,667f089f-e183-4afd-8584-6f27f4245acf,civilian_targeting,0,0.0,2024-04-01 00:00:00,2024-04-30 00:00:00
367,1,AFG,Afghanistan,False,False,1,AF01,Kabul,2,AF0102,Paghman,667f089f-e183-4afd-8584-6f27f4245acf,civilian_targeting,0,0.0,2024-05-01 00:00:00,2024-05-31 00:00:00
368,1,AFG,Afghanistan,False,False,1,AF01,Kabul,2,AF0102,Paghman,667f089f-e183-4afd-8584-6f27f4245acf,civilian_targeting,0,0.0,2024-06-01 00:00:00,2024-06-30 00:00:00
369,1,AFG,Afghanistan,False,False,1,AF01,Kabul,2,AF0102,Paghman,667f089f-e183-4afd-8584-6f27f4245acf,civilian_targeting,1,2.0,2024-07-01 00:00:00,2024-07-31 00:00:00
370,1,AFG,Afghanistan,False,False,1,AF01,Kabul,2,AF0102,Paghman,667f089f-e183-4afd-8584-6f27f4245acf,civilian_targeting,0,0.0,2024-08-01 00:00:00,2024-08-31 00:00:00
371,1,AFG,Afghanistan,False,False,1,AF01,Kabul,2,AF0102,Paghman,667f089f-e183-4afd-8584-6f27f4245acf,civilian_targeting,0,0.0,2024-09-01 00:00:00,2024-09-30 00:00:00
372,1,AFG,Afghanistan,False,False,1,AF01,Kabul,2,AF0102,Paghman,667f089f-e183-4afd-8584-6f27f4245acf,demonstration,0,,2017-01-01 00:00:00,2017-01-31 00:00:00
373,1,AFG,Afghanistan,False,False,1,AF01,Kabul,2,AF0102,Paghman,667f089f-e183-4afd-8584-6f27f4245acf,demonstration,0,,2017-02-01 00:00:00,2017-02-28 00:00:00
374,1,AFG,Afghanistan,False,False,1,AF01,Kabul,2,AF0102,Paghman,667f089f-e183-4afd-8584-6f27f4245acf,demonstration,0,,2017-03-01 00:00:00,2017-03-31 00:00:00
375,1,AFG,Afghanistan,False,False,1,AF01,Kabul,2,AF0102,Paghman,667f089f-e183-4afd-8584-6f27f4245acf,demonstration,0,,2017-04-01 00:00:00,2017-04-30 00:00:00
376,1,AFG,Afghanistan,False,False,1,AF01,Kabul,2,AF0102,Paghman,667f089f-e183-4afd-8584-6f27f4245acf,demonstration,0,,2017-05-01 00:00:00,2017-05-31 00:00:00
377,1,AFG,Afghanistan,False,False,1,AF01,Kabul,2,AF0102,Paghman,667f089f-e183-4afd-8584-6f27f4245acf,demonstration,0,,2017-06-01 00:00:00,2017-06-30 00:00:00
378,1,AFG,Afghanistan,False,False,1,AF01,Kabul,2,AF0102,Paghman,667f089f-e183-4afd-8584-6f27f4245acf,demonstration,0,,2017-07-01 00:00:00,2017-07-31 00:00:00
379,1,AFG,Afghanistan,False,False,1,AF01,Kabul,2,AF0102,Paghman,667f089f-e183-4afd-8584-6f27f4245acf,demonstration,0,,2017-08-01 00:00:00,2017-08-31 00:00:00
380,1,AFG,Afghanistan,False,False,1,AF01,Kabul,2,AF0102,Paghman,667f089f-e183-4afd-8584-6f27f4245acf,demonstration,0,,2017-09-01 00:00:00,2017-09-30 00:00:00
381,1,AFG,Afghanistan,False,False,1,AF01,Kabul,2,AF0102,Paghman,667f089f-e183-4afd-8584-6f27f4245acf,demonstration,0,,2017-10-01 00:00:00,2017-10-31 00:00:00
382,1,AFG,Afghanistan,False,False,1,AF01,Kabul,2,AF0102,Paghman,667f089f-e183-4afd-8584-6f27f4245acf,demonstration,0,,2017-11-01 00:00:00,2017-11-30 00:00:00
383,1,AFG,Afghanistan,False,False,1,AF01,Kabul,2,AF0102,Paghman,667f089f-e183-4afd-8584-6f27f4245acf,demonstration,0,,2017-12-01 00:00:00,2017-12-31 00:00:00
384,1,AFG,Afghanistan,False,False,1,AF01,Kabul,2,AF0102,Paghman,667f089f-e183-4afd-8584-6f27f4245acf,demonstration,0,,2018-01-01 00:00:00,2018-01-31 00:00:00
385,1,AFG,Afghanistan,False,False,1,AF01,Kabul,2,AF0102,Paghman,667f089f-e183-4afd-8584-6f27f4245acf,demonstration,0,,2018-02-01 00:00:00,2018-02-28 00:00:00
386,1,AFG,Afghanistan,False,False,1,AF01,Kabul,2,AF0102,Paghman,667f089f-e183-4afd-8584-6f27f4245acf,demonstration,0,,2018-03-01 00:00:00,2018-03-31 00:00:00
387,1,AFG,Afghanistan,False,False,1,AF01,Kabul,2,AF0102,Paghman,667f089f-e183-4afd-8584-6f27f4245acf,demonstration,0,,2018-04-01 00:00:00,2018-04-30 00:00:00
388,1,AFG,Afghanistan,False,False,1,AF01,Kabul,2,AF0102,Paghman,667f089f-e183-4afd-8584-6f27f4245acf,demonstration,0,,2018-05-01 00:00:00,2018-05-31 00:00:00
389,1,AFG,Afghanistan,False,False,1,AF01,Kabul,2,AF0102,Paghman,667f089f-e183-4afd-8584-6f27f4245acf,demonstration,0,,2018-06-01 00:00:00,2018-06-30 00:00:00
390,1,AFG,Afghanistan,False,False,1,AF01,Kabul,2,AF0102,Paghman,667f089f-e183-4afd-8584-6f27f4245acf,demonstration,0,,2018-07-01 00:00:00,2018-07-31 00:00:00
391,1,AFG,Afghanistan,False,False,1,AF01,Kabul,2,AF0102,Paghman,667f089f-e183-4afd-8584-6f27f4245acf,demonstration,0,,2018-08-01 00:00:00,2018-08-31 00:00:00
392,1,AFG,Afghanistan,False,False,1,AF01,Kabul,2,AF0102,Paghman,667f089f-e183-4afd-8584-6f27f4245acf,demonstration,0,,2018-09-01 00:00:00,2018-09-30 00:00:00
393,1,AFG,Afghanistan,False,False,1,AF01,Kabul,2,AF0102,Paghman,667f089f-e183-4afd-8584-6f27f4245acf,demonstration,0,,2018-10-01 00:00:00,2018-10-31 00:00:00
394,1,AFG,Afghanistan,False,False,1,AF01,Kabul,2,AF0102,Paghman,667f089f-e183-4afd-8584-6f27f4245acf,demonstration,0,,2018-11-01 00:00:00,2018-11-30 00:00:00
395,1,AFG,Afghanistan,False,False,1,AF01,Kabul,2,AF0102,Paghman,667f089f-e183-4afd-8584-6f27f4245acf,demonstration,0,,2018-12-01 00:00:00,2018-12-31 00:00:00
396,1,AFG,Afghanistan,False,False,1,AF01,Kabul,2,AF0102,Paghman,667f089f-e183-4afd-8584-6f27f4245acf,demonstration,0,,2019-01-01 00:00:00,2019-01-31 00:00:00
397,1,AFG,Afghanistan,False,False,1,AF01,Kabul,2,AF0102,Paghman,667f089f-e183-4afd-8584-6f27f4245acf,demonstration,0,,2019-02-01 00:00:00,2019-02-28 00:00:00
398,1,AFG,Afghanistan,False,False,1,AF01,Kabul,2,AF0102,Paghman,667f089f-e183-4afd-8584-6f27f4245acf,demonstration,0,,2019-03-01 00:00:00,2019-03-31 00:00:00
399,1,AFG,Afghanistan,False,False,1,AF01,Kabul,2,AF0102,Paghman,667f089f-e183-4afd-8584-6f27f4245acf,demonstration,0,,2019-04-01 00:00:00,2019-04-30 00:00:00
400,1,AFG,Afghanistan,False,False,1,AF01,Kabul,2,AF0102,Paghman,667f089f-e183-4afd-8584-6f27f4245acf,demonstration,0,,2019-05-01 00:00:00,2019-05-31 00:00:00
401,1,AFG,Afghanistan,False,False,1,AF01,Kabul,2,AF0102,Paghman,667f089f-e183-4afd-8584-6f27f4245acf,demonstration,0,,2019-06-01 00:00:00,2019-06-30 00:00:00
402,1,AFG,Afghanistan,False,False,1,AF01,Kabul,2,AF0102,Paghman,667f089f-e183-4afd-8584-6f27f4245acf,demonstration,0,,2019-07-01 00:00:00,2019-07-31 00:00:00
403,1,AFG,Afghanistan,False,False,1,AF01,Kabul,2,AF0102,Paghman,667f089f-e183-4afd-8584-6f27f4245acf,demonstration,0,,2019-08-01 00:00:00,2019-08-31 00:00:00
404,1,AFG,Afghanistan,False,False,1,AF01,Kabul,2,AF0102,Paghman,667f089f-e183-4afd-8584-6f27f4245acf,demonstration,0,,2019-09-01 00:00:00,2019-09-30 00:00:00
405,1,AFG,Afghanistan,False,False,1,AF01,Kabul,2,AF0102,Paghman,667f089f-e183-4afd-8584-6f27f4245acf,demonstration,0,,2019-10-01 00:00:00,2019-10-31 00:00:00
406,1,AFG,Afghanistan,False,False,1,AF01,Kabul,2,AF0102,Paghman,667f089f-e183-4afd-8584-6f27f4245acf,demonstration,0,,2019-11-01 00:00:00,2019-11-30 00:00:00
407,1,AFG,Afghanistan,False,False,1,AF01,Kabul,2,AF0102,Paghman,667f089f-e183-4afd-8584-6f27f4245acf,demonstration,0,,2019-12-01 00:00:00,2019-12-31 00:00:00
408,1,AFG,Afghanistan,False,False,1,AF01,Kabul,2,AF0102,Paghman,667f089f-e183-4afd-8584-6f27f4245acf,demonstration,0,,2020-01-01 00:00:00,2020-01-31 00:00:00
409,1,AFG,Afghanistan,False,False,1,AF01,Kabul,2,AF0102,Paghman,667f089f-e183-4afd-8584-6f27f4245acf,demonstration,0,,2020-02-01 00:00:00,2020-02-29 00:00:00
410,1,AFG,Afghanistan,False,False,1,AF01,Kabul,2,AF0102,Paghman,667f089f-e183-4afd-8584-6f27f4245acf,demonstration,0,,2020-03-01 00:00:00,2020-03-31 00:00:00
411,1,AFG,Afghanistan,False,False,1,AF01,Kabul,2,AF0102,Paghman,667f089f-e183-4afd-8584-6f27f4245acf,demonstration,0,,2020-04-01 00:00:00,2020-04-30 00:00:00
412,1,AFG,Afghanistan,False,False,1,AF01,Kabul,2,AF0102,Paghman,667f089f-e183-4afd-8584-6f27f4245acf,demonstration,0,,2020-05-01 00:00:00,2020-05-31 00:00:00
413,1,AFG,Afghanistan,False,False,1,AF01,Kabul,2,AF0102,Paghman,667f089f-e183-4afd-8584-6f27f4245acf,demonstration,0,,2020-06-01 00:00:00,2020-06-30 00:00:00
414,1,AFG,Afghanistan,False,False,1,AF01,Kabul,2,AF0102,Paghman,667f089f-e183-4afd-8584-6f27f4245acf,demonstration,0,,2020-07-01 00:00:00,2020-07-31 00:00:00
415,1,AFG,Afghanistan,False,False,1,AF01,Kabul,2,AF0102,Paghman,667f089f-e183-4afd-8584-6f27f4245acf,demonstration,0,,2020-08-01 00:00:00,2020-08-31 00:00:00
416,1,AFG,Afghanistan,False,False,1,AF01,Kabul,2,AF0102,Paghman,667f089f-e183-4afd-8584-6f27f4245acf,demonstration,0,,2020-09-01 00:00:00,2020-09-30 00:00:00
417,1,AFG,Afghanistan,False,False,1,AF01,Kabul,2,AF0102,Paghman,667f089f-e183-4afd-8584-6f27f4245acf,demonstration,0,,2020-10-01 00:00:00,2020-10-31 00:00:00
418,1,AFG,Afghanistan,False,False,1,AF01,Kabul,2,AF0102,Paghman,667f089f-e183-4afd-8584-6f27f4245acf,demonstration,0,,2020-11-01 00:00:00,2020-11-30 00:00:00
419,1,AFG,Afghanistan,False,False,1,AF01,Kabul,2,AF0102,Paghman,667f089f-e183-4afd-8584-6f27f4245acf,demonstration,0,,2020-12-01 00:00:00,2020-12-31 00:00:00
420,1,AFG,Afghanistan,False,False,1,AF01,Kabul,2,AF0102,Paghman,667f089f-e183-4afd-8584-6f27f4245acf,demonstration,0,,2021-01-01 00:00:00,2021-01-31 00:00:00
421,1,AFG,Afghanistan,False,False,1,AF01,Kabul,2,AF0102,Paghman,667f089f-e183-4afd-8584-6f27f4245acf,demonstration,1,,2021-02-01 00:00:00,2021-02-28 00:00:00
422,1,AFG,Afghanistan,False,False,1,AF01,Kabul,2,AF0102,Paghman,667f089f-e183-4afd-8584-6f27f4245acf,demonstration,1,,2021-03-01 00:00:00,2021-03-31 00:00:00
423,1,AFG,Afghanistan,False,False,1,AF01,Kabul,2,AF0102,Paghman,667f089f-e183-4afd-8584-6f27f4245acf,demonstration,0,,2021-04-01 00:00:00,2021-04-30 00:00:00
424,1,AFG,Afghanistan,False,False,1,AF01,Kabul,2,AF0102,Paghman,667f089f-e183-4afd-8584-6f27f4245acf,demonstration,0,,2021-05-01 00:00:00,2021-05-31 00:00:00
425,1,AFG,Afghanistan,False,False,1,AF01,Kabul,2,AF0102,Paghman,667f089f-e183-4afd-8584-6f27f4245acf,demonstration,0,,2021-06-01 00:00:00,2021-06-30 00:00:00
426,1,AFG,Afghanistan,False,False,1,AF01,Kabul,2,AF0102,Paghman,667f089f-e183-4afd-8584-6f27f4245acf,demonstration,0,,2021-07-01 00:00:00,2021-07-31 00:00:00
427,1,AFG,Afghanistan,False,False,1,AF01,Kabul,2,AF0102,Paghman,667f089f-e183-4afd-8584-6f27f4245acf,demonstration,0,,2021-08-01 00:00:00,2021-08-31 00:00:00
428,1,AFG,Afghanistan,False,False,1,AF01,Kabul,2,AF0102,Paghman,667f089f-e183-4afd-8584-6f27f4245acf,demonstration,0,,2021-09-01 00:00:00,2021-09-30 00:00:00
429,1,AFG,Afghanistan,False,False,1,AF01,Kabul,2,AF0102,Paghman,667f089f-e183-4afd-8584-6f27f4245acf,demonstration,0,,2021-10-01 00:00:00,2021-10-31 00:00:00
430,1,AFG,Afghanistan,False,False,1,AF01,Kabul,2,AF0102,Paghman,667f089f-e183-4afd-8584-6f27f4245acf,demonstration,0,,2021-11-01 00:00:00,2021-11-30 00:00:00
431,1,AFG,Afghanistan,False,False,1,AF01,Kabul,2,AF0102,Paghman,667f089f-e183-4afd-8584-6f27f4245acf,demonstration,0,,2021-12-01 00:00:00,2021-12-31 00:00:00
432,1,AFG,Afghanistan,False,False,1,AF01,Kabul,2,AF0102,Paghman,667f089f-e183-4afd-8584-6f27f4245acf,demonstration,0,,2022-01-01 00:00:00,2022-01-31 00:00:00
433,1,AFG,Afghanistan,False,False,1,AF01,Kabul,2,AF0102,Paghman,667f089f-e183-4afd-8584-6f27f4245acf,demonstration,0,,2022-02-01 00:00:00,2022-02-28 00:00:00
434,1,AFG,Afghanistan,False,False,1,AF01,Kabul,2,AF0102,Paghman,667f089f-e183-4afd-8584-6f27f4245acf,demonstration,0,,2022-03-01 00:00:00,2022-03-31 00:00:00
435,1,AFG,Afghanistan,False,False,1,AF01,Kabul,2,AF0102,Paghman,667f089f-e183-4afd-8584-6f27f4245acf,demonstration,0,,2022-04-01 00:00:00,2022-04-30 00:00:00
436,1,AFG,Afghanistan,False,False,1,AF01,Kabul,2,AF0102,Paghman,667f089f-e183-4afd-8584-6f27f4245acf,demonstration,0,,2022-05-01 00:00:00,2022-05-31 00:00:00
437,1,AFG,Afghanistan,False,False,1,AF01,Kabul,2,AF0102,Paghman,667f089f-e183-4afd-8584-6f27f4245acf,demonstration,0,,2022-06-01 00:00:00,2022-06-30 00:00:00
438,1,AFG,Afghanistan,False,False,1,AF01,Kabul,2,AF0102,Paghman,667f089f-e183-4afd-8584-6f27f4245acf,demonstration,0,,2022-07-01 00:00:00,2022-07-31 00:00:00
439,1,AFG,Afghanistan,False,False,1,AF01,Kabul,2,AF0102,Paghman,667f089f-e183-4afd-8584-6f27f4245acf,demonstration,0,,2022-08-01 00:00:00,2022-08-31 00:00:00
440,1,AFG,Afghanistan,False,False,1,AF01,Kabul,2,AF0102,Paghman,667f089f-e183-4afd-8584-6f27f4245acf,demonstration,0,,2022-09-01 00:00:00,2022-09-30 00:00:00
441,1,AFG,Afghanistan,False,False,1,AF01,Kabul,2,AF0102,Paghman,667f089f-e183-4afd-8584-6f27f4245acf,demonstration,0,,2022-10-01 00:00:00,2022-10-31 00:00:00
442,1,AFG,Afghanistan,False,False,1,AF01,Kabul,2,AF0102,Paghman,667f089f-e183-4afd-8584-6f27f4245acf,demonstration,0,,2022-11-01 00:00:00,2022-11-30 00:00:00
443,1,AFG,Afghanistan,False,False,1,AF01,Kabul,2,AF0102,Paghman,667f089f-e183-4afd-8584-6f27f4245acf,demonstration,0,,2022-12-01 00:00:00,2022-12-31 00:00:00
444,1,AFG,Afghanistan,False,False,1,AF01,Kabul,2,AF0102,Paghman,667f089f-e183-4afd-8584-6f27f4245acf,demonstration,0,,2023-01-01 00:00:00,2023-01-31 00:00:00
445,1,AFG,Afghanistan,False,False,1,AF01,Kabul,2,AF0102,Paghman,667f089f-e183-4afd-8584-6f27f4245acf,demonstration,0,,2023-02-01 00:00:00,2023-02-28 00:00:00
446,1,AFG,Afghanistan,False,False,1,AF01,Kabul,2,AF0102,Paghman,667f089f-e183-4afd-8584-6f27f4245acf,demonstration,0,,2023-03-01 00:00:00,2023-03-31 00:00:00
447,1,AFG,Afghanistan,False,False,1,AF01,Kabul,2,AF0102,Paghman,667f089f-e183-4afd-8584-6f27f4245acf,demonstration,0,,2023-04-01 00:00:00,2023-04-30 00:00:00
448,1,AFG,Afghanistan,False,False,1,AF01,Kabul,2,AF0102,Paghman,667f089f-e183-4afd-8584-6f27f4245acf,demonstration,0,,2023-05-01 00:00:00,2023-05-31 00:00:00
449,1,AFG,Afghanistan,False,False,1,AF01,Kabul,2,AF0102,Paghman,667f089f-e183-4afd-8584-6f27f4245acf,demonstration,0,,2023-06-01 00:00:00,2023-06-30 00:00:00
450,1,AFG,Afghanistan,False,False,1,AF01,Kabul,2,AF0102,Paghman,667f089f-e183-4afd-8584-6f27f4245acf,demonstration,0,,2023-07-01 00:00:00,2023-07-31 00:00:00
451,1,AFG,Afghanistan,False,False,1,AF01,Kabul,2,AF0102,Paghman,667f089f-e183-4afd-8584-6f27f4245acf,demonstration,0,,2023-08-01 00:00:00,2023-08-31 00:00:00
452,1,AFG,Afghanistan,False,False,1,AF01,Kabul,2,AF0102,Paghman,667f089f-e183-4afd-8584-6f27f4245acf,demonstration,0,,2023-09-01 00:00:00,2023-09-30 00:00:00
453,1,AFG,Afghanistan,False,False,1,AF01,Kabul,2,AF0102,Paghman,667f089f-e183-4afd-8584-6f27f4245acf,demonstration,0,,2023-10-01 00:00:00,2023-10-31 00:00:00
454,1,AFG,Afghanistan,False,False,1,AF01,Kabul,2,AF0102,Paghman,667f089f-e183-4afd-8584-6f27f4245acf,demonstration,0,,2023-11-01 00:00:00,2023-11-30 00:00:00
455,1,AFG,Afghanistan,False,False,1,AF01,Kabul,2,AF0102,Paghman,667f089f-e183-4afd-8584-6f27f4245acf,demonstration,0,,2023-12-01 00:00:00,2023-12-31 00:00:00
456,1,AFG,Afghanistan,False,False,1,AF01,Kabul,2,AF0102,Paghman,667f089f-e183-4afd-8584-6f27f4245acf,demonstration,0,,2024-01-01 00:00:00,2024-01-31 00:00:00
457,1,AFG,Afghanistan,False,False,1,AF01,Kabul,2,AF0102,Paghman,667f089f-e183-4afd-8584-6f27f4245acf,demonstration,0,,2024-02-01 00:00:00,2024-02-29 00:00:00
458,1,AFG,Afghanistan,False,False,1,AF01,Kabul,2,AF0102,Paghman,667f089f-e183-4afd-8584-6f27f4245acf,demonstration,0,,2024-03-01 00:00:00,2024-03-31 00:00:00
459,1,AFG,Afghanistan,False,False,1,AF01,Kabul,2,AF0102,Paghman,667f089f-e183-4afd-8584-6f27f4245acf,demonstration,0,,2024-04-01 00:00:00,2024-04-30 00:00:00
460,1,AFG,Afghanistan,False,False,1,AF01,Kabul,2,AF0102,Paghman,667f089f-e183-4afd-8584-6f27f4245acf,demonstration,0,,2024-05-01 00:00:00,2024-05-31 00:00:00
461,1,AFG,Afghanistan,False,False,1,AF01,Kabul,2,AF0102,Paghman,667f089f-e183-4afd-8584-6f27f4245acf,demonstration,0,,2024-06-01 00:00:00,2024-06-30 00:00:00
462,1,AFG,Afghanistan,False,False,1,AF01,Kabul,2,AF0102,Paghman,667f089f-e183-4afd-8584-6f27f4245acf,demonstration,0,,2024-07-01 00:00:00,2024-07-31 00:00:00
463,1,AFG,Afghanistan,False,False,1,AF01,Kabul,2,AF0102,Paghman,667f089f-e183-4afd-8584-6f27f4245acf,demonstration,0,,2024-08-01 00:00:00,2024-08-31 00:00:00
464,1,AFG,Afghanistan,False,False,1,AF01,Kabul,2,AF0102,Paghman,667f089f-e183-4afd-8584-6f27f4245acf,demonstration,0,,2024-09-01 00:00:00,2024-09-30 00:00:00
465,1,AFG,Afghanistan,False,False,1,AF01,Kabul,2,AF0102,Paghman,667f089f-e183-4afd-8584-6f27f4245acf,political_violence,0,0.0,2017-01-01 00:00:00,2017-01-31 00:00:00
466,1,AFG,Afghanistan,False,False,1,AF01,Kabul,2,AF0102,Paghman,667f089f-e183-4afd-8584-6f27f4245acf,political_violence,0,0.0,2017-02-01 00:00:00,2017-02-28 00:00:00
467,1,AFG,Afghanistan,False,False,1,AF01,Kabul,2,AF0102,Paghman,667f089f-e183-4afd-8584-6f27f4245acf,political_violence,0,0.0,2017-03-01 00:00:00,2017-03-31 00:00:00
468,1,AFG,Afghanistan,False,False,1,AF01,Kabul,2,AF0102,Paghman,667f089f-e183-4afd-8584-6f27f4245acf,political_violence,0,0.0,2017-04-01 00:00:00,2017-04-30 00:00:00
469,1,AFG,Afghanistan,False,False,1,AF01,Kabul,2,AF0102,Paghman,667f089f-e183-4afd-8584-6f27f4245acf,political_violence,1,0.0,2017-05-01 00:00:00,2017-05-31 00:00:00
470,1,AFG,Afghanistan,False,False,1,AF01,Kabul,2,AF0102,Paghman,667f089f-e183-4afd-8584-6f27f4245acf,political_violence,0,0.0,2017-06-01 00:00:00,2017-06-30 00:00:00
471,1,AFG,Afghanistan,False,False,1,AF01,Kabul,2,AF0102,Paghman,667f089f-e183-4afd-8584-6f27f4245acf,political_violence,3,0.0,2017-07-01 00:00:00,2017-07-31 00:00:00
472,1,AFG,Afghanistan,False,False,1,AF01,Kabul,2,AF0102,Paghman,667f089f-e183-4afd-8584-6f27f4245acf,political_violence,8,3.0,2017-08-01 00:00:00,2017-08-31 00:00:00
473,1,AFG,Afghanistan,False,False,1,AF01,Kabul,2,AF0102,Paghman,667f089f-e183-4afd-8584-6f27f4245acf,political_violence,2,0.0,2017-09-01 00:00:00,2017-09-30 00:00:00
474,1,AFG,Afghanistan,False,False,1,AF01,Kabul,2,AF0102,Paghman,667f089f-e183-4afd-8584-6f27f4245acf,political_violence,2,0.0,2017-10-01 00:00:00,2017-10-31 00:00:00
475,1,AFG,Afghanistan,False,False,1,AF01,Kabul,2,AF0102,Paghman,667f089f-e183-4afd-8584-6f27f4245acf,political_violence,1,2.0,2017-11-01 00:00:00,2017-11-30 00:00:00
476,1,AFG,Afghanistan,False,False,1,AF01,Kabul,2,AF0102,Paghman,667f089f-e183-4afd-8584-6f27f4245acf,political_violence,0,0.0,2017-12-01 00:00:00,2017-12-31 00:00:00
477,1,AFG,Afghanistan,False,False,1,AF01,Kabul,2,AF0102,Paghman,667f089f-e183-4afd-8584-6f27f4245acf,political_violence,0,0.0,2018-01-01 00:00:00,2018-01-31 00:00:00
478,1,AFG,Afghanistan,False,False,1,AF01,Kabul,2,AF0102,Paghman,667f089f-e183-4afd-8584-6f27f4245acf,political_violence,0,0.0,2018-02-01 00:00:00,2018-02-28 00:00:00
479,1,AFG,Afghanistan,False,False,1,AF01,Kabul,2,AF0102,Paghman,667f089f-e183-4afd-8584-6f27f4245acf,political_violence,1,2.0,2018-03-01 00:00:00,2018-03-31 00:00:00
480,1,AFG,Afghanistan,False,False,1,AF01,Kabul,2,AF0102,Paghman,667f089f-e183-4afd-8584-6f27f4245acf,political_violence,0,0.0,2018-04-01 00:00:00,2018-04-30 00:00:00
481,1,AFG,Afghanistan,False,False,1,AF01,Kabul,2,AF0102,Paghman,667f089f-e183-4afd-8584-6f27f4245acf,political_violence,5,0.0,2018-05-01 00:00:00,2018-05-31 00:00:00
482,1,AFG,Afghanistan,False,False,1,AF01,Kabul,2,AF0102,Paghman,667f089f-e183-4afd-8584-6f27f4245acf,political_violence,12,1.0,2018-06-01 00:00:00,2018-06-30 00:00:00
483,1,AFG,Afghanistan,False,False,1,AF01,Kabul,2,AF0102,Paghman,667f089f-e183-4afd-8584-6f27f4245acf,political_violence,7,8.0,2018-07-01 00:00:00,2018-07-31 00:00:00
484,1,AFG,Afghanistan,False,False,1,AF01,Kabul,2,AF0102,Paghman,667f089f-e183-4afd-8584-6f27f4245acf,political_violence,8,2.0,2018-08-01 00:00:00,2018-08-31 00:00:00
485,1,AFG,Afghanistan,False,False,1,AF01,Kabul,2,AF0102,Paghman,667f089f-e183-4afd-8584-6f27f4245acf,political_violence,2,0.0,2018-09-01 00:00:00,2018-09-30 00:00:00
486,1,AFG,Afghanistan,False,False,1,AF01,Kabul,2,AF0102,Paghman,667f089f-e183-4afd-8584-6f27f4245acf,political_violence,3,0.0,2018-10-01 00:00:00,2018-10-31 00:00:00
487,1,AFG,Afghanistan,False,False,1,AF01,Kabul,2,AF0102,Paghman,667f089f-e183-4afd-8584-6f27f4245acf,political_violence,0,0.0,2018-11-01 00:00:00,2018-11-30 00:00:00
488,1,AFG,Afghanistan,False,False,1,AF01,Kabul,2,AF0102,Paghman,667f089f-e183-4afd-8584-6f27f4245acf,political_violence,2,13.0,2018-12-01 00:00:00,2018-12-31 00:00:00
489,1,AFG,Afghanistan,False,False,1,AF01,Kabul,2,AF0102,Paghman,667f089f-e183-4afd-8584-6f27f4245acf,political_violence,0,0.0,2019-01-01 00:00:00,2019-01-31 00:00:00
490,1,AFG,Afghanistan,False,False,1,AF01,Kabul,2,AF0102,Paghman,667f089f-e183-4afd-8584-6f27f4245acf,political_violence,1,0.0,2019-02-01 00:00:00,2019-02-28 00:00:00
491,1,AFG,Afghanistan,False,False,1,AF01,Kabul,2,AF0102,Paghman,667f089f-e183-4afd-8584-6f27f4245acf,political_violence,2,1.0,2019-03-01 00:00:00,2019-03-31 00:00:00
492,1,AFG,Afghanistan,False,False,1,AF01,Kabul,2,AF0102,Paghman,667f089f-e183-4afd-8584-6f27f4245acf,political_violence,2,0.0,2019-04-01 00:00:00,2019-04-30 00:00:00
493,1,AFG,Afghanistan,False,False,1,AF01,Kabul,2,AF0102,Paghman,667f089f-e183-4afd-8584-6f27f4245acf,political_violence,2,0.0,2019-05-01 00:00:00,2019-05-31 00:00:00
494,1,AFG,Afghanistan,False,False,1,AF01,Kabul,2,AF0102,Paghman,667f089f-e183-4afd-8584-6f27f4245acf,political_violence,1,0.0,2019-06-01 00:00:00,2019-06-30 00:00:00
495,1,AFG,Afghanistan,False,False,1,AF01,Kabul,2,AF0102,Paghman,667f089f-e183-4afd-8584-6f27f4245acf,political_violence,4,0.0,2019-07-01 00:00:00,2019-07-31 00:00:00
496,1,AFG,Afghanistan,False,False,1,AF01,Kabul,2,AF0102,Paghman,667f089f-e183-4afd-8584-6f27f4245acf,political_violence,4,4.0,2019-08-01 00:00:00,2019-08-31 00:00:00
497,1,AFG,Afghanistan,False,False,1,AF01,Kabul,2,AF0102,Paghman,667f089f-e183-4afd-8584-6f27f4245acf,political_violence,6,18.0,2019-09-01 00:00:00,2019-09-30 00:00:00
498,1,AFG,Afghanistan,False,False,1,AF01,Kabul,2,AF0102,Paghman,667f089f-e183-4afd-8584-6f27f4245acf,political_violence,3,1.0,2019-10-01 00:00:00,2019-10-31 00:00:00
499,1,AFG,Afghanistan,False,False,1,AF01,Kabul,2,AF0102,Paghman,667f089f-e183-4afd-8584-6f27f4245acf,political_violence,4,2.0,2019-11-01 00:00:00,2019-11-30 00:00:00
500,1,AFG,Afghanistan,False,False,1,AF01,Kabul,2,AF0102,Paghman,667f089f-e183-4afd-8584-6f27f4245acf,political_violence,0,0.0,2019-12-01 00:00:00,2019-12-31 00:00:00
501,1,AFG,Afghanistan,False,False,1,AF01,Kabul,2,AF0102,Paghman,667f089f-e183-4afd-8584-6f27f4245acf,political_violence,0,0.0,2020-01-01 00:00:00,2020-01-31 00:00:00
502,1,AFG,Afghanistan,False,False,1,AF01,Kabul,2,AF0102,Paghman,667f089f-e183-4afd-8584-6f27f4245acf,political_violence,0,0.0,2020-02-01 00:00:00,2020-02-29 00:00:00
503,1,AFG,Afghanistan,False,False,1,AF01,Kabul,2,AF0102,Paghman,667f089f-e183-4afd-8584-6f27f4245acf,political_violence,0,0.0,2020-03-01 00:00:00,2020-03-31 00:00:00
504,1,AFG,Afghanistan,False,False,1,AF01,Kabul,2,AF0102,Paghman,667f089f-e183-4afd-8584-6f27f4245acf,political_violence,1,1.0,2020-04-01 00:00:00,2020-04-30 00:00:00
505,1,AFG,Afghanistan,False,False,1,AF01,Kabul,2,AF0102,Paghman,667f089f-e183-4afd-8584-6f27f4245acf,political_violence,0,0.0,2020-05-01 00:00:00,2020-05-31 00:00:00
506,1,AFG,Afghanistan,False,False,1,AF01,Kabul,2,AF0102,Paghman,667f089f-e183-4afd-8584-6f27f4245acf,political_violence,2,11.0,2020-06-01 00:00:00,2020-06-30 00:00:00
507,1,AFG,Afghanistan,False,False,1,AF01,Kabul,2,AF0102,Paghman,667f089f-e183-4afd-8584-6f27f4245acf,political_violence,1,2.0,2020-07-01 00:00:00,2020-07-31 00:00:00
508,1,AFG,Afghanistan,False,False,1,AF01,Kabul,2,AF0102,Paghman,667f089f-e183-4afd-8584-6f27f4245acf,political_violence,1,3.0,2020-08-01 00:00:00,2020-08-31 00:00:00
509,1,AFG,Afghanistan,False,False,1,AF01,Kabul,2,AF0102,Paghman,667f089f-e183-4afd-8584-6f27f4245acf,political_violence,4,0.0,2020-09-01 00:00:00,2020-09-30 00:00:00
510,1,AFG,Afghanistan,False,False,1,AF01,Kabul,2,AF0102,Paghman,667f089f-e183-4afd-8584-6f27f4245acf,political_violence,6,7.0,2020-10-01 00:00:00,2020-10-31 00:00:00
511,1,AFG,Afghanistan,False,False,1,AF01,Kabul,2,AF0102,Paghman,667f089f-e183-4afd-8584-6f27f4245acf,political_violence,3,7.0,2020-11-01 00:00:00,2020-11-30 00:00:00
512,1,AFG,Afghanistan,False,False,1,AF01,Kabul,2,AF0102,Paghman,667f089f-e183-4afd-8584-6f27f4245acf,political_violence,3,3.0,2020-12-01 00:00:00,2020-12-31 00:00:00
513,1,AFG,Afghanistan,False,False,1,AF01,Kabul,2,AF0102,Paghman,667f089f-e183-4afd-8584-6f27f4245acf,political_violence,1,2.0,2021-01-01 00:00:00,2021-01-31 00:00:00
514,1,AFG,Afghanistan,False,False,1,AF01,Kabul,2,AF0102,Paghman,667f089f-e183-4afd-8584-6f27f4245acf,political_violence,5,5.0,2021-02-01 00:00:00,2021-02-28 00:00:00
515,1,AFG,Afghanistan,False,False,1,AF01,Kabul,2,AF0102,Paghman,667f089f-e183-4afd-8584-6f27f4245acf,political_violence,5,4.0,2021-03-01 00:00:00,2021-03-31 00:00:00
516,1,AFG,Afghanistan,False,False,1,AF01,Kabul,2,AF0102,Paghman,667f089f-e183-4afd-8584-6f27f4245acf,political_violence,16,23.0,2021-04-01 00:00:00,2021-04-30 00:00:00
517,1,AFG,Afghanistan,False,False,1,AF01,Kabul,2,AF0102,Paghman,667f089f-e183-4afd-8584-6f27f4245acf,political_violence,8,3.0,2021-05-01 00:00:00,2021-05-31 00:00:00
518,1,AFG,Afghanistan,False,False,1,AF01,Kabul,2,AF0102,Paghman,667f089f-e183-4afd-8584-6f27f4245acf,political_violence,6,10.0,2021-06-01 00:00:00,2021-06-30 00:00:00
519,1,AFG,Afghanistan,False,False,1,AF01,Kabul,2,AF0102,Paghman,667f089f-e183-4afd-8584-6f27f4245acf,political_violence,2,12.0,2021-07-01 00:00:00,2021-07-31 00:00:00
520,1,AFG,Afghanistan,False,False,1,AF01,Kabul,2,AF0102,Paghman,667f089f-e183-4afd-8584-6f27f4245acf,political_violence,1,0.0,2021-08-01 00:00:00,2021-08-31 00:00:00
521,1,AFG,Afghanistan,False,False,1,AF01,Kabul,2,AF0102,Paghman,667f089f-e183-4afd-8584-6f27f4245acf,political_violence,0,0.0,2021-09-01 00:00:00,2021-09-30 00:00:00
522,1,AFG,Afghanistan,False,False,1,AF01,Kabul,2,AF0102,Paghman,667f089f-e183-4afd-8584-6f27f4245acf,political_violence,2,3.0,2021-10-01 00:00:00,2021-10-31 00:00:00
523,1,AFG,Afghanistan,False,False,1,AF01,Kabul,2,AF0102,Paghman,667f089f-e183-4afd-8584-6f27f4245acf,political_violence,1,3.0,2021-11-01 00:00:00,2021-11-30 00:00:00
524,1,AFG,Afghanistan,False,False,1,AF01,Kabul,2,AF0102,Paghman,667f089f-e183-4afd-8584-6f27f4245acf,political_violence,0,0.0,2021-12-01 00:00:00,2021-12-31 00:00:00
525,1,AFG,Afghanistan,False,False,1,AF01,Kabul,2,AF0102,Paghman,667f089f-e183-4afd-8584-6f27f4245acf,political_violence,2,6.0,2022-01-01 00:00:00,2022-01-31 00:00:00
526,1,AFG,Afghanistan,False,False,1,AF01,Kabul,2,AF0102,Paghman,667f089f-e183-4afd-8584-6f27f4245acf,political_violence,0,0.0,2022-02-01 00:00:00,2022-02-28 00:00:00
527,1,AFG,Afghanistan,False,False,1,AF01,Kabul,2,AF0102,Paghman,667f089f-e183-4afd-8584-6f27f4245acf,political_violence,1,3.0,2022-03-01 00:00:00,2022-03-31 00:00:00
528,1,AFG,Afghanistan,False,False,1,AF01,Kabul,2,AF0102,Paghman,667f089f-e183-4afd-8584-6f27f4245acf,political_violence,0,0.0,2022-04-01 00:00:00,2022-04-30 00:00:00
529,1,AFG,Afghanistan,False,False,1,AF01,Kabul,2,AF0102,Paghman,667f089f-e183-4afd-8584-6f27f4245acf,political_violence,0,0.0,2022-05-01 00:00:00,2022-05-31 00:00:00
530,1,AFG,Afghanistan,False,False,1,AF01,Kabul,2,AF0102,Paghman,667f089f-e183-4afd-8584-6f27f4245acf,political_violence,0,0.0,2022-06-01 00:00:00,2022-06-30 00:00:00
531,1,AFG,Afghanistan,False,False,1,AF01,Kabul,2,AF0102,Paghman,667f089f-e183-4afd-8584-6f27f4245acf,political_violence,0,0.0,2022-07-01 00:00:00,2022-07-31 00:00:00
532,1,AFG,Afghanistan,False,False,1,AF01,Kabul,2,AF0102,Paghman,667f089f-e183-4afd-8584-6f27f4245acf,political_violence,0,0.0,2022-08-01 00:00:00,2022-08-31 00:00:00
533,1,AFG,Afghanistan,False,False,1,AF01,Kabul,2,AF0102,Paghman,667f089f-e183-4afd-8584-6f27f4245acf,political_violence,0,0.0,2022-09-01 00:00:00,2022-09-30 00:00:00
534,1,AFG,Afghanistan,False,False,1,AF01,Kabul,2,AF0102,Paghman,667f089f-e183-4afd-8584-6f27f4245acf,political_violence,0,0.0,2022-10-01 00:00:00,2022-10-31 00:00:00
535,1,AFG,Afghanistan,False,False,1,AF01,Kabul,2,AF0102,Paghman,667f089f-e183-4afd-8584-6f27f4245acf,political_violence,0,0.0,2022-11-01 00:00:00,2022-11-30 00:00:00
536,1,AFG,Afghanistan,False,False,1,AF01,Kabul,2,AF0102,Paghman,667f089f-e183-4afd-8584-6f27f4245acf,political_violence,0,0.0,2022-12-01 00:00:00,2022-12-31 00:00:00
537,1,AFG,Afghanistan,False,False,1,AF01,Kabul,2,AF0102,Paghman,667f089f-e183-4afd-8584-6f27f4245acf,political_violence,0,0.0,2023-01-01 00:00:00,2023-01-31 00:00:00
538,1,AFG,Afghanistan,False,False,1,AF01,Kabul,2,AF0102,Paghman,667f089f-e183-4afd-8584-6f27f4245acf,political_violence,0,0.0,2023-02-01 00:00:00,2023-02-28 00:00:00
539,1,AFG,Afghanistan,False,False,1,AF01,Kabul,2,AF0102,Paghman,667f089f-e183-4afd-8584-6f27f4245acf,political_violence,0,0.0,2023-03-01 00:00:00,2023-03-31 00:00:00
540,1,AFG,Afghanistan,False,False,1,AF01,Kabul,2,AF0102,Paghman,667f089f-e183-4afd-8584-6f27f4245acf,political_violence,0,0.0,2023-04-01 00:00:00,2023-04-30 00:00:00
541,1,AFG,Afghanistan,False,False,1,AF01,Kabul,2,AF0102,Paghman,667f089f-e183-4afd-8584-6f27f4245acf,political_violence,0,0.0,2023-05-01 00:00:00,2023-05-31 00:00:00
542,1,AFG,Afghanistan,False,False,1,AF01,Kabul,2,AF0102,Paghman,667f089f-e183-4afd-8584-6f27f4245acf,political_violence,0,0.0,2023-06-01 00:00:00,2023-06-30 00:00:00
543,1,AFG,Afghanistan,False,False,1,AF01,Kabul,2,AF0102,Paghman,667f089f-e183-4afd-8584-6f27f4245acf,political_violence,0,0.0,2023-07-01 00:00:00,2023-07-31 00:00:00
544,1,AFG,Afghanistan,False,False,1,AF01,Kabul,2,AF0102,Paghman,667f089f-e183-4afd-8584-6f27f4245acf,political_violence,0,0.0,2023-08-01 00:00:00,2023-08-31 00:00:00
545,1,AFG,Afghanistan,False,False,1,AF01,Kabul,2,AF0102,Paghman,667f089f-e183-4afd-8584-6f27f4245acf,political_violence,0,0.0,2023-09-01 00:00:00,2023-09-30 00:00:00
546,1,AFG,Afghanistan,False,False,1,AF01,Kabul,2,AF0102,Paghman,667f089f-e183-4afd-8584-6f27f4245acf,political_violence,0,0.0,2023-10-01 00:00:00,2023-10-31 00:00:00
547,1,AFG,Afghanistan,False,False,1,AF01,Kabul,2,AF0102,Paghman,667f089f-e183-4afd-8584-6f27f4245acf,political_violence,0,0.0,2023-11-01 00:00:00,2023-11-30 00:00:00
548,1,AFG,Afghanistan,False,False,1,AF01,Kabul,2,AF0102,Paghman,667f089f-e183-4afd-8584-6f27f4245acf,political_violence,0,0.0,2023-12-01 00:00:00,2023-12-31 00:00:00
549,1,AFG,Afghanistan,False,False,1,AF01,Kabul,2,AF0102,Paghman,667f089f-e183-4afd-8584-6f27f4245acf,political_violence,0,0.0,2024-01-01 00:00:00,2024-01-31 00:00:00
550,1,AFG,Afghanistan,False,False,1,AF01,Kabul,2,AF0102,Paghman,667f089f-e183-4afd-8584-6f27f4245acf,political_violence,0,0.0,2024-02-01 00:00:00,2024-02-29 00:00:00
551,1,AFG,Afghanistan,False,False,1,AF01,Kabul,2,AF0102,Paghman,667f089f-e183-4afd-8584-6f27f4245acf,political_violence,0,0.0,2024-03-01 00:00:00,2024-03-31 00:00:00
552,1,AFG,Afghanistan,False,False,1,AF01,Kabul,2,AF0102,Paghman,667f089f-e183-4afd-8584-6f27f4245acf,political_violence,0,0.0,2024-04-01 00:00:00,2024-04-30 00:00:00
553,1,AFG,Afghanistan,False,False,1,AF01,Kabul,2,AF0102,Paghman,667f089f-e183-4afd-8584-6f27f4245acf,political_violence,0,0.0,2024-05-01 00:00:00,2024-05-31 00:00:00
554,1,AFG,Afghanistan,False,False,1,AF01,Kabul,2,AF0102,Paghman,667f089f-e183-4afd-8584-6f27f4245acf,political_violence,0,0.0,2024-06-01 00:00:00,2024-06-30 00:00:00
555,1,AFG,Afghanistan,False,False,1,AF01,Kabul,2,AF0102,Paghman,667f089f-e183-4afd-8584-6f27f4245acf,political_violence,1,2.0,2024-07-01 00:00:00,2024-07-31 00:00:00
556,1,AFG,Afghanistan,False,False,1,AF01,Kabul,2,AF0102,Paghman,667f089f-e183-4afd-8584-6f27f4245acf,political_violence,0,0.0,2024-08-01 00:00:00,2024-08-31 00:00:00
557,1,AFG,Afghanistan,False,False,1,AF01,Kabul,2,AF0102,Paghman,667f089f-e183-4afd-8584-6f27f4245acf,political_violence,0,0.0,2024-09-01 00:00:00,2024-09-30 00:00:00
558,1,AFG,Afghanistan,False,False,1,AF01,Kabul,3,AF0103,Chahar Asyab,667f089f-e183-4afd-8584-6f27f4245acf,civilian_targeting,0,0.0,2017-01-01 00:00:00,2017-01-31 00:00:00
559,1,AFG,Afghanistan,False,False,1,AF01,Kabul,3,AF0103,Chahar Asyab,667f089f-e183-4afd-8584-6f27f4245acf,civilian_targeting,0,0.0,2017-02-01 00:00:00,2017-02-28 00:00:00
560,1,AFG,Afghanistan,False,False,1,AF01,Kabul,3,AF0103,Chahar Asyab,667f089f-e183-4afd-8584-6f27f4245acf,civilian_targeting,0,0.0,2017-03-01 00:00:00,2017-03-31 00:00:00
561,1,AFG,Afghanistan,False,False,1,AF01,Kabul,3,AF0103,Chahar Asyab,667f089f-e183-4afd-8584-6f27f4245acf,civilian_targeting,0,0.0,2017-04-01 00:00:00,2017-04-30 00:00:00
562,1,AFG,Afghanistan,False,False,1,AF01,Kabul,3,AF0103,Chahar Asyab,667f089f-e183-4afd-8584-6f27f4245acf,civilian_targeting,0,0.0,2017-05-01 00:00:00,2017-05-31 00:00:00
563,1,AFG,Afghanistan,False,False,1,AF01,Kabul,3,AF0103,Chahar Asyab,667f089f-e183-4afd-8584-6f27f4245acf,civilian_targeting,0,0.0,2017-06-01 00:00:00,2017-06-30 00:00:00
564,1,AFG,Afghanistan,False,False,1,AF01,Kabul,3,AF0103,Chahar Asyab,667f089f-e183-4afd-8584-6f27f4245acf,civilian_targeting,0,0.0,2017-07-01 00:00:00,2017-07-31 00:00:00
565,1,AFG,Afghanistan,False,False,1,AF01,Kabul,3,AF0103,Chahar Asyab,667f089f-e183-4afd-8584-6f27f4245acf,civilian_targeting,0,0.0,2017-08-01 00:00:00,2017-08-31 00:00:00
566,1,AFG,Afghanistan,False,False,1,AF01,Kabul,3,AF0103,Chahar Asyab,667f089f-e183-4afd-8584-6f27f4245acf,civilian_targeting,0,0.0,2017-09-01 00:00:00,2017-09-30 00:00:00
567,1,AFG,Afghanistan,False,False,1,AF01,Kabul,3,AF0103,Chahar Asyab,667f089f-e183-4afd-8584-6f27f4245acf,civilian_targeting,0,0.0,2017-10-01 00:00:00,2017-10-31 00:00:00
568,1,AFG,Afghanistan,False,False,1,AF01,Kabul,3,AF0103,Chahar Asyab,667f089f-e183-4afd-8584-6f27f4245acf,civilian_targeting,0,0.0,2017-11-01 00:00:00,2017-11-30 00:00:00
569,1,AFG,Afghanistan,False,False,1,AF01,Kabul,3,AF0103,Chahar Asyab,667f089f-e183-4afd-8584-6f27f4245acf,civilian_targeting,0,0.0,2017-12-01 00:00:00,2017-12-31 00:00:00
570,1,AFG,Afghanistan,False,False,1,AF01,Kabul,3,AF0103,Chahar Asyab,667f089f-e183-4afd-8584-6f27f4245acf,civilian_targeting,0,0.0,2018-01-01 00:00:00,2018-01-31 00:00:00
571,1,AFG,Afghanistan,False,False,1,AF01,Kabul,3,AF0103,Chahar Asyab,667f089f-e183-4afd-8584-6f27f4245acf,civilian_targeting,0,0.0,2018-02-01 00:00:00,2018-02-28 00:00:00
572,1,AFG,Afghanistan,False,False,1,AF01,Kabul,3,AF0103,Chahar Asyab,667f089f-e183-4afd-8584-6f27f4245acf,civilian_targeting,0,0.0,2018-03-01 00:00:00,2018-03-31 00:00:00
573,1,AFG,Afghanistan,False,False,1,AF01,Kabul,3,AF0103,Chahar Asyab,667f089f-e183-4afd-8584-6f27f4245acf,civilian_targeting,0,0.0,2018-04-01 00:00:00,2018-04-30 00:00:00
574,1,AFG,Afghanistan,False,False,1,AF01,Kabul,3,AF0103,Chahar Asyab,667f089f-e183-4afd-8584-6f27f4245acf,civilian_targeting,0,0.0,2018-05-01 00:00:00,2018-05-31 00:00:00
575,1,AFG,Afghanistan,False,False,1,AF01,Kabul,3,AF0103,Chahar Asyab,667f089f-e183-4afd-8584-6f27f4245acf,civilian_targeting,0,0.0,2018-06-01 00:00:00,2018-06-30 00:00:00
576,1,AFG,Afghanistan,False,False,1,AF01,Kabul,3,AF0103,Chahar Asyab,667f089f-e183-4afd-8584-6f27f4245acf,civilian_targeting,0,0.0,2018-07-01 00:00:00,2018-07-31 00:00:00
577,1,AFG,Afghanistan,False,False,1,AF01,Kabul,3,AF0103,Chahar Asyab,667f089f-e183-4afd-8584-6f27f4245acf,civilian_targeting,0,0.0,2018-08-01 00:00:00,2018-08-31 00:00:00
578,1,AFG,Afghanistan,False,False,1,AF01,Kabul,3,AF0103,Chahar Asyab,667f089f-e183-4afd-8584-6f27f4245acf,civilian_targeting,1,0.0,2018-09-01 00:00:00,2018-09-30 00:00:00
579,1,AFG,Afghanistan,False,False,1,AF01,Kabul,3,AF0103,Chahar Asyab,667f089f-e183-4afd-8584-6f27f4245acf,civilian_targeting,1,0.0,2018-10-01 00:00:00,2018-10-31 00:00:00
580,1,AFG,Afghanistan,False,False,1,AF01,Kabul,3,AF0103,Chahar Asyab,667f089f-e183-4afd-8584-6f27f4245acf,civilian_targeting,0,0.0,2018-11-01 00:00:00,2018-11-30 00:00:00
581,1,AFG,Afghanistan,False,False,1,AF01,Kabul,3,AF0103,Chahar Asyab,667f089f-e183-4afd-8584-6f27f4245acf,civilian_targeting,0,0.0,2018-12-01 00:00:00,2018-12-31 00:00:00
582,1,AFG,Afghanistan,False,False,1,AF01,Kabul,3,AF0103,Chahar Asyab,667f089f-e183-4afd-8584-6f27f4245acf,civilian_targeting,0,0.0,2019-01-01 00:00:00,2019-01-31 00:00:00
583,1,AFG,Afghanistan,False,False,1,AF01,Kabul,3,AF0103,Chahar Asyab,667f089f-e183-4afd-8584-6f27f4245acf,civilian_targeting,0,0.0,2019-02-01 00:00:00,2019-02-28 00:00:00
584,1,AFG,Afghanistan,False,False,1,AF01,Kabul,3,AF0103,Chahar Asyab,667f089f-e183-4afd-8584-6f27f4245acf,civilian_targeting,0,0.0,2019-03-01 00:00:00,2019-03-31 00:00:00
585,1,AFG,Afghanistan,False,False,1,AF01,Kabul,3,AF0103,Chahar Asyab,667f089f-e183-4afd-8584-6f27f4245acf,civilian_targeting,1,0.0,2019-04-01 00:00:00,2019-04-30 00:00:00
586,1,AFG,Afghanistan,False,False,1,AF01,Kabul,3,AF0103,Chahar Asyab,667f089f-e183-4afd-8584-6f27f4245acf,civilian_targeting,0,0.0,2019-05-01 00:00:00,2019-05-31 00:00:00
587,1,AFG,Afghanistan,False,False,1,AF01,Kabul,3,AF0103,Chahar Asyab,667f089f-e183-4afd-8584-6f27f4245acf,civilian_targeting,0,0.0,2019-06-01 00:00:00,2019-06-30 00:00:00
588,1,AFG,Afghanistan,False,False,1,AF01,Kabul,3,AF0103,Chahar Asyab,667f089f-e183-4afd-8584-6f27f4245acf,civilian_targeting,0,0.0,2019-07-01 00:00:00,2019-07-31 00:00:00
589,1,AFG,Afghanistan,False,False,1,AF01,Kabul,3,AF0103,Chahar Asyab,667f089f-e183-4afd-8584-6f27f4245acf,civilian_targeting,0,0.0,2019-08-01 00:00:00,2019-08-31 00:00:00
590,1,AFG,Afghanistan,False,False,1,AF01,Kabul,3,AF0103,Chahar Asyab,667f089f-e183-4afd-8584-6f27f4245acf,civilian_targeting,0,0.0,2019-09-01 00:00:00,2019-09-30 00:00:00
591,1,AFG,Afghanistan,False,False,1,AF01,Kabul,3,AF0103,Chahar Asyab,667f089f-e183-4afd-8584-6f27f4245acf,civilian_targeting,0,0.0,2019-10-01 00:00:00,2019-10-31 00:00:00
592,1,AFG,Afghanistan,False,False,1,AF01,Kabul,3,AF0103,Chahar Asyab,667f089f-e183-4afd-8584-6f27f4245acf,civilian_targeting,0,0.0,2019-11-01 00:00:00,2019-11-30 00:00:00
593,1,AFG,Afghanistan,False,False,1,AF01,Kabul,3,AF0103,Chahar Asyab,667f089f-e183-4afd-8584-6f27f4245acf,civilian_targeting,0,0.0,2019-12-01 00:00:00,2019-12-31 00:00:00
594,1,AFG,Afghanistan,False,False,1,AF01,Kabul,3,AF0103,Chahar Asyab,667f089f-e183-4afd-8584-6f27f4245acf,civilian_targeting,0,0.0,2020-01-01 00:00:00,2020-01-31 00:00:00
595,1,AFG,Afghanistan,False,False,1,AF01,Kabul,3,AF0103,Chahar Asyab,667f089f-e183-4afd-8584-6f27f4245acf,civilian_targeting,0,0.0,2020-02-01 00:00:00,2020-02-29 00:00:00
596,1,AFG,Afghanistan,False,False,1,AF01,Kabul,3,AF0103,Chahar Asyab,667f089f-e183-4afd-8584-6f27f4245acf,civilian_targeting,0,0.0,2020-03-01 00:00:00,2020-03-31 00:00:00
597,1,AFG,Afghanistan,False,False,1,AF01,Kabul,3,AF0103,Chahar Asyab,667f089f-e183-4afd-8584-6f27f4245acf,civilian_targeting,1,4.0,2020-04-01 00:00:00,2020-04-30 00:00:00
598,1,AFG,Afghanistan,False,False,1,AF01,Kabul,3,AF0103,Chahar Asyab,667f089f-e183-4afd-8584-6f27f4245acf,civilian_targeting,0,0.0,2020-05-01 00:00:00,2020-05-31 00:00:00
599,1,AFG,Afghanistan,False,False,1,AF01,Kabul,3,AF0103,Chahar Asyab,667f089f-e183-4afd-8584-6f27f4245acf,civilian_targeting,0,0.0,2020-06-01 00:00:00,2020-06-30 00:00:00
600,1,AFG,Afghanistan,False,False,1,AF01,Kabul,3,AF0103,Chahar Asyab,667f089f-e183-4afd-8584-6f27f4245acf,civilian_targeting,1,1.0,2020-07-01 00:00:00,2020-07-31 00:00:00
601,1,AFG,Afghanistan,False,False,1,AF01,Kabul,3,AF0103,Chahar Asyab,667f089f-e183-4afd-8584-6f27f4245acf,civilian_targeting,0,0.0,2020-08-01 00:00:00,2020-08-31 00:00:00
602,1,AFG,Afghanistan,False,False,1,AF01,Kabul,3,AF0103,Chahar Asyab,667f089f-e183-4afd-8584-6f27f4245acf,civilian_targeting,0,0.0,2020-09-01 00:00:00,2020-09-30 00:00:00
603,1,AFG,Afghanistan,False,False,1,AF01,Kabul,3,AF0103,Chahar Asyab,667f089f-e183-4afd-8584-6f27f4245acf,civilian_targeting,0,0.0,2020-10-01 00:00:00,2020-10-31 00:00:00
604,1,AFG,Afghanistan,False,False,1,AF01,Kabul,3,AF0103,Chahar Asyab,667f089f-e183-4afd-8584-6f27f4245acf,civilian_targeting,0,0.0,2020-11-01 00:00:00,2020-11-30 00:00:00
605,1,AFG,Afghanistan,False,False,1,AF01,Kabul,3,AF0103,Chahar Asyab,667f089f-e183-4afd-8584-6f27f4245acf,civilian_targeting,0,0.0,2020-12-01 00:00:00,2020-12-31 00:00:00
606,1,AFG,Afghanistan,False,False,1,AF01,Kabul,3,AF0103,Chahar Asyab,667f089f-e183-4afd-8584-6f27f4245acf,civilian_targeting,0,0.0,2021-01-01 00:00:00,2021-01-31 00:00:00
607,1,AFG,Afghanistan,False,False,1,AF01,Kabul,3,AF0103,Chahar Asyab,667f089f-e183-4afd-8584-6f27f4245acf,civilian_targeting,0,0.0,2021-02-01 00:00:00,2021-02-28 00:00:00
608,1,AFG,Afghanistan,False,False,1,AF01,Kabul,3,AF0103,Chahar Asyab,667f089f-e183-4afd-8584-6f27f4245acf,civilian_targeting,2,10.0,2021-03-01 00:00:00,2021-03-31 00:00:00
609,1,AFG,Afghanistan,False,False,1,AF01,Kabul,3,AF0103,Chahar Asyab,667f089f-e183-4afd-8584-6f27f4245acf,civilian_targeting,0,0.0,2021-04-01 00:00:00,2021-04-30 00:00:00
610,1,AFG,Afghanistan,False,False,1,AF01,Kabul,3,AF0103,Chahar Asyab,667f089f-e183-4afd-8584-6f27f4245acf,civilian_targeting,0,0.0,2021-05-01 00:00:00,2021-05-31 00:00:00
611,1,AFG,Afghanistan,False,False,1,AF01,Kabul,3,AF0103,Chahar Asyab,667f089f-e183-4afd-8584-6f27f4245acf,civilian_targeting,1,6.0,2021-06-01 00:00:00,2021-06-30 00:00:00
612,1,AFG,Afghanistan,False,False,1,AF01,Kabul,3,AF0103,Chahar Asyab,667f089f-e183-4afd-8584-6f27f4245acf,civilian_targeting,0,0.0,2021-07-01 00:00:00,2021-07-31 00:00:00
613,1,AFG,Afghanistan,False,False,1,AF01,Kabul,3,AF0103,Chahar Asyab,667f089f-e183-4afd-8584-6f27f4245acf,civilian_targeting,0,0.0,2021-08-01 00:00:00,2021-08-31 00:00:00
614,1,AFG,Afghanistan,False,False,1,AF01,Kabul,3,AF0103,Chahar Asyab,667f089f-e183-4afd-8584-6f27f4245acf,civilian_targeting,0,0.0,2021-09-01 00:00:00,2021-09-30 00:00:00
615,1,AFG,Afghanistan,False,False,1,AF01,Kabul,3,AF0103,Chahar Asyab,667f089f-e183-4afd-8584-6f27f4245acf,civilian_targeting,0,0.0,2021-10-01 00:00:00,2021-10-31 00:00:00
616,1,AFG,Afghanistan,False,False,1,AF01,Kabul,3,AF0103,Chahar Asyab,667f089f-e183-4afd-8584-6f27f4245acf,civilian_targeting,0,0.0,2021-11-01 00:00:00,2021-11-30 00:00:00
617,1,AFG,Afghanistan,False,False,1,AF01,Kabul,3,AF0103,Chahar Asyab,667f089f-e183-4afd-8584-6f27f4245acf,civilian_targeting,0,0.0,2021-12-01 00:00:00,2021-12-31 00:00:00
618,1,AFG,Afghanistan,False,False,1,AF01,Kabul,3,AF0103,Chahar Asyab,667f089f-e183-4afd-8584-6f27f4245acf,civilian_targeting,0,0.0,2022-01-01 00:00:00,2022-01-31 00:00:00
619,1,AFG,Afghanistan,False,False,1,AF01,Kabul,3,AF0103,Chahar Asyab,667f089f-e183-4afd-8584-6f27f4245acf,civilian_targeting,0,0.0,2022-02-01 00:00:00,2022-02-28 00:00:00
620,1,AFG,Afghanistan,False,False,1,AF01,Kabul,3,AF0103,Chahar Asyab,667f089f-e183-4afd-8584-6f27f4245acf,civilian_targeting,0,0.0,2022-03-01 00:00:00,2022-03-31 00:00:00
621,1,AFG,Afghanistan,False,False,1,AF01,Kabul,3,AF0103,Chahar Asyab,667f089f-e183-4afd-8584-6f27f4245acf,civilian_targeting,0,0.0,2022-04-01 00:00:00,2022-04-30 00:00:00
622,1,AFG,Afghanistan,False,False,1,AF01,Kabul,3,AF0103,Chahar Asyab,667f089f-e183-4afd-8584-6f27f4245acf,civilian_targeting,0,0.0,2022-05-01 00:00:00,2022-05-31 00:00:00
623,1,AFG,Afghanistan,False,False,1,AF01,Kabul,3,AF0103,Chahar Asyab,667f089f-e183-4afd-8584-6f27f4245acf,civilian_targeting,1,1.0,2022-06-01 00:00:00,2022-06-30 00:00:00
624,1,AFG,Afghanistan,False,False,1,AF01,Kabul,3,AF0103,Chahar Asyab,667f089f-e183-4afd-8584-6f27f4245acf,civilian_targeting,0,0.0,2022-07-01 00:00:00,2022-07-31 00:00:00
625,1,AFG,Afghanistan,False,False,1,AF01,Kabul,3,AF0103,Chahar Asyab,667f089f-e183-4afd-8584-6f27f4245acf,civilian_targeting,0,0.0,2022-08-01 00:00:00,2022-08-31 00:00:00
626,1,AFG,Afghanistan,False,False,1,AF01,Kabul,3,AF0103,Chahar Asyab,667f089f-e183-4afd-8584-6f27f4245acf,civilian_targeting,0,0.0,2022-09-01 00:00:00,2022-09-30 00:00:00
627,1,AFG,Afghanistan,False,False,1,AF01,Kabul,3,AF0103,Chahar Asyab,667f089f-e183-4afd-8584-6f27f4245acf,civilian_targeting,0,0.0,2022-10-01 00:00:00,2022-10-31 00:00:00
628,1,AFG,Afghanistan,False,False,1,AF01,Kabul,3,AF0103,Chahar Asyab,667f089f-e183-4afd-8584-6f27f4245acf,civilian_targeting,0,0.0,2022-11-01 00:00:00,2022-11-30 00:00:00
629,1,AFG,Afghanistan,False,False,1,AF01,Kabul,3,AF0103,Chahar Asyab,667f089f-e183-4afd-8584-6f27f4245acf,civilian_targeting,0,0.0,2022-12-01 00:00:00,2022-12-31 00:00:00
630,1,AFG,Afghanistan,False,False,1,AF01,Kabul,3,AF0103,Chahar Asyab,667f089f-e183-4afd-8584-6f27f4245acf,civilian_targeting,0,0.0,2023-01-01 00:00:00,2023-01-31 00:00:00
631,1,AFG,Afghanistan,False,False,1,AF01,Kabul,3,AF0103,Chahar Asyab,667f089f-e183-4afd-8584-6f27f4245acf,civilian_targeting,0,0.0,2023-02-01 00:00:00,2023-02-28 00:00:00
632,1,AFG,Afghanistan,False,False,1,AF01,Kabul,3,AF0103,Chahar Asyab,667f089f-e183-4afd-8584-6f27f4245acf,civilian_targeting,0,0.0,2023-03-01 00:00:00,2023-03-31 00:00:00
633,1,AFG,Afghanistan,False,False,1,AF01,Kabul,3,AF0103,Chahar Asyab,667f089f-e183-4afd-8584-6f27f4245acf,civilian_targeting,0,0.0,2023-04-01 00:00:00,2023-04-30 00:00:00
634,1,AFG,Afghanistan,False,False,1,AF01,Kabul,3,AF0103,Chahar Asyab,667f089f-e183-4afd-8584-6f27f4245acf,civilian_targeting,0,0.0,2023-05-01 00:00:00,2023-05-31 00:00:00
635,1,AFG,Afghanistan,False,False,1,AF01,Kabul,3,AF0103,Chahar Asyab,667f089f-e183-4afd-8584-6f27f4245acf,civilian_targeting,1,1.0,2023-06-01 00:00:00,2023-06-30 00:00:00
636,1,AFG,Afghanistan,False,False,1,AF01,Kabul,3,AF0103,Chahar Asyab,667f089f-e183-4afd-8584-6f27f4245acf,civilian_targeting,0,0.0,2023-07-01 00:00:00,2023-07-31 00:00:00
637,1,AFG,Afghanistan,False,False,1,AF01,Kabul,3,AF0103,Chahar Asyab,667f089f-e183-4afd-8584-6f27f4245acf,civilian_targeting,0,0.0,2023-08-01 00:00:00,2023-08-31 00:00:00
638,1,AFG,Afghanistan,False,False,1,AF01,Kabul,3,AF0103,Chahar Asyab,667f089f-e183-4afd-8584-6f27f4245acf,civilian_targeting,0,0.0,2023-09-01 00:00:00,2023-09-30 00:00:00
639,1,AFG,Afghanistan,False,False,1,AF01,Kabul,3,AF0103,Chahar Asyab,667f089f-e183-4afd-8584-6f27f4245acf,civilian_targeting,0,0.0,2023-10-01 00:00:00,2023-10-31 00:00:00
640,1,AFG,Afghanistan,False,False,1,AF01,Kabul,3,AF0103,Chahar Asyab,667f089f-e183-4afd-8584-6f27f4245acf,civilian_targeting,0,0.0,2023-11-01 00:00:00,2023-11-30 00:00:00
641,1,AFG,Afghanistan,False,False,1,AF01,Kabul,3,AF0103,Chahar Asyab,667f089f-e183-4afd-8584-6f27f4245acf,civilian_targeting,0,0.0,2023-12-01 00:00:00,2023-12-31 00:00:00
642,1,AFG,Afghanistan,False,False,1,AF01,Kabul,3,AF0103,Chahar Asyab,667f089f-e183-4afd-8584-6f27f4245acf,civilian_targeting,0,0.0,2024-01-01 00:00:00,2024-01-31 00:00:00
643,1,AFG,Afghanistan,False,False,1,AF01,Kabul,3,AF0103,Chahar Asyab,667f089f-e183-4afd-8584-6f27f4245acf,civilian_targeting,0,0.0,2024-02-01 00:00:00,2024-02-29 00:00:00
644,1,AFG,Afghanistan,False,False,1,AF01,Kabul,3,AF0103,Chahar Asyab,667f089f-e183-4afd-8584-6f27f4245acf,civilian_targeting,0,0.0,2024-03-01 00:00:00,2024-03-31 00:00:00
645,1,AFG,Afghanistan,False,False,1,AF01,Kabul,3,AF0103,Chahar Asyab,667f089f-e183-4afd-8584-6f27f4245acf,civilian_targeting,0,0.0,2024-04-01 00:00:00,2024-04-30 00:00:00
646,1,AFG,Afghanistan,False,False,1,AF01,Kabul,3,AF0103,Chahar Asyab,667f089f-e183-4afd-8584-6f27f4245acf,civilian_targeting,0,0.0,2024-05-01 00:00:00,2024-05-31 00:00:00
647,1,AFG,Afghanistan,False,False,1,AF01,Kabul,3,AF0103,Chahar Asyab,667f089f-e183-4afd-8584-6f27f4245acf,civilian_targeting,0,0.0,2024-06-01 00:00:00,2024-06-30 00:00:00
648,1,AFG,Afghanistan,False,False,1,AF01,Kabul,3,AF0103,Chahar Asyab,667f089f-e183-4afd-8584-6f27f4245acf,civilian_targeting,0,0.0,2024-07-01 00:00:00,2024-07-31 00:00:00
649,1,AFG,Afghanistan,False,False,1,AF01,Kabul,3,AF0103,Chahar Asyab,667f089f-e183-4afd-8584-6f27f4245acf,civilian_targeting,0,0.0,2024-08-01 00:00:00,2024-08-31 00:00:00
650,1,AFG,Afghanistan,False,False,1,AF01,Kabul,3,AF0103,Chahar Asyab,667f089f-e183-4afd-8584-6f27f4245acf,civilian_targeting,0,0.0,2024-09-01 00:00:00,2024-09-30 00:00:00
651,1,AFG,Afghanistan,False,False,1,AF01,Kabul,3,AF0103,Chahar Asyab,667f089f-e183-4afd-8584-6f27f4245acf,demonstration,0,,2017-01-01 00:00:00,2017-01-31 00:00:00
652,1,AFG,Afghanistan,False,False,1,AF01,Kabul,3,AF0103,Chahar Asyab,667f089f-e183-4afd-8584-6f27f4245acf,demonstration,0,,2017-02-01 00:00:00,2017-02-28 00:00:00
653,1,AFG,Afghanistan,False,False,1,AF01,Kabul,3,AF0103,Chahar Asyab,667f089f-e183-4afd-8584-6f27f4245acf,demonstration,0,,2017-03-01 00:00:00,2017-03-31 00:00:00
654,1,AFG,Afghanistan,False,False,1,AF01,Kabul,3,AF0103,Chahar Asyab,667f089f-e183-4afd-8584-6f27f4245acf,demonstration,0,,2017-04-01 00:00:00,2017-04-30 00:00:00
655,1,AFG,Afghanistan,False,False,1,AF01,Kabul,3,AF0103,Chahar Asyab,667f089f-e183-4afd-8584-6f27f4245acf,demonstration,0,,2017-05-01 00:00:00,2017-05-31 00:00:00
656,1,AFG,Afghanistan,False,False,1,AF01,Kabul,3,AF0103,Chahar Asyab,667f089f-e183-4afd-8584-6f27f4245acf,demonstration,0,,2017-06-01 00:00:00,2017-06-30 00:00:00
657,1,AFG,Afghanistan,False,False,1,AF01,Kabul,3,AF0103,Chahar Asyab,667f089f-e183-4afd-8584-6f27f4245acf,demonstration,0,,2017-07-01 00:00:00,2017-07-31 00:00:00
658,1,AFG,Afghanistan,False,False,1,AF01,Kabul,3,AF0103,Chahar Asyab,667f089f-e183-4afd-8584-6f27f4245acf,demonstration,0,,2017-08-01 00:00:00,2017-08-31 00:00:00
659,1,AFG,Afghanistan,False,False,1,AF01,Kabul,3,AF0103,Chahar Asyab,667f089f-e183-4afd-8584-6f27f4245acf,demonstration,0,,2017-09-01 00:00:00,2017-09-30 00:00:00
660,1,AFG,Afghanistan,False,False,1,AF01,Kabul,3,AF0103,Chahar Asyab,667f089f-e183-4afd-8584-6f27f4245acf,demonstration,0,,2017-10-01 00:00:00,2017-10-31 00:00:00
661,1,AFG,Afghanistan,False,False,1,AF01,Kabul,3,AF0103,Chahar Asyab,667f089f-e183-4afd-8584-6f27f4245acf,demonstration,0,,2017-11-01 00:00:00,2017-11-30 00:00:00
662,1,AFG,Afghanistan,False,False,1,AF01,Kabul,3,AF0103,Chahar Asyab,667f089f-e183-4afd-8584-6f27f4245acf,demonstration,0,,2017-12-01 00:00:00,2017-12-31 00:00:00
663,1,AFG,Afghanistan,False,False,1,AF01,Kabul,3,AF0103,Chahar Asyab,667f089f-e183-4afd-8584-6f27f4245acf,demonstration,0,,2018-01-01 00:00:00,2018-01-31 00:00:00
664,1,AFG,Afghanistan,False,False,1,AF01,Kabul,3,AF0103,Chahar Asyab,667f089f-e183-4afd-8584-6f27f4245acf,demonstration,0,,2018-02-01 00:00:00,2018-02-28 00:00:00
665,1,AFG,Afghanistan,False,False,1,AF01,Kabul,3,AF0103,Chahar Asyab,667f089f-e183-4afd-8584-6f27f4245acf,demonstration,0,,2018-03-01 00:00:00,2018-03-31 00:00:00
666,1,AFG,Afghanistan,False,False,1,AF01,Kabul,3,AF0103,Chahar Asyab,667f089f-e183-4afd-8584-6f27f4245acf,demonstration,0,,2018-04-01 00:00:00,2018-04-30 00:00:00
667,1,AFG,Afghanistan,False,False,1,AF01,Kabul,3,AF0103,Chahar Asyab,667f089f-e183-4afd-8584-6f27f4245acf,demonstration,0,,2018-05-01 00:00:00,2018-05-31 00:00:00
668,1,AFG,Afghanistan,False,False,1,AF01,Kabul,3,AF0103,Chahar Asyab,667f089f-e183-4afd-8584-6f27f4245acf,demonstration,0,,2018-06-01 00:00:00,2018-06-30 00:00:00
669,1,AFG,Afghanistan,False,False,1,AF01,Kabul,3,AF0103,Chahar Asyab,667f089f-e183-4afd-8584-6f27f4245acf,demonstration,0,,2018-07-01 00:00:00,2018-07-31 00:00:00
670,1,AFG,Afghanistan,False,False,1,AF01,Kabul,3,AF0103,Chahar Asyab,667f089f-e183-4afd-8584-6f27f4245acf,demonstration,0,,2018-08-01 00:00:00,2018-08-31 00:00:00
671,1,AFG,Afghanistan,False,False,1,AF01,Kabul,3,AF0103,Chahar Asyab,667f089f-e183-4afd-8584-6f27f4245acf,demonstration,0,,2018-09-01 00:00:00,2018-09-30 00:00:00
672,1,AFG,Afghanistan,False,False,1,AF01,Kabul,3,AF0103,Chahar Asyab,667f089f-e183-4afd-8584-6f27f4245acf,demonstration,0,,2018-10-01 00:00:00,2018-10-31 00:00:00
673,1,AFG,Afghanistan,False,False,1,AF01,Kabul,3,AF0103,Chahar Asyab,667f089f-e183-4afd-8584-6f27f4245acf,demonstration,0,,2018-11-01 00:00:00,2018-11-30 00:00:00
674,1,AFG,Afghanistan,False,False,1,AF01,Kabul,3,AF0103,Chahar Asyab,667f089f-e183-4afd-8584-6f27f4245acf,demonstration,0,,2018-12-01 00:00:00,2018-12-31 00:00:00
675,1,AFG,Afghanistan,False,False,1,AF01,Kabul,3,AF0103,Chahar Asyab,667f089f-e183-4afd-8584-6f27f4245acf,demonstration,0,,2019-01-01 00:00:00,2019-01-31 00:00:00
676,1,AFG,Afghanistan,False,False,1,AF01,Kabul,3,AF0103,Chahar Asyab,667f089f-e183-4afd-8584-6f27f4245acf,demonstration,0,,2019-02-01 00:00:00,2019-02-28 00:00:00
677,1,AFG,Afghanistan,False,False,1,AF01,Kabul,3,AF0103,Chahar Asyab,667f089f-e183-4afd-8584-6f27f4245acf,demonstration,0,,2019-03-01 00:00:00,2019-03-31 00:00:00
678,1,AFG,Afghanistan,False,False,1,AF01,Kabul,3,AF0103,Chahar Asyab,667f089f-e183-4afd-8584-6f27f4245acf,demonstration,0,,2019-04-01 00:00:00,2019-04-30 00:00:00
679,1,AFG,Afghanistan,False,False,1,AF01,Kabul,3,AF0103,Chahar Asyab,667f089f-e183-4afd-8584-6f27f4245acf,demonstration,0,,2019-05-01 00:00:00,2019-05-31 00:00:00
680,1,AFG,Afghanistan,False,False,1,AF01,Kabul,3,AF0103,Chahar Asyab,667f089f-e183-4afd-8584-6f27f4245acf,demonstration,0,,2019-06-01 00:00:00,2019-06-30 00:00:00
681,1,AFG,Afghanistan,False,False,1,AF01,Kabul,3,AF0103,Chahar Asyab,667f089f-e183-4afd-8584-6f27f4245acf,demonstration,0,,2019-07-01 00:00:00,2019-07-31 00:00:00
682,1,AFG,Afghanistan,False,False,1,AF01,Kabul,3,AF0103,Chahar Asyab,667f089f-e183-4afd-8584-6f27f4245acf,demonstration,0,,2019-08-01 00:00:00,2019-08-31 00:00:00
683,1,AFG,Afghanistan,False,False,1,AF01,Kabul,3,AF0103,Chahar Asyab,667f089f-e183-4afd-8584-6f27f4245acf,demonstration,0,,2019-09-01 00:00:00,2019-09-30 00:00:00
684,1,AFG,Afghanistan,False,False,1,AF01,Kabul,3,AF0103,Chahar Asyab,667f089f-e183-4afd-8584-6f27f4245acf,demonstration,0,,2019-10-01 00:00:00,2019-10-31 00:00:00
685,1,AFG,Afghanistan,False,False,1,AF01,Kabul,3,AF0103,Chahar Asyab,667f089f-e183-4afd-8584-6f27f4245acf,demonstration,0,,2019-11-01 00:00:00,2019-11-30 00:00:00
686,1,AFG,Afghanistan,False,False,1,AF01,Kabul,3,AF0103,Chahar Asyab,667f089f-e183-4afd-8584-6f27f4245acf,demonstration,0,,2019-12-01 00:00:00,2019-12-31 00:00:00
687,1,AFG,Afghanistan,False,False,1,AF01,Kabul,3,AF0103,Chahar Asyab,667f089f-e183-4afd-8584-6f27f4245acf,demonstration,0,,2020-01-01 00:00:00,2020-01-31 00:00:00
688,1,AFG,Afghanistan,False,False,1,AF01,Kabul,3,AF0103,Chahar Asyab,667f089f-e183-4afd-8584-6f27f4245acf,demonstration,0,,2020-02-01 00:00:00,2020-02-29 00:00:00
689,1,AFG,Afghanistan,False,False,1,AF01,Kabul,3,AF0103,Chahar Asyab,667f089f-e183-4afd-8584-6f27f4245acf,demonstration,0,,2020-03-01 00:00:00,2020-03-31 00:00:00
690,1,AFG,Afghanistan,False,False,1,AF01,Kabul,3,AF0103,Chahar Asyab,667f089f-e183-4afd-8584-6f27f4245acf,demonstration,0,,2020-04-01 00:00:00,2020-04-30 00:00:00
691,1,AFG,Afghanistan,False,False,1,AF01,Kabul,3,AF0103,Chahar Asyab,667f089f-e183-4afd-8584-6f27f4245acf,demonstration,0,,2020-05-01 00:00:00,2020-05-31 00:00:00
692,1,AFG,Afghanistan,False,False,1,AF01,Kabul,3,AF0103,Chahar Asyab,667f089f-e183-4afd-8584-6f27f4245acf,demonstration,0,,2020-06-01 00:00:00,2020-06-30 00:00:00
693,1,AFG,Afghanistan,False,False,1,AF01,Kabul,3,AF0103,Chahar Asyab,667f089f-e183-4afd-8584-6f27f4245acf,demonstration,0,,2020-07-01 00:00:00,2020-07-31 00:00:00
694,1,AFG,Afghanistan,False,False,1,AF01,Kabul,3,AF0103,Chahar Asyab,667f089f-e183-4afd-8584-6f27f4245acf,demonstration,0,,2020-08-01 00:00:00,2020-08-31 00:00:00
695,1,AFG,Afghanistan,False,False,1,AF01,Kabul,3,AF0103,Chahar Asyab,667f089f-e183-4afd-8584-6f27f4245acf,demonstration,0,,2020-09-01 00:00:00,2020-09-30 00:00:00
696,1,AFG,Afghanistan,False,False,1,AF01,Kabul,3,AF0103,Chahar Asyab,667f089f-e183-4afd-8584-6f27f4245acf,demonstration,0,,2020-10-01 00:00:00,2020-10-31 00:00:00
697,1,AFG,Afghanistan,False,False,1,AF01,Kabul,3,AF0103,Chahar Asyab,667f089f-e183-4afd-8584-6f27f4245acf,demonstration,0,,2020-11-01 00:00:00,2020-11-30 00:00:00
698,1,AFG,Afghanistan,False,False,1,AF01,Kabul,3,AF0103,Chahar Asyab,667f089f-e183-4afd-8584-6f27f4245acf,demonstration,0,,2020-12-01 00:00:00,2020-12-31 00:00:00
699,1,AFG,Afghanistan,False,False,1,AF01,Kabul,3,AF0103,Chahar Asyab,667f089f-e183-4afd-8584-6f27f4245acf,demonstration,0,,2021-01-01 00:00:00,2021-01-31 00:00:00
700,1,AFG,Afghanistan,False,False,1,AF01,Kabul,3,AF0103,Chahar Asyab,667f089f-e183-4afd-8584-6f27f4245acf,demonstration,0,,2021-02-01 00:00:00,2021-02-28 00:00:00
701,1,AFG,Afghanistan,False,False,1,AF01,Kabul,3,AF0103,Chahar Asyab,667f089f-e183-4afd-8584-6f27f4245acf,demonstration,0,,2021-03-01 00:00:00,2021-03-31 00:00:00
702,1,AFG,Afghanistan,False,False,1,AF01,Kabul,3,AF0103,Chahar Asyab,667f089f-e183-4afd-8584-6f27f4245acf,demonstration,0,,2021-04-01 00:00:00,2021-04-30 00:00:00
703,1,AFG,Afghanistan,False,False,1,AF01,Kabul,3,AF0103,Chahar Asyab,667f089f-e183-4afd-8584-6f27f4245acf,demonstration,0,,2021-05-01 00:00:00,2021-05-31 00:00:00
704,1,AFG,Afghanistan,False,False,1,AF01,Kabul,3,AF0103,Chahar Asyab,667f089f-e183-4afd-8584-6f27f4245acf,demonstration,0,,2021-06-01 00:00:00,2021-06-30 00:00:00
705,1,AFG,Afghanistan,False,False,1,AF01,Kabul,3,AF0103,Chahar Asyab,667f089f-e183-4afd-8584-6f27f4245acf,demonstration,0,,2021-07-01 00:00:00,2021-07-31 00:00:00
706,1,AFG,Afghanistan,False,False,1,AF01,Kabul,3,AF0103,Chahar Asyab,667f089f-e183-4afd-8584-6f27f4245acf,demonstration,0,,2021-08-01 00:00:00,2021-08-31 00:00:00
707,1,AFG,Afghanistan,False,False,1,AF01,Kabul,3,AF0103,Chahar Asyab,667f089f-e183-4afd-8584-6f27f4245acf,demonstration,0,,2021-09-01 00:00:00,2021-09-30 00:00:00
708,1,AFG,Afghanistan,False,False,1,AF01,Kabul,3,AF0103,Chahar Asyab,667f089f-e183-4afd-8584-6f27f4245acf,demonstration,0,,2021-10-01 00:00:00,2021-10-31 00:00:00
709,1,AFG,Afghanistan,False,False,1,AF01,Kabul,3,AF0103,Chahar Asyab,667f089f-e183-4afd-8584-6f27f4245acf,demonstration,0,,2021-11-01 00:00:00,2021-11-30 00:00:00
710,1,AFG,Afghanistan,False,False,1,AF01,Kabul,3,AF0103,Chahar Asyab,667f089f-e183-4afd-8584-6f27f4245acf,demonstration,0,,2021-12-01 00:00:00,2021-12-31 00:00:00
711,1,AFG,Afghanistan,False,False,1,AF01,Kabul,3,AF0103,Chahar Asyab,667f089f-e183-4afd-8584-6f27f4245acf,demonstration,0,,2022-01-01 00:00:00,2022-01-31 00:00:00
712,1,AFG,Afghanistan,False,False,1,AF01,Kabul,3,AF0103,Chahar Asyab,667f089f-e183-4afd-8584-6f27f4245acf,demonstration,0,,2022-02-01 00:00:00,2022-02-28 00:00:00
713,1,AFG,Afghanistan,False,False,1,AF01,Kabul,3,AF0103,Chahar Asyab,667f089f-e183-4afd-8584-6f27f4245acf,demonstration,0,,2022-03-01 00:00:00,2022-03-31 00:00:00
714,1,AFG,Afghanistan,False,False,1,AF01,Kabul,3,AF0103,Chahar Asyab,667f089f-e183-4afd-8584-6f27f4245acf,demonstration,0,,2022-04-01 00:00:00,2022-04-30 00:00:00
715,1,AFG,Afghanistan,False,False,1,AF01,Kabul,3,AF0103,Chahar Asyab,667f089f-e183-4afd-8584-6f27f4245acf,demonstration,0,,2022-05-01 00:00:00,2022-05-31 00:00:00
716,1,AFG,Afghanistan,False,False,1,AF01,Kabul,3,AF0103,Chahar Asyab,667f089f-e183-4afd-8584-6f27f4245acf,demonstration,0,,2022-06-01 00:00:00,2022-06-30 00:00:00
717,1,AFG,Afghanistan,False,False,1,AF01,Kabul,3,AF0103,Chahar Asyab,667f089f-e183-4afd-8584-6f27f4245acf,demonstration,0,,2022-07-01 00:00:00,2022-07-31 00:00:00
718,1,AFG,Afghanistan,False,False,1,AF01,Kabul,3,AF0103,Chahar Asyab,667f089f-e183-4afd-8584-6f27f4245acf,demonstration,0,,2022-08-01 00:00:00,2022-08-31 00:00:00
719,1,AFG,Afghanistan,False,False,1,AF01,Kabul,3,AF0103,Chahar Asyab,667f089f-e183-4afd-8584-6f27f4245acf,demonstration,0,,2022-09-01 00:00:00,2022-09-30 00:00:00
720,1,AFG,Afghanistan,False,False,1,AF01,Kabul,3,AF0103,Chahar Asyab,667f089f-e183-4afd-8584-6f27f4245acf,demonstration,0,,2022-10-01 00:00:00,2022-10-31 00:00:00
721,1,AFG,Afghanistan,False,False,1,AF01,Kabul,3,AF0103,Chahar Asyab,667f089f-e183-4afd-8584-6f27f4245acf,demonstration,0,,2022-11-01 00:00:00,2022-11-30 00:00:00
722,1,AFG,Afghanistan,False,False,1,AF01,Kabul,3,AF0103,Chahar Asyab,667f089f-e183-4afd-8584-6f27f4245acf,demonstration,0,,2022-12-01 00:00:00,2022-12-31 00:00:00
723,1,AFG,Afghanistan,False,False,1,AF01,Kabul,3,AF0103,Chahar Asyab,667f089f-e183-4afd-8584-6f27f4245acf,demonstration,0,,2023-01-01 00:00:00,2023-01-31 00:00:00
724,1,AFG,Afghanistan,False,False,1,AF01,Kabul,3,AF0103,Chahar Asyab,667f089f-e183-4afd-8584-6f27f4245acf,demonstration,0,,2023-02-01 00:00:00,2023-02-28 00:00:00
725,1,AFG,Afghanistan,False,False,1,AF01,Kabul,3,AF0103,Chahar Asyab,667f089f-e183-4afd-8584-6f27f4245acf,demonstration,0,,2023-03-01 00:00:00,2023-03-31 00:00:00
726,1,AFG,Afghanistan,False,False,1,AF01,Kabul,3,AF0103,Chahar Asyab,667f089f-e183-4afd-8584-6f27f4245acf,demonstration,0,,2023-04-01 00:00:00,2023-04-30 00:00:00
727,1,AFG,Afghanistan,False,False,1,AF01,Kabul,3,AF0103,Chahar Asyab,667f089f-e183-4afd-8584-6f27f4245acf,demonstration,0,,2023-05-01 00:00:00,2023-05-31 00:00:00
728,1,AFG,Afghanistan,False,False,1,AF01,Kabul,3,AF0103,Chahar Asyab,667f089f-e183-4afd-8584-6f27f4245acf,demonstration,1,,2023-06-01 00:00:00,2023-06-30 00:00:00
729,1,AFG,Afghanistan,False,False,1,AF01,Kabul,3,AF0103,Chahar Asyab,667f089f-e183-4afd-8584-6f27f4245acf,demonstration,0,,2023-07-01 00:00:00,2023-07-31 00:00:00
730,1,AFG,Afghanistan,False,False,1,AF01,Kabul,3,AF0103,Chahar Asyab,667f089f-e183-4afd-8584-6f27f4245acf,demonstration,0,,2023-08-01 00:00:00,2023-08-31 00:00:00
731,1,AFG,Afghanistan,False,False,1,AF01,Kabul,3,AF0103,Chahar Asyab,667f089f-e183-4afd-8584-6f27f4245acf,demonstration,0,,2023-09-01 00:00:00,2023-09-30 00:00:00
732,1,AFG,Afghanistan,False,False,1,AF01,Kabul,3,AF0103,Chahar Asyab,667f089f-e183-4afd-8584-6f27f4245acf,demonstration,0,,2023-10-01 00:00:00,2023-10-31 00:00:00
733,1,AFG,Afghanistan,False,False,1,AF01,Kabul,3,AF0103,Chahar Asyab,667f089f-e183-4afd-8584-6f27f4245acf,demonstration,0,,2023-11-01 00:00:00,2023-11-30 00:00:00
734,1,AFG,Afghanistan,False,False,1,AF01,Kabul,3,AF0103,Chahar Asyab,667f089f-e183-4afd-8584-6f27f4245acf,demonstration,0,,2023-12-01 00:00:00,2023-12-31 00:00:00
735,1,AFG,Afghanistan,False,False,1,AF01,Kabul,3,AF0103,Chahar Asyab,667f089f-e183-4afd-8584-6f27f4245acf,demonstration,0,,2024-01-01 00:00:00,2024-01-31 00:00:00
736,1,AFG,Afghanistan,False,False,1,AF01,Kabul,3,AF0103,Chahar Asyab,667f089f-e183-4afd-8584-6f27f4245acf,demonstration,0,,2024-02-01 00:00:00,2024-02-29 00:00:00
737,1,AFG,Afghanistan,False,False,1,AF01,Kabul,3,AF0103,Chahar Asyab,667f089f-e183-4afd-8584-6f27f4245acf,demonstration,0,,2024-03-01 00:00:00,2024-03-31 00:00:00
738,1,AFG,Afghanistan,False,False,1,AF01,Kabul,3,AF0103,Chahar Asyab,667f089f-e183-4afd-8584-6f27f4245acf,demonstration,0,,2024-04-01 00:00:00,2024-04-30 00:00:00
739,1,AFG,Afghanistan,False,False,1,AF01,Kabul,3,AF0103,Chahar Asyab,667f089f-e183-4afd-8584-6f27f4245acf,demonstration,0,,2024-05-01 00:00:00,2024-05-31 00:00:00
740,1,AFG,Afghanistan,False,False,1,AF01,Kabul,3,AF0103,Chahar Asyab,667f089f-e183-4afd-8584-6f27f4245acf,demonstration,0,,2024-06-01 00:00:00,2024-06-30 00:00:00
741,1,AFG,Afghanistan,False,False,1,AF01,Kabul,3,AF0103,Chahar Asyab,667f089f-e183-4afd-8584-6f27f4245acf,demonstration,0,,2024-07-01 00:00:00,2024-07-31 00:00:00
742,1,AFG,Afghanistan,False,False,1,AF01,Kabul,3,AF0103,Chahar Asyab,667f089f-e183-4afd-8584-6f27f4245acf,demonstration,0,,2024-08-01 00:00:00,2024-08-31 00:00:00
743,1,AFG,Afghanistan,False,False,1,AF01,Kabul,3,AF0103,Chahar Asyab,667f089f-e183-4afd-8584-6f27f4245acf,demonstration,0,,2024-09-01 00:00:00,2024-09-30 00:00:00
744,1,AFG,Afghanistan,False,False,1,AF01,Kabul,3,AF0103,Chahar Asyab,667f089f-e183-4afd-8584-6f27f4245acf,political_violence,0,0.0,2017-01-01 00:00:00,2017-01-31 00:00:00
745,1,AFG,Afghanistan,False,False,1,AF01,Kabul,3,AF0103,Chahar Asyab,667f089f-e183-4afd-8584-6f27f4245acf,political_violence,0,0.0,2017-02-01 00:00:00,2017-02-28 00:00:00
746,1,AFG,Afghanistan,False,False,1,AF01,Kabul,3,AF0103,Chahar Asyab,667f089f-e183-4afd-8584-6f27f4245acf,political_violence,0,0.0,2017-03-01 00:00:00,2017-03-31 00:00:00
747,1,AFG,Afghanistan,False,False,1,AF01,Kabul,3,AF0103,Chahar Asyab,667f089f-e183-4afd-8584-6f27f4245acf,political_violence,0,0.0,2017-04-01 00:00:00,2017-04-30 00:00:00
748,1,AFG,Afghanistan,False,False,1,AF01,Kabul,3,AF0103,Chahar Asyab,667f089f-e183-4afd-8584-6f27f4245acf,political_violence,0,0.0,2017-05-01 00:00:00,2017-05-31 00:00:00
749,1,AFG,Afghanistan,False,False,1,AF01,Kabul,3,AF0103,Chahar Asyab,667f089f-e183-4afd-8584-6f27f4245acf,political_violence,2,0.0,2017-06-01 00:00:00,2017-06-30 00:00:00
750,1,AFG,Afghanistan,False,False,1,AF01,Kabul,3,AF0103,Chahar Asyab,667f089f-e183-4afd-8584-6f27f4245acf,political_violence,4,0.0,2017-07-01 00:00:00,2017-07-31 00:00:00
751,1,AFG,Afghanistan,False,False,1,AF01,Kabul,3,AF0103,Chahar Asyab,667f089f-e183-4afd-8584-6f27f4245acf,political_violence,1,0.0,2017-08-01 00:00:00,2017-08-31 00:00:00
752,1,AFG,Afghanistan,False,False,1,AF01,Kabul,3,AF0103,Chahar Asyab,667f089f-e183-4afd-8584-6f27f4245acf,political_violence,2,0.0,2017-09-01 00:00:00,2017-09-30 00:00:00
753,1,AFG,Afghanistan,False,False,1,AF01,Kabul,3,AF0103,Chahar Asyab,667f089f-e183-4afd-8584-6f27f4245acf,political_violence,1,0.0,2017-10-01 00:00:00,2017-10-31 00:00:00
754,1,AFG,Afghanistan,False,False,1,AF01,Kabul,3,AF0103,Chahar Asyab,667f089f-e183-4afd-8584-6f27f4245acf,political_violence,0,0.0,2017-11-01 00:00:00,2017-11-30 00:00:00
755,1,AFG,Afghanistan,False,False,1,AF01,Kabul,3,AF0103,Chahar Asyab,667f089f-e183-4afd-8584-6f27f4245acf,political_violence,0,0.0,2017-12-01 00:00:00,2017-12-31 00:00:00
756,1,AFG,Afghanistan,False,False,1,AF01,Kabul,3,AF0103,Chahar Asyab,667f089f-e183-4afd-8584-6f27f4245acf,political_violence,0,0.0,2018-01-01 00:00:00,2018-01-31 00:00:00
757,1,AFG,Afghanistan,False,False,1,AF01,Kabul,3,AF0103,Chahar Asyab,667f089f-e183-4afd-8584-6f27f4245acf,political_violence,0,0.0,2018-02-01 00:00:00,2018-02-28 00:00:00
758,1,AFG,Afghanistan,False,False,1,AF01,Kabul,3,AF0103,Chahar Asyab,667f089f-e183-4afd-8584-6f27f4245acf,political_violence,0,0.0,2018-03-01 00:00:00,2018-03-31 00:00:00
759,1,AFG,Afghanistan,False,False,1,AF01,Kabul,3,AF0103,Chahar Asyab,667f089f-e183-4afd-8584-6f27f4245acf,political_violence,0,0.0,2018-04-01 00:00:00,2018-04-30 00:00:00
760,1,AFG,Afghanistan,False,False,1,AF01,Kabul,3,AF0103,Chahar Asyab,667f089f-e183-4afd-8584-6f27f4245acf,political_violence,1,0.0,2018-05-01 00:00:00,2018-05-31 00:00:00
761,1,AFG,Afghanistan,False,False,1,AF01,Kabul,3,AF0103,Chahar Asyab,667f089f-e183-4afd-8584-6f27f4245acf,political_violence,1,0.0,2018-06-01 00:00:00,2018-06-30 00:00:00
762,1,AFG,Afghanistan,False,False,1,AF01,Kabul,3,AF0103,Chahar Asyab,667f089f-e183-4afd-8584-6f27f4245acf,political_violence,3,3.0,2018-07-01 00:00:00,2018-07-31 00:00:00
763,1,AFG,Afghanistan,False,False,1,AF01,Kabul,3,AF0103,Chahar Asyab,667f089f-e183-4afd-8584-6f27f4245acf,political_violence,1,0.0,2018-08-01 00:00:00,2018-08-31 00:00:00
764,1,AFG,Afghanistan,False,False,1,AF01,Kabul,3,AF0103,Chahar Asyab,667f089f-e183-4afd-8584-6f27f4245acf,political_violence,1,0.0,2018-09-01 00:00:00,2018-09-30 00:00:00
765,1,AFG,Afghanistan,False,False,1,AF01,Kabul,3,AF0103,Chahar Asyab,667f089f-e183-4afd-8584-6f27f4245acf,political_violence,1,0.0,2018-10-01 00:00:00,2018-10-31 00:00:00
766,1,AFG,Afghanistan,False,False,1,AF01,Kabul,3,AF0103,Chahar Asyab,667f089f-e183-4afd-8584-6f27f4245acf,political_violence,0,0.0,2018-11-01 00:00:00,2018-11-30 00:00:00
767,1,AFG,Afghanistan,False,False,1,AF01,Kabul,3,AF0103,Chahar Asyab,667f089f-e183-4afd-8584-6f27f4245acf,political_violence,0,0.0,2018-12-01 00:00:00,2018-12-31 00:00:00
768,1,AFG,Afghanistan,False,False,1,AF01,Kabul,3,AF0103,Chahar Asyab,667f089f-e183-4afd-8584-6f27f4245acf,political_violence,0,0.0,2019-01-01 00:00:00,2019-01-31 00:00:00
769,1,AFG,Afghanistan,False,False,1,AF01,Kabul,3,AF0103,Chahar Asyab,667f089f-e183-4afd-8584-6f27f4245acf,political_violence,0,0.0,2019-02-01 00:00:00,2019-02-28 00:00:00
770,1,AFG,Afghanistan,False,False,1,AF01,Kabul,3,AF0103,Chahar Asyab,667f089f-e183-4afd-8584-6f27f4245acf,political_violence,0,0.0,2019-03-01 00:00:00,2019-03-31 00:00:00
771,1,AFG,Afghanistan,False,False,1,AF01,Kabul,3,AF0103,Chahar Asyab,667f089f-e183-4afd-8584-6f27f4245acf,political_violence,2,0.0,2019-04-01 00:00:00,2019-04-30 00:00:00
772,1,AFG,Afghanistan,False,False,1,AF01,Kabul,3,AF0103,Chahar Asyab,667f089f-e183-4afd-8584-6f27f4245acf,political_violence,0,0.0,2019-05-01 00:00:00,2019-05-31 00:00:00
773,1,AFG,Afghanistan,False,False,1,AF01,Kabul,3,AF0103,Chahar Asyab,667f089f-e183-4afd-8584-6f27f4245acf,political_violence,0,0.0,2019-06-01 00:00:00,2019-06-30 00:00:00
774,1,AFG,Afghanistan,False,False,1,AF01,Kabul,3,AF0103,Chahar Asyab,667f089f-e183-4afd-8584-6f27f4245acf,political_violence,0,0.0,2019-07-01 00:00:00,2019-07-31 00:00:00
775,1,AFG,Afghanistan,False,False,1,AF01,Kabul,3,AF0103,Chahar Asyab,667f089f-e183-4afd-8584-6f27f4245acf,political_violence,1,1.0,2019-08-01 00:00:00,2019-08-31 00:00:00
776,1,AFG,Afghanistan,False,False,1,AF01,Kabul,3,AF0103,Chahar Asyab,667f089f-e183-4afd-8584-6f27f4245acf,political_violence,4,5.0,2019-09-01 00:00:00,2019-09-30 00:00:00
777,1,AFG,Afghanistan,False,False,1,AF01,Kabul,3,AF0103,Chahar Asyab,667f089f-e183-4afd-8584-6f27f4245acf,political_violence,0,0.0,2019-10-01 00:00:00,2019-10-31 00:00:00
778,1,AFG,Afghanistan,False,False,1,AF01,Kabul,3,AF0103,Chahar Asyab,667f089f-e183-4afd-8584-6f27f4245acf,political_violence,1,0.0,2019-11-01 00:00:00,2019-11-30 00:00:00
779,1,AFG,Afghanistan,False,False,1,AF01,Kabul,3,AF0103,Chahar Asyab,667f089f-e183-4afd-8584-6f27f4245acf,political_violence,0,0.0,2019-12-01 00:00:00,2019-12-31 00:00:00
780,1,AFG,Afghanistan,False,False,1,AF01,Kabul,3,AF0103,Chahar Asyab,667f089f-e183-4afd-8584-6f27f4245acf,political_violence,0,0.0,2020-01-01 00:00:00,2020-01-31 00:00:00
781,1,AFG,Afghanistan,False,False,1,AF01,Kabul,3,AF0103,Chahar Asyab,667f089f-e183-4afd-8584-6f27f4245acf,political_violence,0,0.0,2020-02-01 00:00:00,2020-02-29 00:00:00
782,1,AFG,Afghanistan,False,False,1,AF01,Kabul,3,AF0103,Chahar Asyab,667f089f-e183-4afd-8584-6f27f4245acf,political_violence,0,0.0,2020-03-01 00:00:00,2020-03-31 00:00:00
783,1,AFG,Afghanistan,False,False,1,AF01,Kabul,3,AF0103,Chahar Asyab,667f089f-e183-4afd-8584-6f27f4245acf,political_violence,1,4.0,2020-04-01 00:00:00,2020-04-30 00:00:00
784,1,AFG,Afghanistan,False,False,1,AF01,Kabul,3,AF0103,Chahar Asyab,667f089f-e183-4afd-8584-6f27f4245acf,political_violence,2,2.0,2020-05-01 00:00:00,2020-05-31 00:00:00
785,1,AFG,Afghanistan,False,False,1,AF01,Kabul,3,AF0103,Chahar Asyab,667f089f-e183-4afd-8584-6f27f4245acf,political_violence,0,0.0,2020-06-01 00:00:00,2020-06-30 00:00:00
786,1,AFG,Afghanistan,False,False,1,AF01,Kabul,3,AF0103,Chahar Asyab,667f089f-e183-4afd-8584-6f27f4245acf,political_violence,1,1.0,2020-07-01 00:00:00,2020-07-31 00:00:00
787,1,AFG,Afghanistan,False,False,1,AF01,Kabul,3,AF0103,Chahar Asyab,667f089f-e183-4afd-8584-6f27f4245acf,political_violence,0,0.0,2020-08-01 00:00:00,2020-08-31 00:00:00
788,1,AFG,Afghanistan,False,False,1,AF01,Kabul,3,AF0103,Chahar Asyab,667f089f-e183-4afd-8584-6f27f4245acf,political_violence,0,0.0,2020-09-01 00:00:00,2020-09-30 00:00:00
789,1,AFG,Afghanistan,False,False,1,AF01,Kabul,3,AF0103,Chahar Asyab,667f089f-e183-4afd-8584-6f27f4245acf,political_violence,0,0.0,2020-10-01 00:00:00,2020-10-31 00:00:00
790,1,AFG,Afghanistan,False,False,1,AF01,Kabul,3,AF0103,Chahar Asyab,667f089f-e183-4afd-8584-6f27f4245acf,political_violence,0,0.0,2020-11-01 00:00:00,2020-11-30 00:00:00
791,1,AFG,Afghanistan,False,False,1,AF01,Kabul,3,AF0103,Chahar Asyab,667f089f-e183-4afd-8584-6f27f4245acf,political_violence,1,0.0,2020-12-01 00:00:00,2020-12-31 00:00:00
792,1,AFG,Afghanistan,False,False,1,AF01,Kabul,3,AF0103,Chahar Asyab,667f089f-e183-4afd-8584-6f27f4245acf,political_violence,0,0.0,2021-01-01 00:00:00,2021-01-31 00:00:00
793,1,AFG,Afghanistan,False,False,1,AF01,Kabul,3,AF0103,Chahar Asyab,667f089f-e183-4afd-8584-6f27f4245acf,political_violence,0,0.0,2021-02-01 00:00:00,2021-02-28 00:00:00
794,1,AFG,Afghanistan,False,False,1,AF01,Kabul,3,AF0103,Chahar Asyab,667f089f-e183-4afd-8584-6f27f4245acf,political_violence,2,10.0,2021-03-01 00:00:00,2021-03-31 00:00:00
795,1,AFG,Afghanistan,False,False,1,AF01,Kabul,3,AF0103,Chahar Asyab,667f089f-e183-4afd-8584-6f27f4245acf,political_violence,1,0.0,2021-04-01 00:00:00,2021-04-30 00:00:00
796,1,AFG,Afghanistan,False,False,1,AF01,Kabul,3,AF0103,Chahar Asyab,667f089f-e183-4afd-8584-6f27f4245acf,political_violence,2,5.0,2021-05-01 00:00:00,2021-05-31 00:00:00
797,1,AFG,Afghanistan,False,False,1,AF01,Kabul,3,AF0103,Chahar Asyab,667f089f-e183-4afd-8584-6f27f4245acf,political_violence,1,6.0,2021-06-01 00:00:00,2021-06-30 00:00:00
798,1,AFG,Afghanistan,False,False,1,AF01,Kabul,3,AF0103,Chahar Asyab,667f089f-e183-4afd-8584-6f27f4245acf,political_violence,0,0.0,2021-07-01 00:00:00,2021-07-31 00:00:00
799,1,AFG,Afghanistan,False,False,1,AF01,Kabul,3,AF0103,Chahar Asyab,667f089f-e183-4afd-8584-6f27f4245acf,political_violence,1,1.0,2021-08-01 00:00:00,2021-08-31 00:00:00
800,1,AFG,Afghanistan,False,False,1,AF01,Kabul,3,AF0103,Chahar Asyab,667f089f-e183-4afd-8584-6f27f4245acf,political_violence,0,0.0,2021-09-01 00:00:00,2021-09-30 00:00:00
801,1,AFG,Afghanistan,False,False,1,AF01,Kabul,3,AF0103,Chahar Asyab,667f089f-e183-4afd-8584-6f27f4245acf,political_violence,0,0.0,2021-10-01 00:00:00,2021-10-31 00:00:00
802,1,AFG,Afghanistan,False,False,1,AF01,Kabul,3,AF0103,Chahar Asyab,667f089f-e183-4afd-8584-6f27f4245acf,political_violence,0,0.0,2021-11-01 00:00:00,2021-11-30 00:00:00
803,1,AFG,Afghanistan,False,False,1,AF01,Kabul,3,AF0103,Chahar Asyab,667f089f-e183-4afd-8584-6f27f4245acf,political_violence,0,0.0,2021-12-01 00:00:00,2021-12-31 00:00:00
804,1,AFG,Afghanistan,False,False,1,AF01,Kabul,3,AF0103,Chahar Asyab,667f089f-e183-4afd-8584-6f27f4245acf,political_violence,0,0.0,2022-01-01 00:00:00,2022-01-31 00:00:00
805,1,AFG,Afghanistan,False,False,1,AF01,Kabul,3,AF0103,Chahar Asyab,667f089f-e183-4afd-8584-6f27f4245acf,political_violence,0,0.0,2022-02-01 00:00:00,2022-02-28 00:00:00
806,1,AFG,Afghanistan,False,False,1,AF01,Kabul,3,AF0103,Chahar Asyab,667f089f-e183-4afd-8584-6f27f4245acf,political_violence,0,0.0,2022-03-01 00:00:00,2022-03-31 00:00:00
807,1,AFG,Afghanistan,False,False,1,AF01,Kabul,3,AF0103,Chahar Asyab,667f089f-e183-4afd-8584-6f27f4245acf,political_violence,0,0.0,2022-04-01 00:00:00,2022-04-30 00:00:00
808,1,AFG,Afghanistan,False,False,1,AF01,Kabul,3,AF0103,Chahar Asyab,667f089f-e183-4afd-8584-6f27f4245acf,political_violence,0,0.0,2022-05-01 00:00:00,2022-05-31 00:00:00
809,1,AFG,Afghanistan,False,False,1,AF01,Kabul,3,AF0103,Chahar Asyab,667f089f-e183-4afd-8584-6f27f4245acf,political_violence,1,1.0,2022-06-01 00:00:00,2022-06-30 00:00:00
810,1,AFG,Afghanistan,False,False,1,AF01,Kabul,3,AF0103,Chahar Asyab,667f089f-e183-4afd-8584-6f27f4245acf,political_violence,0,0.0,2022-07-01 00:00:00,2022-07-31 00:00:00
811,1,AFG,Afghanistan,False,False,1,AF01,Kabul,3,AF0103,Chahar Asyab,667f089f-e183-4afd-8584-6f27f4245acf,political_violence,0,0.0,2022-08-01 00:00:00,2022-08-31 00:00:00
812,1,AFG,Afghanistan,False,False,1,AF01,Kabul,3,AF0103,Chahar Asyab,667f089f-e183-4afd-8584-6f27f4245acf,political_violence,0,0.0,2022-09-01 00:00:00,2022-09-30 00:00:00
813,1,AFG,Afghanistan,False,False,1,AF01,Kabul,3,AF0103,Chahar Asyab,667f089f-e183-4afd-8584-6f27f4245acf,political_violence,0,0.0,2022-10-01 00:00:00,2022-10-31 00:00:00
814,1,AFG,Afghanistan,False,False,1,AF01,Kabul,3,AF0103,Chahar Asyab,667f089f-e183-4afd-8584-6f27f4245acf,political_violence,0,0.0,2022-11-01 00:00:00,2022-11-30 00:00:00
815,1,AFG,Afghanistan,False,False,1,AF01,Kabul,3,AF0103,Chahar Asyab,667f089f-e183-4afd-8584-6f27f4245acf,political_violence,0,0.0,2022-12-01 00:00:00,2022-12-31 00:00:00
816,1,AFG,Afghanistan,False,False,1,AF01,Kabul,3,AF0103,Chahar Asyab,667f089f-e183-4afd-8584-6f27f4245acf,political_violence,0,0.0,2023-01-01 00:00:00,2023-01-31 00:00:00
817,1,AFG,Afghanistan,False,False,1,AF01,Kabul,3,AF0103,Chahar Asyab,667f089f-e183-4afd-8584-6f27f4245acf,political_violence,0,0.0,2023-02-01 00:00:00,2023-02-28 00:00:00
818,1,AFG,Afghanistan,False,False,1,AF01,Kabul,3,AF0103,Chahar Asyab,667f089f-e183-4afd-8584-6f27f4245acf,political_violence,0,0.0,2023-03-01 00:00:00,2023-03-31 00:00:00
819,1,AFG,Afghanistan,False,False,1,AF01,Kabul,3,AF0103,Chahar Asyab,667f089f-e183-4afd-8584-6f27f4245acf,political_violence,0,0.0,2023-04-01 00:00:00,2023-04-30 00:00:00
820,1,AFG,Afghanistan,False,False,1,AF01,Kabul,3,AF0103,Chahar Asyab,667f089f-e183-4afd-8584-6f27f4245acf,political_violence,0,0.0,2023-05-01 00:00:00,2023-05-31 00:00:00
821,1,AFG,Afghanistan,False,False,1,AF01,Kabul,3,AF0103,Chahar Asyab,667f089f-e183-4afd-8584-6f27f4245acf,political_violence,1,1.0,2023-06-01 00:00:00,2023-06-30 00:00:00
822,1,AFG,Afghanistan,False,False,1,AF01,Kabul,3,AF0103,Chahar Asyab,667f089f-e183-4afd-8584-6f27f4245acf,political_violence,0,0.0,2023-07-01 00:00:00,2023-07-31 00:00:00
823,1,AFG,Afghanistan,False,False,1,AF01,Kabul,3,AF0103,Chahar Asyab,667f089f-e183-4afd-8584-6f27f4245acf,political_violence,0,0.0,2023-08-01 00:00:00,2023-08-31 00:00:00
824,1,AFG,Afghanistan,False,False,1,AF01,Kabul,3,AF0103,Chahar Asyab,667f089f-e183-4afd-8584-6f27f4245acf,political_violence,0,0.0,2023-09-01 00:00:00,2023-09-30 00:00:00
825,1,AFG,Afghanistan,False,False,1,AF01,Kabul,3,AF0103,Chahar Asyab,667f089f-e183-4afd-8584-6f27f4245acf,political_violence,0,0.0,2023-10-01 00:00:00,2023-10-31 00:00:00
826,1,AFG,Afghanistan,False,False,1,AF01,Kabul,3,AF0103,Chahar Asyab,667f089f-e183-4afd-8584-6f27f4245acf,political_violence,0,0.0,2023-11-01 00:00:00,2023-11-30 00:00:00
827,1,AFG,Afghanistan,False,False,1,AF01,Kabul,3,AF0103,Chahar Asyab,667f089f-e183-4afd-8584-6f27f4245acf,political_violence,0,0.0,2023-12-01 00:00:00,2023-12-31 00:00:00
828,1,AFG,Afghanistan,False,False,1,AF01,Kabul,3,AF0103,Chahar Asyab,667f089f-e183-4afd-8584-6f27f4245acf,political_violence,0,0.0,2024-01-01 00:00:00,2024-01-31 00:00:00
829,1,AFG,Afghanistan,False,False,1,AF01,Kabul,3,AF0103,Chahar Asyab,667f089f-e183-4afd-8584-6f27f4245acf,political_violence,0,0.0,2024-02-01 00:00:00,2024-02-29 00:00:00
830,1,AFG,Afghanistan,False,False,1,AF01,Kabul,3,AF0103,Chahar Asyab,667f089f-e183-4afd-8584-6f27f4245acf,political_violence,0,0.0,2024-03-01 00:00:00,2024-03-31 00:00:00
831,1,AFG,Afghanistan,False,False,1,AF01,Kabul,3,AF0103,Chahar Asyab,667f089f-e183-4afd-8584-6f27f4245acf,political_violence,0,0.0,2024-04-01 00:00:00,2024-04-30 00:00:00
832,1,AFG,Afghanistan,False,False,1,AF01,Kabul,3,AF0103,Chahar Asyab,667f089f-e183-4afd-8584-6f27f4245acf,political_violence,0,0.0,2024-05-01 00:00:00,2024-05-31 00:00:00
833,1,AFG,Afghanistan,False,False,1,AF01,Kabul,3,AF0103,Chahar Asyab,667f089f-e183-4afd-8584-6f27f4245acf,political_violence,0,0.0,2024-06-01 00:00:00,2024-06-30 00:00:00
834,1,AFG,Afghanistan,False,False,1,AF01,Kabul,3,AF0103,Chahar Asyab,667f089f-e183-4afd-8584-6f27f4245acf,political_violence,0,0.0,2024-07-01 00:00:00,2024-07-31 00:00:00
835,1,AFG,Afghanistan,False,False,1,AF01,Kabul,3,AF0103,Chahar Asyab,667f089f-e183-4afd-8584-6f27f4245acf,political_violence,0,0.0,2024-08-01 00:00:00,2024-08-31 00:00:00
836,1,AFG,Afghanistan,False,False,1,AF01,Kabul,3,AF0103,Chahar Asyab,667f089f-e183-4afd-8584-6f27f4245acf,political_violence,0,0.0,2024-09-01 00:00:00,2024-09-30 00:00:00
837,1,AFG,Afghanistan,False,False,1,AF01,Kabul,4,AF0104,Bagrami,667f089f-e183-4afd-8584-6f27f4245acf,civilian_targeting,0,0.0,2017-01-01 00:00:00,2017-01-31 00:00:00
838,1,AFG,Afghanistan,False,False,1,AF01,Kabul,4,AF0104,Bagrami,667f089f-e183-4afd-8584-6f27f4245acf,civilian_targeting,0,0.0,2017-02-01 00:00:00,2017-02-28 00:00:00
839,1,AFG,Afghanistan,False,False,1,AF01,Kabul,4,AF0104,Bagrami,667f089f-e183-4afd-8584-6f27f4245acf,civilian_targeting,0,0.0,2017-03-01 00:00:00,2017-03-31 00:00:00
840,1,AFG,Afghanistan,False,False,1,AF01,Kabul,4,AF0104,Bagrami,667f089f-e183-4afd-8584-6f27f4245acf,civilian_targeting,0,0.0,2017-04-01 00:00:00,2017-04-30 00:00:00
841,1,AFG,Afghanistan,False,False,1,AF01,Kabul,4,AF0104,Bagrami,667f089f-e183-4afd-8584-6f27f4245acf,civilian_targeting,0,0.0,2017-05-01 00:00:00,2017-05-31 00:00:00
842,1,AFG,Afghanistan,False,False,1,AF01,Kabul,4,AF0104,Bagrami,667f089f-e183-4afd-8584-6f27f4245acf,civilian_targeting,0,0.0,2017-06-01 00:00:00,2017-06-30 00:00:00
843,1,AFG,Afghanistan,False,False,1,AF01,Kabul,4,AF0104,Bagrami,667f089f-e183-4afd-8584-6f27f4245acf,civilian_targeting,0,0.0,2017-07-01 00:00:00,2017-07-31 00:00:00
844,1,AFG,Afghanistan,False,False,1,AF01,Kabul,4,AF0104,Bagrami,667f089f-e183-4afd-8584-6f27f4245acf,civilian_targeting,0,0.0,2017-08-01 00:00:00,2017-08-31 00:00:00
845,1,AFG,Afghanistan,False,False,1,AF01,Kabul,4,AF0104,Bagrami,667f089f-e183-4afd-8584-6f27f4245acf,civilian_targeting,0,0.0,2017-09-01 00:00:00,2017-09-30 00:00:00
846,1,AFG,Afghanistan,False,False,1,AF01,Kabul,4,AF0104,Bagrami,667f089f-e183-4afd-8584-6f27f4245acf,civilian_targeting,0,0.0,2017-10-01 00:00:00,2017-10-31 00:00:00
847,1,AFG,Afghanistan,False,False,1,AF01,Kabul,4,AF0104,Bagrami,667f089f-e183-4afd-8584-6f27f4245acf,civilian_targeting,0,0.0,2017-11-01 00:00:00,2017-11-30 00:00:00
848,1,AFG,Afghanistan,False,False,1,AF01,Kabul,4,AF0104,Bagrami,667f089f-e183-4afd-8584-6f27f4245acf,civilian_targeting,0,0.0,2017-12-01 00:00:00,2017-12-31 00:00:00
849,1,AFG,Afghanistan,False,False,1,AF01,Kabul,4,AF0104,Bagrami,667f089f-e183-4afd-8584-6f27f4245acf,civilian_targeting,0,0.0,2018-01-01 00:00:00,2018-01-31 00:00:00
850,1,AFG,Afghanistan,False,False,1,AF01,Kabul,4,AF0104,Bagrami,667f089f-e183-4afd-8584-6f27f4245acf,civilian_targeting,0,0.0,2018-02-01 00:00:00,2018-02-28 00:00:00
851,1,AFG,Afghanistan,False,False,1,AF01,Kabul,4,AF0104,Bagrami,667f089f-e183-4afd-8584-6f27f4245acf,civilian_targeting,0,0.0,2018-03-01 00:00:00,2018-03-31 00:00:00
852,1,AFG,Afghanistan,False,False,1,AF01,Kabul,4,AF0104,Bagrami,667f089f-e183-4afd-8584-6f27f4245acf,civilian_targeting,0,0.0,2018-04-01 00:00:00,2018-04-30 00:00:00
853,1,AFG,Afghanistan,False,False,1,AF01,Kabul,4,AF0104,Bagrami,667f089f-e183-4afd-8584-6f27f4245acf,civilian_targeting,0,0.0,2018-05-01 00:00:00,2018-05-31 00:00:00
854,1,AFG,Afghanistan,False,False,1,AF01,Kabul,4,AF0104,Bagrami,667f089f-e183-4afd-8584-6f27f4245acf,civilian_targeting,0,0.0,2018-06-01 00:00:00,2018-06-30 00:00:00
855,1,AFG,Afghanistan,False,False,1,AF01,Kabul,4,AF0104,Bagrami,667f089f-e183-4afd-8584-6f27f4245acf,civilian_targeting,0,0.0,2018-07-01 00:00:00,2018-07-31 00:00:00
856,1,AFG,Afghanistan,False,False,1,AF01,Kabul,4,AF0104,Bagrami,667f089f-e183-4afd-8584-6f27f4245acf,civilian_targeting,0,0.0,2018-08-01 00:00:00,2018-08-31 00:00:00
857,1,AFG,Afghanistan,False,False,1,AF01,Kabul,4,AF0104,Bagrami,667f089f-e183-4afd-8584-6f27f4245acf,civilian_targeting,0,0.0,2018-09-01 00:00:00,2018-09-30 00:00:00
858,1,AFG,Afghanistan,False,False,1,AF01,Kabul,4,AF0104,Bagrami,667f089f-e183-4afd-8584-6f27f4245acf,civilian_targeting,0,0.0,2018-10-01 00:00:00,2018-10-31 00:00:00
859,1,AFG,Afghanistan,False,False,1,AF01,Kabul,4,AF0104,Bagrami,667f089f-e183-4afd-8584-6f27f4245acf,civilian_targeting,0,0.0,2018-11-01 00:00:00,2018-11-30 00:00:00
860,1,AFG,Afghanistan,False,False,1,AF01,Kabul,4,AF0104,Bagrami,667f089f-e183-4afd-8584-6f27f4245acf,civilian_targeting,0,0.0,2018-12-01 00:00:00,2018-12-31 00:00:00
861,1,AFG,Afghanistan,False,False,1,AF01,Kabul,4,AF0104,Bagrami,667f089f-e183-4afd-8584-6f27f4245acf,civilian_targeting,0,0.0,2019-01-01 00:00:00,2019-01-31 00:00:00
862,1,AFG,Afghanistan,False,False,1,AF01,Kabul,4,AF0104,Bagrami,667f089f-e183-4afd-8584-6f27f4245acf,civilian_targeting,0,0.0,2019-02-01 00:00:00,2019-02-28 00:00:00
863,1,AFG,Afghanistan,False,False,1,AF01,Kabul,4,AF0104,Bagrami,667f089f-e183-4afd-8584-6f27f4245acf,civilian_targeting,0,0.0,2019-03-01 00:00:00,2019-03-31 00:00:00
864,1,AFG,Afghanistan,False,False,1,AF01,Kabul,4,AF0104,Bagrami,667f089f-e183-4afd-8584-6f27f4245acf,civilian_targeting,0,0.0,2019-04-01 00:00:00,2019-04-30 00:00:00
865,1,AFG,Afghanistan,False,False,1,AF01,Kabul,4,AF0104,Bagrami,667f089f-e183-4afd-8584-6f27f4245acf,civilian_targeting,0,0.0,2019-05-01 00:00:00,2019-05-31 00:00:00
866,1,AFG,Afghanistan,False,False,1,AF01,Kabul,4,AF0104,Bagrami,667f089f-e183-4afd-8584-6f27f4245acf,civilian_targeting,0,0.0,2019-06-01 00:00:00,2019-06-30 00:00:00
867,1,AFG,Afghanistan,False,False,1,AF01,Kabul,4,AF0104,Bagrami,667f089f-e183-4afd-8584-6f27f4245acf,civilian_targeting,0,0.0,2019-07-01 00:00:00,2019-07-31 00:00:00
868,1,AFG,Afghanistan,False,False,1,AF01,Kabul,4,AF0104,Bagrami,667f089f-e183-4afd-8584-6f27f4245acf,civilian_targeting,0,0.0,2019-08-01 00:00:00,2019-08-31 00:00:00
869,1,AFG,Afghanistan,False,False,1,AF01,Kabul,4,AF0104,Bagrami,667f089f-e183-4afd-8584-6f27f4245acf,civilian_targeting,0,0.0,2019-09-01 00:00:00,2019-09-30 00:00:00
870,1,AFG,Afghanistan,False,False,1,AF01,Kabul,4,AF0104,Bagrami,667f089f-e183-4afd-8584-6f27f4245acf,civilian_targeting,0,0.0,2019-10-01 00:00:00,2019-10-31 00:00:00
871,1,AFG,Afghanistan,False,False,1,AF01,Kabul,4,AF0104,Bagrami,667f089f-e183-4afd-8584-6f27f4245acf,civilian_targeting,0,0.0,2019-11-01 00:00:00,2019-11-30 00:00:00
872,1,AFG,Afghanistan,False,False,1,AF01,Kabul,4,AF0104,Bagrami,667f089f-e183-4afd-8584-6f27f4245acf,civilian_targeting,0,0.0,2019-12-01 00:00:00,2019-12-31 00:00:00
873,1,AFG,Afghanistan,False,False,1,AF01,Kabul,4,AF0104,Bagrami,667f089f-e183-4afd-8584-6f27f4245acf,civilian_targeting,0,0.0,2020-01-01 00:00:00,2020-01-31 00:00:00
874,1,AFG,Afghanistan,False,False,1,AF01,Kabul,4,AF0104,Bagrami,667f089f-e183-4afd-8584-6f27f4245acf,civilian_targeting,0,0.0,2020-02-01 00:00:00,2020-02-29 00:00:00
875,1,AFG,Afghanistan,False,False,1,AF01,Kabul,4,AF0104,Bagrami,667f089f-e183-4afd-8584-6f27f4245acf,civilian_targeting,0,0.0,2020-03-01 00:00:00,2020-03-31 00:00:00
876,1,AFG,Afghanistan,False,False,1,AF01,Kabul,4,AF0104,Bagrami,667f089f-e183-4afd-8584-6f27f4245acf,civilian_targeting,0,0.0,2020-04-01 00:00:00,2020-04-30 00:00:00
877,1,AFG,Afghanistan,False,False,1,AF01,Kabul,4,AF0104,Bagrami,667f089f-e183-4afd-8584-6f27f4245acf,civilian_targeting,0,0.0,2020-05-01 00:00:00,2020-05-31 00:00:00
878,1,AFG,Afghanistan,False,False,1,AF01,Kabul,4,AF0104,Bagrami,667f089f-e183-4afd-8584-6f27f4245acf,civilian_targeting,2,2.0,2020-06-01 00:00:00,2020-06-30 00:00:00
879,1,AFG,Afghanistan,False,False,1,AF01,Kabul,4,AF0104,Bagrami,667f089f-e183-4afd-8584-6f27f4245acf,civilian_targeting,0,0.0,2020-07-01 00:00:00,2020-07-31 00:00:00
880,1,AFG,Afghanistan,False,False,1,AF01,Kabul,4,AF0104,Bagrami,667f089f-e183-4afd-8584-6f27f4245acf,civilian_targeting,0,0.0,2020-08-01 00:00:00,2020-08-31 00:00:00
881,1,AFG,Afghanistan,False,False,1,AF01,Kabul,4,AF0104,Bagrami,667f089f-e183-4afd-8584-6f27f4245acf,civilian_targeting,0,0.0,2020-09-01 00:00:00,2020-09-30 00:00:00
882,1,AFG,Afghanistan,False,False,1,AF01,Kabul,4,AF0104,Bagrami,667f089f-e183-4afd-8584-6f27f4245acf,civilian_targeting,1,1.0,2020-10-01 00:00:00,2020-10-31 00:00:00
883,1,AFG,Afghanistan,False,False,1,AF01,Kabul,4,AF0104,Bagrami,667f089f-e183-4afd-8584-6f27f4245acf,civilian_targeting,1,1.0,2020-11-01 00:00:00,2020-11-30 00:00:00
884,1,AFG,Afghanistan,False,False,1,AF01,Kabul,4,AF0104,Bagrami,667f089f-e183-4afd-8584-6f27f4245acf,civilian_targeting,0,0.0,2020-12-01 00:00:00,2020-12-31 00:00:00
885,1,AFG,Afghanistan,False,False,1,AF01,Kabul,4,AF0104,Bagrami,667f089f-e183-4afd-8584-6f27f4245acf,civilian_targeting,0,0.0,2021-01-01 00:00:00,2021-01-31 00:00:00
886,1,AFG,Afghanistan,False,False,1,AF01,Kabul,4,AF0104,Bagrami,667f089f-e183-4afd-8584-6f27f4245acf,civilian_targeting,1,1.0,2021-02-01 00:00:00,2021-02-28 00:00:00
887,1,AFG,Afghanistan,False,False,1,AF01,Kabul,4,AF0104,Bagrami,667f089f-e183-4afd-8584-6f27f4245acf,civilian_targeting,0,0.0,2021-03-01 00:00:00,2021-03-31 00:00:00
888,1,AFG,Afghanistan,False,False,1,AF01,Kabul,4,AF0104,Bagrami,667f089f-e183-4afd-8584-6f27f4245acf,civilian_targeting,0,0.0,2021-04-01 00:00:00,2021-04-30 00:00:00
889,1,AFG,Afghanistan,False,False,1,AF01,Kabul,4,AF0104,Bagrami,667f089f-e183-4afd-8584-6f27f4245acf,civilian_targeting,1,1.0,2021-05-01 00:00:00,2021-05-31 00:00:00
890,1,AFG,Afghanistan,False,False,1,AF01,Kabul,4,AF0104,Bagrami,667f089f-e183-4afd-8584-6f27f4245acf,civilian_targeting,1,0.0,2021-06-01 00:00:00,2021-06-30 00:00:00
891,1,AFG,Afghanistan,False,False,1,AF01,Kabul,4,AF0104,Bagrami,667f089f-e183-4afd-8584-6f27f4245acf,civilian_targeting,0,0.0,2021-07-01 00:00:00,2021-07-31 00:00:00
892,1,AFG,Afghanistan,False,False,1,AF01,Kabul,4,AF0104,Bagrami,667f089f-e183-4afd-8584-6f27f4245acf,civilian_targeting,1,9.0,2021-08-01 00:00:00,2021-08-31 00:00:00
893,1,AFG,Afghanistan,False,False,1,AF01,Kabul,4,AF0104,Bagrami,667f089f-e183-4afd-8584-6f27f4245acf,civilian_targeting,0,0.0,2021-09-01 00:00:00,2021-09-30 00:00:00
894,1,AFG,Afghanistan,False,False,1,AF01,Kabul,4,AF0104,Bagrami,667f089f-e183-4afd-8584-6f27f4245acf,civilian_targeting,1,0.0,2021-10-01 00:00:00,2021-10-31 00:00:00
895,1,AFG,Afghanistan,False,False,1,AF01,Kabul,4,AF0104,Bagrami,667f089f-e183-4afd-8584-6f27f4245acf,civilian_targeting,0,0.0,2021-11-01 00:00:00,2021-11-30 00:00:00
896,1,AFG,Afghanistan,False,False,1,AF01,Kabul,4,AF0104,Bagrami,667f089f-e183-4afd-8584-6f27f4245acf,civilian_targeting,0,0.0,2021-12-01 00:00:00,2021-12-31 00:00:00
897,1,AFG,Afghanistan,False,False,1,AF01,Kabul,4,AF0104,Bagrami,667f089f-e183-4afd-8584-6f27f4245acf,civilian_targeting,0,0.0,2022-01-01 00:00:00,2022-01-31 00:00:00
898,1,AFG,Afghanistan,False,False,1,AF01,Kabul,4,AF0104,Bagrami,667f089f-e183-4afd-8584-6f27f4245acf,civilian_targeting,0,0.0,2022-02-01 00:00:00,2022-02-28 00:00:00
899,1,AFG,Afghanistan,False,False,1,AF01,Kabul,4,AF0104,Bagrami,667f089f-e183-4afd-8584-6f27f4245acf,civilian_targeting,0,0.0,2022-03-01 00:00:00,2022-03-31 00:00:00
900,1,AFG,Afghanistan,False,False,1,AF01,Kabul,4,AF0104,Bagrami,667f089f-e183-4afd-8584-6f27f4245acf,civilian_targeting,1,0.0,2022-04-01 00:00:00,2022-04-30 00:00:00
901,1,AFG,Afghanistan,False,False,1,AF01,Kabul,4,AF0104,Bagrami,667f089f-e183-4afd-8584-6f27f4245acf,civilian_targeting,0,0.0,2022-05-01 00:00:00,2022-05-31 00:00:00
902,1,AFG,Afghanistan,False,False,1,AF01,Kabul,4,AF0104,Bagrami,667f089f-e183-4afd-8584-6f27f4245acf,civilian_targeting,0,0.0,2022-06-01 00:00:00,2022-06-30 00:00:00
903,1,AFG,Afghanistan,False,False,1,AF01,Kabul,4,AF0104,Bagrami,667f089f-e183-4afd-8584-6f27f4245acf,civilian_targeting,1,1.0,2022-07-01 00:00:00,2022-07-31 00:00:00
904,1,AFG,Afghanistan,False,False,1,AF01,Kabul,4,AF0104,Bagrami,667f089f-e183-4afd-8584-6f27f4245acf,civilian_targeting,0,0.0,2022-08-01 00:00:00,2022-08-31 00:00:00
905,1,AFG,Afghanistan,False,False,1,AF01,Kabul,4,AF0104,Bagrami,667f089f-e183-4afd-8584-6f27f4245acf,civilian_targeting,0,0.0,2022-09-01 00:00:00,2022-09-30 00:00:00
906,1,AFG,Afghanistan,False,False,1,AF01,Kabul,4,AF0104,Bagrami,667f089f-e183-4afd-8584-6f27f4245acf,civilian_targeting,0,0.0,2022-10-01 00:00:00,2022-10-31 00:00:00
907,1,AFG,Afghanistan,False,False,1,AF01,Kabul,4,AF0104,Bagrami,667f089f-e183-4afd-8584-6f27f4245acf,civilian_targeting,0,0.0,2022-11-01 00:00:00,2022-11-30 00:00:00
908,1,AFG,Afghanistan,False,False,1,AF01,Kabul,4,AF0104,Bagrami,667f089f-e183-4afd-8584-6f27f4245acf,civilian_targeting,0,0.0,2022-12-01 00:00:00,2022-12-31 00:00:00
909,1,AFG,Afghanistan,False,False,1,AF01,Kabul,4,AF0104,Bagrami,667f089f-e183-4afd-8584-6f27f4245acf,civilian_targeting,0,0.0,2023-01-01 00:00:00,2023-01-31 00:00:00
910,1,AFG,Afghanistan,False,False,1,AF01,Kabul,4,AF0104,Bagrami,667f089f-e183-4afd-8584-6f27f4245acf,civilian_targeting,0,0.0,2023-02-01 00:00:00,2023-02-28 00:00:00
911,1,AFG,Afghanistan,False,False,1,AF01,Kabul,4,AF0104,Bagrami,667f089f-e183-4afd-8584-6f27f4245acf,civilian_targeting,0,0.0,2023-03-01 00:00:00,2023-03-31 00:00:00
912,1,AFG,Afghanistan,False,False,1,AF01,Kabul,4,AF0104,Bagrami,667f089f-e183-4afd-8584-6f27f4245acf,civilian_targeting,0,0.0,2023-04-01 00:00:00,2023-04-30 00:00:00
913,1,AFG,Afghanistan,False,False,1,AF01,Kabul,4,AF0104,Bagrami,667f089f-e183-4afd-8584-6f27f4245acf,civilian_targeting,1,1.0,2023-05-01 00:00:00,2023-05-31 00:00:00
914,1,AFG,Afghanistan,False,False,1,AF01,Kabul,4,AF0104,Bagrami,667f089f-e183-4afd-8584-6f27f4245acf,civilian_targeting,0,0.0,2023-06-01 00:00:00,2023-06-30 00:00:00
915,1,AFG,Afghanistan,False,False,1,AF01,Kabul,4,AF0104,Bagrami,667f089f-e183-4afd-8584-6f27f4245acf,civilian_targeting,0,0.0,2023-07-01 00:00:00,2023-07-31 00:00:00
916,1,AFG,Afghanistan,False,False,1,AF01,Kabul,4,AF0104,Bagrami,667f089f-e183-4afd-8584-6f27f4245acf,civilian_targeting,0,0.0,2023-08-01 00:00:00,2023-08-31 00:00:00
917,1,AFG,Afghanistan,False,False,1,AF01,Kabul,4,AF0104,Bagrami,667f089f-e183-4afd-8584-6f27f4245acf,civilian_targeting,0,0.0,2023-09-01 00:00:00,2023-09-30 00:00:00
918,1,AFG,Afghanistan,False,False,1,AF01,Kabul,4,AF0104,Bagrami,667f089f-e183-4afd-8584-6f27f4245acf,civilian_targeting,0,0.0,2023-10-01 00:00:00,2023-10-31 00:00:00
919,1,AFG,Afghanistan,False,False,1,AF01,Kabul,4,AF0104,Bagrami,667f089f-e183-4afd-8584-6f27f4245acf,civilian_targeting,0,0.0,2023-11-01 00:00:00,2023-11-30 00:00:00
920,1,AFG,Afghanistan,False,False,1,AF01,Kabul,4,AF0104,Bagrami,667f089f-e183-4afd-8584-6f27f4245acf,civilian_targeting,0,0.0,2023-12-01 00:00:00,2023-12-31 00:00:00
921,1,AFG,Afghanistan,False,False,1,AF01,Kabul,4,AF0104,Bagrami,667f089f-e183-4afd-8584-6f27f4245acf,civilian_targeting,1,3.0,2024-01-01 00:00:00,2024-01-31 00:00:00
922,1,AFG,Afghanistan,False,False,1,AF01,Kabul,4,AF0104,Bagrami,667f089f-e183-4afd-8584-6f27f4245acf,civilian_targeting,0,0.0,2024-02-01 00:00:00,2024-02-29 00:00:00
923,1,AFG,Afghanistan,False,False,1,AF01,Kabul,4,AF0104,Bagrami,667f089f-e183-4afd-8584-6f27f4245acf,civilian_targeting,0,0.0,2024-03-01 00:00:00,2024-03-31 00:00:00
924,1,AFG,Afghanistan,False,False,1,AF01,Kabul,4,AF0104,Bagrami,667f089f-e183-4afd-8584-6f27f4245acf,civilian_targeting,0,0.0,2024-04-01 00:00:00,2024-04-30 00:00:00
925,1,AFG,Afghanistan,False,False,1,AF01,Kabul,4,AF0104,Bagrami,667f089f-e183-4afd-8584-6f27f4245acf,civilian_targeting,0,0.0,2024-05-01 00:00:00,2024-05-31 00:00:00
926,1,AFG,Afghanistan,False,False,1,AF01,Kabul,4,AF0104,Bagrami,667f089f-e183-4afd-8584-6f27f4245acf,civilian_targeting,0,0.0,2024-06-01 00:00:00,2024-06-30 00:00:00
927,1,AFG,Afghanistan,False,False,1,AF01,Kabul,4,AF0104,Bagrami,667f089f-e183-4afd-8584-6f27f4245acf,civilian_targeting,0,0.0,2024-07-01 00:00:00,2024-07-31 00:00:00
928,1,AFG,Afghanistan,False,False,1,AF01,Kabul,4,AF0104,Bagrami,667f089f-e183-4afd-8584-6f27f4245acf,civilian_targeting,0,0.0,2024-08-01 00:00:00,2024-08-31 00:00:00
929,1,AFG,Afghanistan,False,False,1,AF01,Kabul,4,AF0104,Bagrami,667f089f-e183-4afd-8584-6f27f4245acf,civilian_targeting,0,0.0,2024-09-01 00:00:00,2024-09-30 00:00:00
930,1,AFG,Afghanistan,False,False,1,AF01,Kabul,4,AF0104,Bagrami,667f089f-e183-4afd-8584-6f27f4245acf,demonstration,0,,2017-01-01 00:00:00,2017-01-31 00:00:00
931,1,AFG,Afghanistan,False,False,1,AF01,Kabul,4,AF0104,Bagrami,667f089f-e183-4afd-8584-6f27f4245acf,demonstration,0,,2017-02-01 00:00:00,2017-02-28 00:00:00
932,1,AFG,Afghanistan,False,False,1,AF01,Kabul,4,AF0104,Bagrami,667f089f-e183-4afd-8584-6f27f4245acf,demonstration,0,,2017-03-01 00:00:00,2017-03-31 00:00:00
933,1,AFG,Afghanistan,False,False,1,AF01,Kabul,4,AF0104,Bagrami,667f089f-e183-4afd-8584-6f27f4245acf,demonstration,0,,2017-04-01 00:00:00,2017-04-30 00:00:00
934,1,AFG,Afghanistan,False,False,1,AF01,Kabul,4,AF0104,Bagrami,667f089f-e183-4afd-8584-6f27f4245acf,demonstration,0,,2017-05-01 00:00:00,2017-05-31 00:00:00
935,1,AFG,Afghanistan,False,False,1,AF01,Kabul,4,AF0104,Bagrami,667f089f-e183-4afd-8584-6f27f4245acf,demonstration,0,,2017-06-01 00:00:00,2017-06-30 00:00:00
936,1,AFG,Afghanistan,False,False,1,AF01,Kabul,4,AF0104,Bagrami,667f089f-e183-4afd-8584-6f27f4245acf,demonstration,0,,2017-07-01 00:00:00,2017-07-31 00:00:00
937,1,AFG,Afghanistan,False,False,1,AF01,Kabul,4,AF0104,Bagrami,667f089f-e183-4afd-8584-6f27f4245acf,demonstration,0,,2017-08-01 00:00:00,2017-08-31 00:00:00
938,1,AFG,Afghanistan,False,False,1,AF01,Kabul,4,AF0104,Bagrami,667f089f-e183-4afd-8584-6f27f4245acf,demonstration,0,,2017-09-01 00:00:00,2017-09-30 00:00:00
939,1,AFG,Afghanistan,False,False,1,AF01,Kabul,4,AF0104,Bagrami,667f089f-e183-4afd-8584-6f27f4245acf,demonstration,0,,2017-10-01 00:00:00,2017-10-31 00:00:00
940,1,AFG,Afghanistan,False,False,1,AF01,Kabul,4,AF0104,Bagrami,667f089f-e183-4afd-8584-6f27f4245acf,demonstration,0,,2017-11-01 00:00:00,2017-11-30 00:00:00
941,1,AFG,Afghanistan,False,False,1,AF01,Kabul,4,AF0104,Bagrami,667f089f-e183-4afd-8584-6f27f4245acf,demonstration,0,,2017-12-01 00:00:00,2017-12-31 00:00:00
942,1,AFG,Afghanistan,False,False,1,AF01,Kabul,4,AF0104,Bagrami,667f089f-e183-4afd-8584-6f27f4245acf,demonstration,0,,2018-01-01 00:00:00,2018-01-31 00:00:00
943,1,AFG,Afghanistan,False,False,1,AF01,Kabul,4,AF0104,Bagrami,667f089f-e183-4afd-8584-6f27f4245acf,demonstration,0,,2018-02-01 00:00:00,2018-02-28 00:00:00
944,1,AFG,Afghanistan,False,False,1,AF01,Kabul,4,AF0104,Bagrami,667f089f-e183-4afd-8584-6f27f4245acf,demonstration,0,,2018-03-01 00:00:00,2018-03-31 00:00:00
945,1,AFG,Afghanistan,False,False,1,AF01,Kabul,4,AF0104,Bagrami,667f089f-e183-4afd-8584-6f27f4245acf,demonstration,0,,2018-04-01 00:00:00,2018-04-30 00:00:00
946,1,AFG,Afghanistan,False,False,1,AF01,Kabul,4,AF0104,Bagrami,667f089f-e183-4afd-8584-6f27f4245acf,demonstration,0,,2018-05-01 00:00:00,2018-05-31 00:00:00
947,1,AFG,Afghanistan,False,False,1,AF01,Kabul,4,AF0104,Bagrami,667f089f-e183-4afd-8584-6f27f4245acf,demonstration,0,,2018-06-01 00:00:00,2018-06-30 00:00:00
948,1,AFG,Afghanistan,False,False,1,AF01,Kabul,4,AF0104,Bagrami,667f089f-e183-4afd-8584-6f27f4245acf,demonstration,0,,2018-07-01 00:00:00,2018-07-31 00:00:00
949,1,AFG,Afghanistan,False,False,1,AF01,Kabul,4,AF0104,Bagrami,667f089f-e183-4afd-8584-6f27f4245acf,demonstration,0,,2018-08-01 00:00:00,2018-08-31 00:00:00
950,1,AFG,Afghanistan,False,False,1,AF01,Kabul,4,AF0104,Bagrami,667f089f-e183-4afd-8584-6f27f4245acf,demonstration,0,,2018-09-01 00:00:00,2018-09-30 00:00:00
951,1,AFG,Afghanistan,False,False,1,AF01,Kabul,4,AF0104,Bagrami,667f089f-e183-4afd-8584-6f27f4245acf,demonstration,0,,2018-10-01 00:00:00,2018-10-31 00:00:00
952,1,AFG,Afghanistan,False,False,1,AF01,Kabul,4,AF0104,Bagrami,667f089f-e183-4afd-8584-6f27f4245acf,demonstration,0,,2018-11-01 00:00:00,2018-11-30 00:00:00
953,1,AFG,Afghanistan,False,False,1,AF01,Kabul,4,AF0104,Bagrami,667f089f-e183-4afd-8584-6f27f4245acf,demonstration,0,,2018-12-01 00:00:00,2018-12-31 00:00:00
954,1,AFG,Afghanistan,False,False,1,AF01,Kabul,4,AF0104,Bagrami,667f089f-e183-4afd-8584-6f27f4245acf,demonstration,0,,2019-01-01 00:00:00,2019-01-31 00:00:00
955,1,AFG,Afghanistan,False,False,1,AF01,Kabul,4,AF0104,Bagrami,667f089f-e183-4afd-8584-6f27f4245acf,demonstration,0,,2019-02-01 00:00:00,2019-02-28 00:00:00
956,1,AFG,Afghanistan,False,False,1,AF01,Kabul,4,AF0104,Bagrami,667f089f-e183-4afd-8584-6f27f4245acf,demonstration,0,,2019-03-01 00:00:00,2019-03-31 00:00:00
957,1,AFG,Afghanistan,False,False,1,AF01,Kabul,4,AF0104,Bagrami,667f089f-e183-4afd-8584-6f27f4245acf,demonstration,0,,2019-04-01 00:00:00,2019-04-30 00:00:00
958,1,AFG,Afghanistan,False,False,1,AF01,Kabul,4,AF0104,Bagrami,667f089f-e183-4afd-8584-6f27f4245acf,demonstration,0,,2019-05-01 00:00:00,2019-05-31 00:00:00
959,1,AFG,Afghanistan,False,False,1,AF01,Kabul,4,AF0104,Bagrami,667f089f-e183-4afd-8584-6f27f4245acf,demonstration,0,,2019-06-01 00:00:00,2019-06-30 00:00:00
960,1,AFG,Afghanistan,False,False,1,AF01,Kabul,4,AF0104,Bagrami,667f089f-e183-4afd-8584-6f27f4245acf,demonstration,0,,2019-07-01 00:00:00,2019-07-31 00:00:00
961,1,AFG,Afghanistan,False,False,1,AF01,Kabul,4,AF0104,Bagrami,667f089f-e183-4afd-8584-6f27f4245acf,demonstration,0,,2019-08-01 00:00:00,2019-08-31 00:00:00
962,1,AFG,Afghanistan,False,False,1,AF01,Kabul,4,AF0104,Bagrami,667f089f-e183-4afd-8584-6f27f4245acf,demonstration,0,,2019-09-01 00:00:00,2019-09-30 00:00:00
963,1,AFG,Afghanistan,False,False,1,AF01,Kabul,4,AF0104,Bagrami,667f089f-e183-4afd-8584-6f27f4245acf,demonstration,0,,2019-10-01 00:00:00,2019-10-31 00:00:00
964,1,AFG,Afghanistan,False,False,1,AF01,Kabul,4,AF0104,Bagrami,667f089f-e183-4afd-8584-6f27f4245acf,demonstration,0,,2019-11-01 00:00:00,2019-11-30 00:00:00
965,1,AFG,Afghanistan,False,False,1,AF01,Kabul,4,AF0104,Bagrami,667f089f-e183-4afd-8584-6f27f4245acf,demonstration,0,,2019-12-01 00:00:00,2019-12-31 00:00:00
966,1,AFG,Afghanistan,False,False,1,AF01,Kabul,4,AF0104,Bagrami,667f089f-e183-4afd-8584-6f27f4245acf,demonstration,0,,2020-01-01 00:00:00,2020-01-31 00:00:00
967,1,AFG,Afghanistan,False,False,1,AF01,Kabul,4,AF0104,Bagrami,667f089f-e183-4afd-8584-6f27f4245acf,demonstration,0,,2020-02-01 00:00:00,2020-02-29 00:00:00
968,1,AFG,Afghanistan,False,False,1,AF01,Kabul,4,AF0104,Bagrami,667f089f-e183-4afd-8584-6f27f4245acf,demonstration,0,,2020-03-01 00:00:00,2020-03-31 00:00:00
969,1,AFG,Afghanistan,False,False,1,AF01,Kabul,4,AF0104,Bagrami,667f089f-e183-4afd-8584-6f27f4245acf,demonstration,0,,2020-04-01 00:00:00,2020-04-30 00:00:00
970,1,AFG,Afghanistan,False,False,1,AF01,Kabul,4,AF0104,Bagrami,667f089f-e183-4afd-8584-6f27f4245acf,demonstration,0,,2020-05-01 00:00:00,2020-05-31 00:00:00
971,1,AFG,Afghanistan,False,False,1,AF01,Kabul,4,AF0104,Bagrami,667f089f-e183-4afd-8584-6f27f4245acf,demonstration,0,,2020-06-01 00:00:00,2020-06-30 00:00:00
972,1,AFG,Afghanistan,False,False,1,AF01,Kabul,4,AF0104,Bagrami,667f089f-e183-4afd-8584-6f27f4245acf,demonstration,0,,2020-07-01 00:00:00,2020-07-31 00:00:00
973,1,AFG,Afghanistan,False,False,1,AF01,Kabul,4,AF0104,Bagrami,667f089f-e183-4afd-8584-6f27f4245acf,demonstration,0,,2020-08-01 00:00:00,2020-08-31 00:00:00
974,1,AFG,Afghanistan,False,False,1,AF01,Kabul,4,AF0104,Bagrami,667f089f-e183-4afd-8584-6f27f4245acf,demonstration,0,,2020-09-01 00:00:00,2020-09-30 00:00:00
975,1,AFG,Afghanistan,False,False,1,AF01,Kabul,4,AF0104,Bagrami,667f089f-e183-4afd-8584-6f27f4245acf,demonstration,0,,2020-10-01 00:00:00,2020-10-31 00:00:00
976,1,AFG,Afghanistan,False,False,1,AF01,Kabul,4,AF0104,Bagrami,667f089f-e183-4afd-8584-6f27f4245acf,demonstration,0,,2020-11-01 00:00:00,2020-11-30 00:00:00
977,1,AFG,Afghanistan,False,False,1,AF01,Kabul,4,AF0104,Bagrami,667f089f-e183-4afd-8584-6f27f4245acf,demonstration,0,,2020-12-01 00:00:00,2020-12-31 00:00:00
978,1,AFG,Afghanistan,False,False,1,AF01,Kabul,4,AF0104,Bagrami,667f089f-e183-4afd-8584-6f27f4245acf,demonstration,0,,2021-01-01 00:00:00,2021-01-31 00:00:00
979,1,AFG,Afghanistan,False,False,1,AF01,Kabul,4,AF0104,Bagrami,667f089f-e183-4afd-8584-6f27f4245acf,demonstration,0,,2021-02-01 00:00:00,2021-02-28 00:00:00
980,1,AFG,Afghanistan,False,False,1,AF01,Kabul,4,AF0104,Bagrami,667f089f-e183-4afd-8584-6f27f4245acf,demonstration,0,,2021-03-01 00:00:00,2021-03-31 00:00:00
981,1,AFG,Afghanistan,False,False,1,AF01,Kabul,4,AF0104,Bagrami,667f089f-e183-4afd-8584-6f27f4245acf,demonstration,0,,2021-04-01 00:00:00,2021-04-30 00:00:00
982,1,AFG,Afghanistan,False,False,1,AF01,Kabul,4,AF0104,Bagrami,667f089f-e183-4afd-8584-6f27f4245acf,demonstration,0,,2021-05-01 00:00:00,2021-05-31 00:00:00
983,1,AFG,Afghanistan,False,False,1,AF01,Kabul,4,AF0104,Bagrami,667f089f-e183-4afd-8584-6f27f4245acf,demonstration,0,,2021-06-01 00:00:00,2021-06-30 00:00:00
984,1,AFG,Afghanistan,False,False,1,AF01,Kabul,4,AF0104,Bagrami,667f089f-e183-4afd-8584-6f27f4245acf,demonstration,0,,2021-07-01 00:00:00,2021-07-31 00:00:00
985,1,AFG,Afghanistan,False,False,1,AF01,Kabul,4,AF0104,Bagrami,667f089f-e183-4afd-8584-6f27f4245acf,demonstration,0,,2021-08-01 00:00:00,2021-08-31 00:00:00
986,1,AFG,Afghanistan,False,False,1,AF01,Kabul,4,AF0104,Bagrami,667f089f-e183-4afd-8584-6f27f4245acf,demonstration,0,,2021-09-01 00:00:00,2021-09-30 00:00:00
987,1,AFG,Afghanistan,False,False,1,AF01,Kabul,4,AF0104,Bagrami,667f089f-e183-4afd-8584-6f27f4245acf,demonstration,0,,2021-10-01 00:00:00,2021-10-31 00:00:00
988,1,AFG,Afghanistan,False,False,1,AF01,Kabul,4,AF0104,Bagrami,667f089f-e183-4afd-8584-6f27f4245acf,demonstration,0,,2021-11-01 00:00:00,2021-11-30 00:00:00
989,1,AFG,Afghanistan,False,False,1,AF01,Kabul,4,AF0104,Bagrami,667f089f-e183-4afd-8584-6f27f4245acf,demonstration,0,,2021-12-01 00:00:00,2021-12-31 00:00:00
990,1,AFG,Afghanistan,False,False,1,AF01,Kabul,4,AF0104,Bagrami,667f089f-e183-4afd-8584-6f27f4245acf,demonstration,0,,2022-01-01 00:00:00,2022-01-31 00:00:00
991,1,AFG,Afghanistan,False,False,1,AF01,Kabul,4,AF0104,Bagrami,667f089f-e183-4afd-8584-6f27f4245acf,demonstration,0,,2022-02-01 00:00:00,2022-02-28 00:00:00
992,1,AFG,Afghanistan,False,False,1,AF01,Kabul,4,AF0104,Bagrami,667f089f-e183-4afd-8584-6f27f4245acf,demonstration,0,,2022-03-01 00:00:00,2022-03-31 00:00:00
993,1,AFG,Afghanistan,False,False,1,AF01,Kabul,4,AF0104,Bagrami,667f089f-e183-4afd-8584-6f27f4245acf,demonstration,0,,2022-04-01 00:00:00,2022-04-30 00:00:00
994,1,AFG,Afghanistan,False,False,1,AF01,Kabul,4,AF0104,Bagrami,667f089f-e183-4afd-8584-6f27f4245acf,demonstration,0,,2022-05-01 00:00:00,2022-05-31 00:00:00
995,1,AFG,Afghanistan,False,False,1,AF01,Kabul,4,AF0104,Bagrami,667f089f-e183-4afd-8584-6f27f4245acf,demonstration,0,,2022-06-01 00:00:00,2022-06-30 00:00:00
996,1,AFG,Afghanistan,False,False,1,AF01,Kabul,4,AF0104,Bagrami,667f089f-e183-4afd-8584-6f27f4245acf,demonstration,0,,2022-07-01 00:00:00,2022-07-31 00:00:00
997,1,AFG,Afghanistan,False,False,1,AF01,Kabul,4,AF0104,Bagrami,667f089f-e183-4afd-8584-6f27f4245acf,demonstration,0,,2022-08-01 00:00:00,2022-08-31 00:00:00
998,1,AFG,Afghanistan,False,False,1,AF01,Kabul,4,AF0104,Bagrami,667f089f-e183-4afd-8584-6f27f4245acf,demonstration,0,,2022-09-01 00:00:00,2022-09-30 00:00:00
999,1,AFG,Afghanistan,False,False,1,AF01,Kabul,4,AF0104,Bagrami,667f089f-e183-4afd-8584-6f27f4245acf,demonstration,0,,2022-10-01 00:00:00,2022-10-31 00:00:00
